Host ID,Host Lat,Host Lng,TOWN,NAME,COUNTRY,Address1,Postcode,PNO,NSF,Branch IDs,Venue ID,Venue Name,Venue Distance,Venue Address,Venue Lat,Venue Lng,Venue Category
TM7157,53.5416716023565,-2.11224577491091,OLDHAM,OLDHAM,ENG,Unit 3,OL1 1XE,1361,2200,TM7157,4bf93e604a67c928dd8026cf,JD Sports,132,"['Units 16-17 Lower Mall The Spindles Sc (Lower Mall)', 'Oldham', 'Lancashire', 'OL1 1HE', 'United Kingdom']",53.541413,-2.114194,Sporting Goods Shop
TM7157,53.5416716023565,-2.11224577491091,OLDHAM,OLDHAM,ENG,Unit 3,OL1 1XE,1361,2200,TM7157,5b7f0f5e4a7aae002cf533ea,JD Sports,7061,"['The Sharp Project (Thorpe Rd)', 'Manchester', 'Greater Manchester', 'M40 5BJ', 'United Kingdom']",53.50143612114339,-2.194744348526001,Sporting Goods Shop
TM7157,53.5416716023565,-2.11224577491091,OLDHAM,OLDHAM,ENG,Unit 3,OL1 1XE,1361,2200,TM7157,5a8ecd550881587526bae41b,JD Sports,9173,"['Unit 18 Crown Point North Denton', 'Denton', 'Tameside', 'M34 3JP', 'United Kingdom']",53.459317792838654,-2.117343842983246,Sporting Goods Shop
TM7157,53.5416716023565,-2.11224577491091,OLDHAM,OLDHAM,ENG,Unit 3,OL1 1XE,1361,2200,TM7157,4c9dee1f46978cfa9f219c7f,JD Sports,5919,"['Units 28 & 29, The Arcades Shopping Centre (1st Floor)', 'Ashton-under-Lyne', 'Tameside', 'OL6 7JE', 'United Kingdom']",53.4894894,-2.0950455,Sporting Goods Shop
TM7157,53.5416716023565,-2.11224577491091,OLDHAM,OLDHAM,ENG,Unit 3,OL1 1XE,1361,2200,TM7157,4c6aca2f897b1b8d72b1b217,JD Sports,2522,"['Unit 3 Centre Retail Park Elk Mill', 'Oldham', 'Lancashire', 'OL2 5HX', 'United Kingdom']",53.558099788457994,-2.138509154319763,Sporting Goods Shop
TM7157,53.5416716023565,-2.11224577491091,OLDHAM,OLDHAM,ENG,Unit 3,OL1 1XE,1361,2200,TM7157,4b7ec528f964a52010fe2fe3,JD Sports,10794,"['16-18 Arndale Centre, Barbarolli Mall', 'Manchester', 'M4 3AB', 'United Kingdom']",53.4835743595944,-2.2428121987419445,Sporting Goods Shop
TM7157,53.5416716023565,-2.11224577491091,OLDHAM,OLDHAM,ENG,Unit 3,OL1 1XE,1361,2200,TM7157,501620dfe4b0ad6ab37d6045,JD Sports,9006,"['38 Yorkshire Street', 'Rochdale', 'OL16 1JN', 'United Kingdom']",53.617892854318065,-2.1579283475875854,Sporting Goods Shop
TM7157,53.5416716023565,-2.11224577491091,OLDHAM,OLDHAM,ENG,Unit 3,OL1 1XE,1361,2200,TM7157,4da1ab35b3e7236a011e0e79,JD Sports,10027,"['Unit B Central Retail Park Gt Ancoats St', 'Manchester', 'Greater Manchester', 'M4 6DJ', 'United Kingdom']",53.48240209762607,-2.2263139486312866,Sporting Goods Shop
TM7345,53.1896462036395,-2.8892523267285,CHESTER,CHESTER,ENG,12/14 St Michael's Square,CH1 1EE,1748,3300,"TM7345,TS0324",4e886ca5d22df6ec1a1deb07,JD Sports,167,"['9 Foregate Street', 'Chester', 'Cheshire', 'CH1 1HD', 'United Kingdom']",53.1910647706193,-2.8884319961071014,Sporting Goods Shop
TM7345,53.1896462036395,-2.8892523267285,CHESTER,CHESTER,ENG,12/14 St Michael's Square,CH1 1EE,1748,3300,"TM7345,TS0324",5a2e9d1a82a7506f508f1390,JD Sports,6182,"['Unit 4A Broughton Park', 'Flintshire', 'CH4 0DE', 'United Kingdom']",53.167487,-2.974228,Sporting Goods Shop
TM7345,53.1896462036395,-2.8892523267285,CHESTER,CHESTER,ENG,12/14 St Michael's Square,CH1 1EE,1748,3300,"TM7345,TS0324",4df4af55ae609e69dd9dd0ad,JD Sports,8261,"['Unit R10 29 Coliseum Way Ellesmere Port (Coliseum Way)', 'Halton', 'CH65 9HD', 'United Kingdom']",53.26380326629993,-2.8844374957008085,Sporting Goods Shop
TM7782,51.5200231460575,-0.07425067734535,SHOREDITCH,SHOREDITCH,ENG,98 Commercial Street,E1 6LZ,968,1150,TM7782,4fbf51d3e4b07c0ab040c868,JD Sports,7862,"['Unit C The Mall 33 Selbourne Walk', 'Walthamstow', 'Greater London', 'E17 7JR', 'United Kingdom']",51.58313160928119,-0.02323061227798462,Sporting Goods Shop
TM7782,51.5200231460575,-0.07425067734535,SHOREDITCH,SHOREDITCH,ENG,98 Commercial Street,E1 6LZ,968,1150,TM7782,4ac518f1f964a520ecad20e3,JD Sports,4555,"['197-203 Oxford Street', 'West End', 'Greater London', 'W1D 2LE', 'United Kingdom']",51.5152391,-0.1395672,Sporting Goods Shop
TM7815,54.5263498645011,-1.55435054934217,DARLINGTON,DARLINGTON,ENG,28-34 Northgate,DL1 1NR,1660,2478,TM7815,4e74781b1f6e072f1337d4ab,JD Sports,87,"['Unit 26 34 The Cornmill Sc', 'Darlington', 'DL1 1LS', 'United Kingdom']",54.526276,-1.553008,Sporting Goods Shop
TM7939,51.4106283,-0.3025727,KINGSTON,KINGSTON UPON THAMES,ENG,40 Clarence Street,KT1 1NR,7017,2097,TM7939,4d1b21efeab1224b5491cfe2,JD Sports,167,"['20 Church Street', 'Kingston', 'Greater London', 'KT1 1RJ', 'United Kingdom']",51.4105961,-0.3049785,Sporting Goods Shop
TM7939,51.4106283,-0.3025727,KINGSTON,KINGSTON UPON THAMES,ENG,40 Clarence Street,KT1 1NR,7017,2097,TM7939,5a8ecd3d5a2c9117b2eca1d4,JD Sports,9586,"['53 Tooting High Street', 'Tooting', 'Greater London', 'SW17 0SP', 'United Kingdom']",51.428388,-0.167446,Sporting Goods Shop
TM7939,51.4106283,-0.3025727,KINGSTON,KINGSTON UPON THAMES,ENG,40 Clarence Street,KT1 1NR,7017,2097,TM7939,4de21fb718385df2b01be85b,JD Sports,12141,"['Ariel Way (Unit 1158)', 'Shepherds Bush', 'Greater London', 'W12 7GD', 'United Kingdom']",51.50754047922712,-0.2222532033920288,Sporting Goods Shop
TM7939,51.4106283,-0.3025727,KINGSTON,KINGSTON UPON THAMES,ENG,40 Clarence Street,KT1 1NR,7017,2097,TM7939,4ea7f0d7b8f7ff211aa69309,JD Sports,8775,"['Unit 2 Tandem Centre Top Of Church Rd (Tandem Way)', 'Colliers Wood', 'Greater London', 'SW19 2TY', 'United Kingdom']",51.414558236308686,-0.17633914947509766,Sporting Goods Shop
TM7939,51.4106283,-0.3025727,KINGSTON,KINGSTON UPON THAMES,ENG,40 Clarence Street,KT1 1NR,7017,2097,TM7939,4c0f573a2466a5931e797a21,JD Sports,6833,"['Unit 3 15-29 The Broadway', 'Wimbledon', 'Greater London', 'SW19 1PS', 'United Kingdom']",51.42035259651733,-0.20538747310638428,Sporting Goods Shop
TM7939,51.4106283,-0.3025727,KINGSTON,KINGSTON UPON THAMES,ENG,40 Clarence Street,KT1 1NR,7017,2097,TM7939,5725e6fe498e259d1c1d7b27,JD Sports,8925,"['60 High Street', 'Epsom', 'Surrey', 'KT19 8AJ', 'United Kingdom']",51.33364326384707,-0.26668936014175415,Sporting Goods Shop
TM7939,51.4106283,-0.3025727,KINGSTON,KINGSTON UPON THAMES,ENG,40 Clarence Street,KT1 1NR,7017,2097,TM7939,5a8ecf5c3d479176b9778d52,JD Sports,9105,"['163 High Street', 'Sutton', 'Greater London', 'SM1 1JN', 'United Kingdom']",51.36485115254712,-0.19395321607589722,Sporting Goods Shop
TM8134,55.8638626676302,-4.25318293851664,GLASGOW,GLASGOW BUCHANAN ST,SCO,The George Unit 1& 2,G1 2NG,404,8404,"TM8134,TS2876",4fef1b16e4b09cfafdd1dedb,JD Sports,7072,"['Unit 58/59, Lower Level, Braehead Sc (Kings Inch Rd)', 'Glasgow City', 'G51 4BP', 'United Kingdom']",55.87587199062784,-4.364382999999975,Sporting Goods Shop
TM8134,55.8638626676302,-4.25318293851664,GLASGOW,GLASGOW BUCHANAN ST,SCO,The George Unit 1& 2,G1 2NG,404,8404,"TM8134,TS2876",4bf93d4f8d30d13ae8da0118,JD Sports,7185,"['Unit 13 Glasgow Fort Shopping Park', 'Glasgow', 'Glasgow City', 'G34 9DL', 'United Kingdom']",55.87176407753276,-4.139003932540845,Sporting Goods Shop
TM8134,55.8638626676302,-4.25318293851664,GLASGOW,GLASGOW BUCHANAN ST,SCO,The George Unit 1& 2,G1 2NG,404,8404,"TM8134,TS2876",5182b87a498e9f19eac5d907,JD Sports,684,"['87-91 Argyle Street (St Enoch Shopping Centre)', 'Glasgow', 'Glasgow City', 'G2 8BJ', 'United Kingdom']",55.85771785989028,-4.252762906745943,Sporting Goods Shop
TM8134,55.8638626676302,-4.25318293851664,GLASGOW,GLASGOW BUCHANAN ST,SCO,The George Unit 1& 2,G1 2NG,404,8404,"TM8134,TS2876",5a8ecd4a5a2c9117b2eca903,JD Sports,10478,"['Unit 79 Sylvania Way', 'Clydebank', 'West Dunbartonshire', 'G81 2RR', 'United Kingdom']",55.90499338841441,-4.404138922691345,Sporting Goods Shop
TM8134,55.8638626676302,-4.25318293851664,GLASGOW,GLASGOW BUCHANAN ST,SCO,The George Unit 1& 2,G1 2NG,404,8404,"TM8134,TS2876",55eaf05f498e8edb05e64cbc,JD Sports,7300,"['Unit 65 Silverburn Centre, Barrhead Road (Barrhead Rd)', 'Glasgow', 'Glasgow City', 'G53 6AG', 'United Kingdom']",55.82106136560886,-4.3416836857795715,Sporting Goods Shop
TM8134,55.8638626676302,-4.25318293851664,GLASGOW,GLASGOW BUCHANAN ST,SCO,The George Unit 1& 2,G1 2NG,404,8404,"TM8134,TS2876",5cc0961aecb3ed002526ee0b,JD Sports,11293,"['Departure Lounge', 'Paisley', 'Renfrewshire', 'PA3', 'United Kingdom']",55.864865,-4.433959,Sporting Goods Shop
TM8134,55.8638626676302,-4.25318293851664,GLASGOW,GLASGOW BUCHANAN ST,SCO,The George Unit 1& 2,G1 2NG,404,8404,"TM8134,TS2876",4e95865e722ed789ed0bf5e2,JD Sports,3515,"['Unit 33 Forge Shopping Centre', 'Glasgow', 'Glasgow City', 'G31 4EB', 'United Kingdom']",55.85374238397631,-4.199872612953186,Sporting Goods Shop
TM8134,55.8638626676302,-4.25318293851664,GLASGOW,GLASGOW BUCHANAN ST,SCO,The George Unit 1& 2,G1 2NG,404,8404,"TM8134,TS2876",4e14305518a8b99f10ad7e67,JD Sports,757,"['186 Trongate (Glassford St)', 'Glasgow', 'Glasgow City', 'G1 5RY', 'United Kingdom']",55.85752713631158,-4.248780012130737,Sporting Goods Shop
TS0001,51.5155336,-0.141352,LONDON (OXFORD CIRCUS),OXFORD CIRCUS,ENG,214 Oxford Street,W1W 8LG,8512,69207,"TM7329,TS0001",4ac518f1f964a520ecad20e3,JD Sports,127,"['197-203 Oxford Street', 'West End', 'Greater London', 'W1D 2LE', 'United Kingdom']",51.5152391,-0.1395672,Sporting Goods Shop
TS0001,51.5155336,-0.141352,LONDON (OXFORD CIRCUS),OXFORD CIRCUS,ENG,214 Oxford Street,W1W 8LG,8512,69207,"TM7329,TS0001",4fbf51d3e4b07c0ab040c868,JD Sports,11112,"['Unit C The Mall 33 Selbourne Walk', 'Walthamstow', 'Greater London', 'E17 7JR', 'United Kingdom']",51.58313160928119,-0.02323061227798462,Sporting Goods Shop
TS0001,51.5155336,-0.141352,LONDON (OXFORD CIRCUS),OXFORD CIRCUS,ENG,214 Oxford Street,W1W 8LG,8512,69207,"TM7329,TS0001",5a8ecd3d5a2c9117b2eca1d4,JD Sports,9868,"['53 Tooting High Street', 'Tooting', 'Greater London', 'SW17 0SP', 'United Kingdom']",51.428388,-0.167446,Sporting Goods Shop
TS0003,51.5744922,-0.2215646,BRENT CROSS,BRENT CROSS,ENG,"Unit 72, Brent Cross Shopping Centre",NW4 3FP,780,11237,"TM7218,TS0003",4ac518f1f964a520ecad20e3,JD Sports,8702,"['197-203 Oxford Street', 'West End', 'Greater London', 'W1D 2LE', 'United Kingdom']",51.5152391,-0.1395672,Sporting Goods Shop
TS0003,51.5744922,-0.2215646,BRENT CROSS,BRENT CROSS,ENG,"Unit 72, Brent Cross Shopping Centre",NW4 3FP,780,11237,"TM7218,TS0003",50ca2e02e4b0a678c04f68a5,JD Sports,4334,"['Unit 1B Stadium Retail Park (Wembley Pk Dr)', 'Wembley', 'Greater London', 'HA9 8TS', 'United Kingdom']",51.5613556,-0.280536,Sporting Goods Shop
TS0004,53.4047412265498,-2.98254078973347,LIVERPOOL,LIVERPOOL,ENG,22/36 Church Street,L1 3AY,1479,20200,"TM7256,TS0004",50d6ef96e4b06bd2e86be07b,JD Sports,216,"['145-146 Charlotte Way St Johns Precinct (St Johns Precinct)', 'Liverpool', 'L1 1NA', 'United Kingdom']",53.406344,-2.980698,Sporting Goods Shop
TS0004,53.4047412265498,-2.98254078973347,LIVERPOOL,LIVERPOOL,ENG,22/36 Church Street,L1 3AY,1479,20200,"TM7256,TS0004",4c838726dc018cfae439d96c,JD Sports,257,"['4 Paradise St (MSU4B Liverpool One)', 'Liverpool', 'L1 8JF', 'United Kingdom']",53.4045585,-2.9864113,Sporting Goods Shop
TS0004,53.4047412265498,-2.98254078973347,LIVERPOOL,LIVERPOOL,ENG,22/36 Church Street,L1 3AY,1479,20200,"TM7256,TS0004",4fb12597e4b0ddb44aed532c,JD Sports,5352,"['Unit 2 The Strand Sc', 'Bootle', 'Sefton', 'L20 4XX', 'United Kingdom']",53.45245506010042,-2.992503046989441,Sporting Goods Shop
TS0004,53.4047412265498,-2.98254078973347,LIVERPOOL,LIVERPOOL,ENG,22/36 Church Street,L1 3AY,1479,20200,"TM7256,TS0004",4fcf40b0e4b099486cfd32d7,JD Sports,3360,"['178-182 Unit 3 Grange Road (Unit 3)', 'Birkenhead', 'Wirral', 'CH41 6EA', 'United Kingdom']",53.3895946,-3.0263291,Sporting Goods Shop
TS0004,53.4047412265498,-2.98254078973347,LIVERPOOL,LIVERPOOL,ENG,22/36 Church Street,L1 3AY,1479,20200,"TM7256,TS0004",4bace318f964a520f6153be3,JD Sports,9051,"['Unit 7 New Mersey Retail Park (Speke Rd)', 'Speke', 'Liverpool', 'L24 8QB', 'United Kingdom']",53.3517248,-2.8791868,Sporting Goods Shop
TS0004,53.4047412265498,-2.98254078973347,LIVERPOOL,LIVERPOOL,ENG,22/36 Church Street,L1 3AY,1479,20200,"TM7256,TS0004",50e5a98de4b01e90712f258c,JD Sports,12382,"['Unit 6B Cables Retail Park', 'Prescot', 'Knowsley', 'L34 5NQ', 'United Kingdom']",53.4266116,-2.7995483,Sporting Goods Shop
TS0004,53.4047412265498,-2.98254078973347,LIVERPOOL,LIVERPOOL,ENG,22/36 Church Street,L1 3AY,1479,20200,"TM7256,TS0004",526e95ae498e3c8ecbea7f96,JD Sports,8540,"['Unit 3B, Racecourse Retail Park', 'Sefton', 'L9 5AN', 'United Kingdom']",53.4791517,-2.9511615,Sporting Goods Shop
TS0004,53.4047412265498,-2.98254078973347,LIVERPOOL,LIVERPOOL,ENG,22/36 Church Street,L1 3AY,1479,20200,"TM7256,TS0004",5a8ecffecbcdee114e26bf50,JD Sports,3815,"['Unit 24 Edge Lane', 'Liverpool', 'L13 9NB', 'United Kingdom']",53.409036,-2.9254948,Sporting Goods Shop
TS0005,54.956483089938,-1.6689083161523,GATESHEAD (METRO),GATESHEAD METRO CENTRE,ENG,Unit 57 Cameron Walk,NE11 9YR,1813,10498,"TM7390,TS0005",4bc09ecdb492d13aee80a460,JD Sports,130,"['105A 106B B1-B7/9 The Gallery Metro Centre (Red Mall)', 'Gateshead', 'NE11 9YP', 'United Kingdom']",54.95711929952166,-1.6706176822090129,Sporting Goods Shop
TS0005,54.956483089938,-1.6689083161523,GATESHEAD (METRO),GATESHEAD METRO CENTRE,ENG,Unit 57 Cameron Walk,NE11 9YR,1813,10498,"TM7390,TS0005",4c9206c5ae45224bbc6aec97,JD Sports,4191,"['54 Northumberland Street', 'Newcastle upon Tyne', 'NE1 7DF', 'United Kingdom']",54.9756803,-1.6124877,Sporting Goods Shop
TS0009,52.5849141267301,-2.1265319280354,WOLVERHAMPTON,WOLVERHAMPTON,ENG,12/13 Dudley Street,WV1 3EY,928,2585,"TM7159,TS0009",55f17061498e32b72a281497,JD Sports,118,"['Unit 26-32 Central Arcade', 'Wolverhampton', 'West Midlands', 'WV1 3NH', 'United Kingdom']",52.584325,-2.127989,Sporting Goods Shop
TS0009,52.5849141267301,-2.1265319280354,WOLVERHAMPTON,WOLVERHAMPTON,ENG,12/13 Dudley Street,WV1 3EY,928,2585,"TM7159,TS0009",4cfa84f6dccef04df8c9b59c,JD Sports,11771,"['Unit L101 Merryhill Sc Brierley Hill', 'Dudley', 'DY5 1SY', 'United Kingdom']",52.47963609184035,-2.11019549570085,Sporting Goods Shop
TS0009,52.5849141267301,-2.1265319280354,WOLVERHAMPTON,WOLVERHAMPTON,ENG,12/13 Dudley Street,WV1 3EY,928,2585,"TM7159,TS0009",5b7f18db67e5f2002c2a95d5,JD Sports,8228,"['Unit 5 Gallagher Retail Park', 'Wednesbury', 'Sandwell', 'WS10 9QY', 'United Kingdom']",52.56576025461298,-2.0090603828430176,Sporting Goods Shop
TS0009,52.5849141267301,-2.1265319280354,WOLVERHAMPTON,WOLVERHAMPTON,ENG,12/13 Dudley Street,WV1 3EY,928,2585,"TM7159,TS0009",4ed63aad722eff15c01c3750,JD Sports,11601,"['Unit Su3 New Square', 'West Bromwich', 'Sandwell', 'B70 7NX', 'United Kingdom']",52.52038283517374,-1.9919317960739136,Sporting Goods Shop
TS0009,52.5849141267301,-2.1265319280354,WOLVERHAMPTON,WOLVERHAMPTON,ENG,12/13 Dudley Street,WV1 3EY,928,2585,"TM7159,TS0009",4d233e5e5acaa35d28d4de35,JD Sports,2973,"['Unit C3B Bentley Bridge Retail Park', 'Wednesfield', 'West Midlands', 'WV11 1BP', 'United Kingdom']",52.597179067429494,-2.087477863754202,Sporting Goods Shop
TS0009,52.5849141267301,-2.1265319280354,WOLVERHAMPTON,WOLVERHAMPTON,ENG,12/13 Dudley Street,WV1 3EY,928,2585,"TM7159,TS0009",4c419349af052d7f9d887d79,JD Sports,9454,"['Unit 14 Town Wharf Retail Park', 'Walsall', 'WS2 8LL', 'United Kingdom']",52.58696965511438,-1.9867819547653198,Sporting Goods Shop
TS0014,51.461029731394,-0.30421890382246,RICHMOND,RICHMOND,ENG,53/54 George Street,TW9 1HJ,640,2465,"TM7561,TS0014",5895ef8201f0776e38be9d23,JD Sports,12251,"['385-389 Oxford St', 'Mayfair', 'Greater London', 'United Kingdom']",51.514110913775795,-0.14939367771148682,Sporting Goods Shop
TS0014,51.461029731394,-0.30421890382246,RICHMOND,RICHMOND,ENG,53/54 George Street,TW9 1HJ,640,2465,"TM7561,TS0014",5a8ecd3d5a2c9117b2eca1d4,JD Sports,10161,"['53 Tooting High Street', 'Tooting', 'Greater London', 'SW17 0SP', 'United Kingdom']",51.428388,-0.167446,Sporting Goods Shop
TS0014,51.461029731394,-0.30421890382246,RICHMOND,RICHMOND,ENG,53/54 George Street,TW9 1HJ,640,2465,"TM7561,TS0014",4de21fb718385df2b01be85b,JD Sports,7687,"['Ariel Way (Unit 1158)', 'Shepherds Bush', 'Greater London', 'W12 7GD', 'United Kingdom']",51.50754047922712,-0.2222532033920288,Sporting Goods Shop
TS0014,51.461029731394,-0.30421890382246,RICHMOND,RICHMOND,ENG,53/54 George Street,TW9 1HJ,640,2465,"TM7561,TS0014",4d1b21efeab1224b5491cfe2,JD Sports,5614,"['20 Church Street', 'Kingston', 'Greater London', 'KT1 1RJ', 'United Kingdom']",51.4105961,-0.3049785,Sporting Goods Shop
TS0014,51.461029731394,-0.30421890382246,RICHMOND,RICHMOND,ENG,53/54 George Street,TW9 1HJ,640,2465,"TM7561,TS0014",4c0f573a2466a5931e797a21,JD Sports,8217,"['Unit 3 15-29 The Broadway', 'Wimbledon', 'Greater London', 'SW19 1PS', 'United Kingdom']",51.42035259651733,-0.20538747310638428,Sporting Goods Shop
TS0014,51.461029731394,-0.30421890382246,RICHMOND,RICHMOND,ENG,53/54 George Street,TW9 1HJ,640,2465,"TM7561,TS0014",4ea7f0d7b8f7ff211aa69309,JD Sports,10271,"['Unit 2 Tandem Centre Top Of Church Rd (Tandem Way)', 'Colliers Wood', 'Greater London', 'SW19 2TY', 'United Kingdom']",51.414558236308686,-0.17633914947509766,Sporting Goods Shop
TS0018,52.4078284,-1.51106813333333,COVENTRY,COVENTRY,ENG,54/56 Broadgate,CV1 1NF,13,4244,"TM7214,TS0018",4c0d1d4ab1b676b02811e086,JD Sports,104,"['Unit 40-44, 38 The Precinct', 'Coventry', 'CV1 1DE', 'United Kingdom']",52.40858645512699,-1.51198768220911,Sporting Goods Shop
TS0018,52.4078284,-1.51106813333333,COVENTRY,COVENTRY,ENG,54/56 Broadgate,CV1 1NF,13,4244,"TM7214,TS0018",4d9dd22f5c33a35d530b0aa1,JD Sports,10014,['United Kingdom'],52.320816,-1.5485,Sporting Goods Shop
TS0025,51.1147613295974,-0.186177566711947,CRAWLEY,CRAWLEY,ENG,Unit G,RH10 1ER,382,2725,"TM7101,TS0025",4f802cece4b0acccb7bc4b44,JD Sports,131,"['Unit 15 County Mall', 'Crawley', 'West Sussex', 'RH10 1FF', 'United Kingdom']",51.113629404731086,-0.18563434481620789,Sporting Goods Shop
TS0025,51.1147613295974,-0.186177566711947,CRAWLEY,CRAWLEY,ENG,Unit G,RH10 1ER,382,2725,"TM7101,TS0025",4e537e24fa766dacede54e3f,JD Sports,4802,"['Aru11 South Terminal (LGW Airport)', 'West Sussex', 'RH6 0NP', 'United Kingdom']",51.155469,-0.163422,Sporting Goods Shop
TS0028,50.8104466297461,-0.370900686679022,WORTHING,WORTHING,ENG,21/23 Montague St,BN11 3HA,1502,2395,"TM7021,TS0028",5077eadee4b07d24af7a0a86,JD Sports,155,"['65 Montague Street', 'Worthing', 'West Sussex', 'BN11 3BN', 'United Kingdom']",50.8099969,-0.372999,Sporting Goods Shop
TS0030,50.6995413142857,-1.29515167142857,NEWPORT (IOW),NEWPORT IOW,ENG,20 St James Square,PO30 1UX,2120,1867,"TM7323,TS0030",4e57b2f67d8bf55c172b8892,JD Sports,67,"['110-112 High St', 'Newport', 'Isle of Wight', 'PO30 1TJ', 'United Kingdom']",50.6997391153113,-1.2960541248321533,Sporting Goods Shop
TS0032,51.5096919484837,-0.122906301933902,LONDON (STRAND),STRAND,ENG,60/64 The Strand,WC2N 5LR,8515,3651,"TM8137,TS0032",4fbf51d3e4b07c0ab040c868,JD Sports,10698,"['Unit C The Mall 33 Selbourne Walk', 'Walthamstow', 'Greater London', 'E17 7JR', 'United Kingdom']",51.58313160928119,-0.02323061227798462,Sporting Goods Shop
TS0032,51.5096919484837,-0.122906301933902,LONDON (STRAND),STRAND,ENG,60/64 The Strand,WC2N 5LR,8515,3651,"TM8137,TS0032",5a8ecd3d5a2c9117b2eca1d4,JD Sports,9563,"['53 Tooting High Street', 'Tooting', 'Greater London', 'SW17 0SP', 'United Kingdom']",51.428388,-0.167446,Sporting Goods Shop
TS0032,51.5096919484837,-0.122906301933902,LONDON (STRAND),STRAND,ENG,60/64 The Strand,WC2N 5LR,8515,3651,"TM8137,TS0032",4ac518f1f964a520ecad20e3,JD Sports,1309,"['197-203 Oxford Street', 'West End', 'Greater London', 'W1D 2LE', 'United Kingdom']",51.5152391,-0.1395672,Sporting Goods Shop
TS0035,51.3637800006178,-0.193805506185935,SUTTON,SUTTON,ENG,137-145 High Street,SM1 1JQ,6023,2455,"TM7003,TS0035",5a8ecd3d5a2c9117b2eca1d4,JD Sports,7421,"['53 Tooting High Street', 'Tooting', 'Greater London', 'SW17 0SP', 'United Kingdom']",51.428388,-0.167446,Sporting Goods Shop
TS0035,51.3637800006178,-0.193805506185935,SUTTON,SUTTON,ENG,137-145 High Street,SM1 1JQ,6023,2455,"TM7003,TS0035",4f7442c1e4b026e7918325e6,JD Sports,6579,"['52 North End', 'Croydon', 'Greater London', 'CR0 1UG', 'United Kingdom']",51.375579449377554,-0.10104149580001831,Sporting Goods Shop
TS0035,51.3637800006178,-0.193805506185935,SUTTON,SUTTON,ENG,137-145 High Street,SM1 1JQ,6023,2455,"TM7003,TS0035",4ea7f0d7b8f7ff211aa69309,JD Sports,5781,"['Unit 2 Tandem Centre Top Of Church Rd (Tandem Way)', 'Colliers Wood', 'Greater London', 'SW19 2TY', 'United Kingdom']",51.414558236308686,-0.17633914947509766,Sporting Goods Shop
TS0035,51.3637800006178,-0.193805506185935,SUTTON,SUTTON,ENG,137-145 High Street,SM1 1JQ,6023,2455,"TM7003,TS0035",4d1b21efeab1224b5491cfe2,JD Sports,9316,"['20 Church Street', 'Kingston', 'Greater London', 'KT1 1RJ', 'United Kingdom']",51.4105961,-0.3049785,Sporting Goods Shop
TS0035,51.3637800006178,-0.193805506185935,SUTTON,SUTTON,ENG,137-145 High Street,SM1 1JQ,6023,2455,"TM7003,TS0035",4c0f573a2466a5931e797a21,JD Sports,6348,"['Unit 3 15-29 The Broadway', 'Wimbledon', 'Greater London', 'SW19 1PS', 'United Kingdom']",51.42035259651733,-0.20538747310638428,Sporting Goods Shop
TS0035,51.3637800006178,-0.193805506185935,SUTTON,SUTTON,ENG,137-145 High Street,SM1 1JQ,6023,2455,"TM7003,TS0035",512b3f55e4b051c723e5ba1d,JD Sports,12234,"['451-453 Brixton Road', 'Brixton', 'Greater London', 'SW9 8HH', 'United Kingdom']",51.46207403944858,-0.11496618390083313,Sporting Goods Shop
TS0035,51.3637800006178,-0.193805506185935,SUTTON,SUTTON,ENG,137-145 High Street,SM1 1JQ,6023,2455,"TM7003,TS0035",5725e6fe498e259d1c1d7b27,JD Sports,6077,"['60 High Street', 'Epsom', 'Surrey', 'KT19 8AJ', 'United Kingdom']",51.33364326384707,-0.26668936014175415,Sporting Goods Shop
TS0035,51.3637800006178,-0.193805506185935,SUTTON,SUTTON,ENG,137-145 High Street,SM1 1JQ,6023,2455,"TM7003,TS0035",5a8ecf5c3d479176b9778d52,JD Sports,119,"['163 High Street', 'Sutton', 'Greater London', 'SM1 1JN', 'United Kingdom']",51.36485115254712,-0.19395321607589722,Sporting Goods Shop
TS0042,52.0588660472471,1.15431088614475,IPSWICH,IPSWICH,ENG,Unit 1,IP1 3BB,1868,3100,"TM7401,TS0042",4dda5438d4c05d50972d8bba,JD Sports,192,"['15 / 19 Westgate Street', 'Ipswich', 'Suffolk', 'IP1 3DR', 'United Kingdom']",52.05827618154913,1.1516600847244263,Sporting Goods Shop
TS0050,52.627002755273,1.29281231352466,NORWICH,NORWICH,ENG,15/17 The Haymarket,NR2 1QL,8513,11500,"TM7232,TS0050",552f9959498e43895d1fe4f6,JD Sports,266,"['213 Merchants Hall Chapelfield Rd (Chapelfield Rd)', 'Norwich', 'Norfolk', 'NR2 1SU', 'United Kingdom']",52.625503995099365,1.289742887020111,Sporting Goods Shop
TS0054,51.8484270078133,-0.383334156316419,LUTON,LUTON,ENG,65-67 Arndale Centre,LU1 3TP,1474,3751,"TM7036,TS0054",4c39a9973849c928aaa1c1b1,JD Sports,1785,"['High Wycombe', 'Buckinghamshire', 'United Kingdom']",51.835648,-0.39903,Sporting Goods Shop
TS0054,51.8484270078133,-0.383334156316419,LUTON,LUTON,ENG,65-67 Arndale Centre,LU1 3TP,1474,3751,"TM7036,TS0054",4e4e3bc3d4c0b6da5d6bf22d,JD Sports,3602,"['Luton Airport (After Security)', 'Luton', 'LU2 9LR', 'United Kingdom']",51.88038,-0.375074,Sporting Goods Shop
TS0054,51.8484270078133,-0.383334156316419,LUTON,LUTON,ENG,65-67 Arndale Centre,LU1 3TP,1474,3751,"TM7036,TS0054",4ef4d77f5c5cf3ede6a48a66,JD Sports,4141,"['Unit 111-115, The Mall', 'Luton', 'LU1 2TH', 'United Kingdom']",51.87985229171656,-0.41557878255844116,Sporting Goods Shop
TS0057,53.5914121,-0.6486276,SCUNTHORPE,SCUNTHORPE,ENG,85/87 High Street,DN15 6LY,2180,1981,"TM7493,TS0057",51fcd166498ed0b6a69fef43,JD Sports,208,"['57 - 59 High Street', 'Scunthorpe', 'North Lincolnshire', 'DN15 6SB', 'United Kingdom']",53.59222860378956,-0.6457820534706116,Sporting Goods Shop
TS0058,55.8748242927602,-4.36400470703203,GLASGOW (BRAEHEAD PARK),BRAEHEAD PARK,SCO,Unit Lr42/lr43 Braehead Shopping Centre,G51 4BP,309,6400,"TM7813,TS0058",4fef1b16e4b09cfafdd1dedb,JD Sports,118,"['Unit 58/59, Lower Level, Braehead Sc (Kings Inch Rd)', 'Glasgow City', 'G51 4BP', 'United Kingdom']",55.87587199062784,-4.364382999999975,Sporting Goods Shop
TS0058,55.8748242927602,-4.36400470703203,GLASGOW (BRAEHEAD PARK),BRAEHEAD PARK,SCO,Unit Lr42/lr43 Braehead Shopping Centre,G51 4BP,309,6400,"TM7813,TS0058",5a8ecd4a5a2c9117b2eca903,JD Sports,4189,"['Unit 79 Sylvania Way', 'Clydebank', 'West Dunbartonshire', 'G81 2RR', 'United Kingdom']",55.90499338841441,-4.404138922691345,Sporting Goods Shop
TS0058,55.8748242927602,-4.36400470703203,GLASGOW (BRAEHEAD PARK),BRAEHEAD PARK,SCO,Unit Lr42/lr43 Braehead Shopping Centre,G51 4BP,309,6400,"TM7813,TS0058",5182b87a498e9f19eac5d907,JD Sports,7204,"['87-91 Argyle Street (St Enoch Shopping Centre)', 'Glasgow', 'Glasgow City', 'G2 8BJ', 'United Kingdom']",55.85771785989028,-4.252762906745943,Sporting Goods Shop
TS0058,55.8748242927602,-4.36400470703203,GLASGOW (BRAEHEAD PARK),BRAEHEAD PARK,SCO,Unit Lr42/lr43 Braehead Shopping Centre,G51 4BP,309,6400,"TM7813,TS0058",55eaf05f498e8edb05e64cbc,JD Sports,6145,"['Unit 65 Silverburn Centre, Barrhead Road (Barrhead Rd)', 'Glasgow', 'Glasgow City', 'G53 6AG', 'United Kingdom']",55.82106136560886,-4.3416836857795715,Sporting Goods Shop
TS0058,55.8748242927602,-4.36400470703203,GLASGOW (BRAEHEAD PARK),BRAEHEAD PARK,SCO,Unit Lr42/lr43 Braehead Shopping Centre,G51 4BP,309,6400,"TM7813,TS0058",5cc0961aecb3ed002526ee0b,JD Sports,4507,"['Departure Lounge', 'Paisley', 'Renfrewshire', 'PA3', 'United Kingdom']",55.864865,-4.433959,Sporting Goods Shop
TS0058,55.8748242927602,-4.36400470703203,GLASGOW (BRAEHEAD PARK),BRAEHEAD PARK,SCO,Unit Lr42/lr43 Braehead Shopping Centre,G51 4BP,309,6400,"TM7813,TS0058",4e95865e722ed789ed0bf5e2,JD Sports,10518,"['Unit 33 Forge Shopping Centre', 'Glasgow', 'Glasgow City', 'G31 4EB', 'United Kingdom']",55.85374238397631,-4.199872612953186,Sporting Goods Shop
TS0058,55.8748242927602,-4.36400470703203,GLASGOW (BRAEHEAD PARK),BRAEHEAD PARK,SCO,Unit Lr42/lr43 Braehead Shopping Centre,G51 4BP,309,6400,"TM7813,TS0058",4e14305518a8b99f10ad7e67,JD Sports,7450,"['186 Trongate (Glassford St)', 'Glasgow', 'Glasgow City', 'G1 5RY', 'United Kingdom']",55.85752713631158,-4.248780012130737,Sporting Goods Shop
TS0062,51.7514436289406,-0.338007658397477,ST ALBANS,ST ALBANS,ENG,Unit 15,AL1 3HL,1602,4803,"TM7758,TS0062",5a8ecefabd40091eb21d9171,JD Sports,9185,"['Unit 15 The Marlowes Sc', 'Hemel Hempstead', 'Hertfordshire', 'HP1 1DX', 'United Kingdom']",51.74946954033304,-0.4712507128715515,Sporting Goods Shop
TS0062,51.7514436289406,-0.338007658397477,ST ALBANS,ST ALBANS,ENG,Unit 15,AL1 3HL,1602,4803,"TM7758,TS0062",4c77a02b923ba143a78567e6,JD Sports,6826,"['Hatfield Park Plaza, Comet Way (Comet Way)', 'Hatfield', 'Hertfordshire', 'AL10 0XX', 'United Kingdom']",51.760739,-0.240079,Sporting Goods Shop
TS0062,51.7514436289406,-0.338007658397477,ST ALBANS,ST ALBANS,ENG,Unit 15,AL1 3HL,1602,4803,"TM7758,TS0062",4c39a9973849c928aaa1c1b1,JD Sports,10272,"['High Wycombe', 'Buckinghamshire', 'United Kingdom']",51.835648,-0.39903,Sporting Goods Shop
TS0062,51.7514436289406,-0.338007658397477,ST ALBANS,ST ALBANS,ENG,Unit 15,AL1 3HL,1602,4803,"TM7758,TS0062",5b7f1a2f3abcaf002ceacaab,JD Sports,10765,"['Unit 23 The Howard Sc', 'Welwyn Garden City', 'Hertfordshire', 'AL8 6HA', 'United Kingdom']",51.80122604740225,-0.20401149988174438,Sporting Goods Shop
TS0063,52.2910216333333,-1.53474126666667,LEAMINGTON SPA,LEAMINGTON SPA,ENG,4 Upper Mallstreet,CV32 4XT,1875,4300,"TM7193,TS0063",4d9dd22f5c33a35d530b0aa1,JD Sports,3446,['United Kingdom'],52.320816,-1.5485,Sporting Goods Shop
TS0065,53.7966088579932,-1.5427127939693,LEEDS,LEEDS (TRINITY),ENG,44 Briggate,LS1 6HD,945,23550,"TM7202,TS0065",4bf90c63b182c9b6da5b785a,JD Sports,69,"['132 Briggate', 'Leeds', 'LS1 6HF', 'United Kingdom']",53.7971172,-1.5420968,Sporting Goods Shop
TS0065,53.7966088579932,-1.5427127939693,LEEDS,LEEDS (TRINITY),ENG,44 Briggate,LS1 6HD,945,23550,"TM7202,TS0065",59ff22af2a7ab640b4fc2865,JD Sports,4701,"['Unit 3, Bridge Shopping Park', 'Leeds', 'LS5 3BL', 'United Kingdom']",53.81739145504868,-1.6049748659133911,Sporting Goods Shop
TS0065,53.7966088579932,-1.5427127939693,LEEDS,LEEDS (TRINITY),ENG,44 Briggate,LS1 6HD,945,23550,"TM7202,TS0065",4d7fb80a95c1a143d3a4eaf2,JD Sports,4747,"['Unit 45 White Rose Sc (Dewsbury Rd)', 'Leeds', 'LS11 8LU', 'United Kingdom']",53.7581482,-1.5738823,Sporting Goods Shop
TS0069,53.1448375484697,-1.19926521197409,MANSFIELD,MANSFIELD,ENG,Units 28-29,NG18 1SU,1841,3600,"TM7963,TS0069",4f9264b1e4b05b20efd7a6e2,JD Sports,65,"['5 East Mall Four Seasons Sc (East Mall)', 'Mansfield', 'Nottinghamshire', 'NG18 1SN', 'United Kingdom']",53.145073117640486,-1.198360025882721,Sporting Goods Shop
TS0069,53.1448375484697,-1.19926521197409,MANSFIELD,MANSFIELD,ENG,Units 28-29,NG18 1SU,1841,3600,"TM7963,TS0069",4d308dc6d902236aa49354e4,JD Sports,4742,"['Unit 8 Idlewells Sc', 'Sutton in Ashfield', 'Nottinghamshire', 'NG17 1BJ', 'United Kingdom']",53.12532093389843,-1.2623955423279085,Sporting Goods Shop
TS0071,55.8575162318156,-4.25227214173861,GLASGOW,GLASGOW (ARGYLE ST),SCO,Unit 7/8,G2 8BJ,2167,13800,"TM7541,TS0071",5182b87a498e9f19eac5d907,JD Sports,37,"['87-91 Argyle Street (St Enoch Shopping Centre)', 'Glasgow', 'Glasgow City', 'G2 8BJ', 'United Kingdom']",55.85771785989028,-4.252762906745943,Sporting Goods Shop
TS0071,55.8575162318156,-4.25227214173861,GLASGOW,GLASGOW (ARGYLE ST),SCO,Unit 7/8,G2 8BJ,2167,13800,"TM7541,TS0071",4fef1b16e4b09cfafdd1dedb,JD Sports,7294,"['Unit 58/59, Lower Level, Braehead Sc (Kings Inch Rd)', 'Glasgow City', 'G51 4BP', 'United Kingdom']",55.87587199062784,-4.364382999999975,Sporting Goods Shop
TS0071,55.8575162318156,-4.25227214173861,GLASGOW,GLASGOW (ARGYLE ST),SCO,Unit 7/8,G2 8BJ,2167,13800,"TM7541,TS0071",4bf93d4f8d30d13ae8da0118,JD Sports,7251,"['Unit 13 Glasgow Fort Shopping Park', 'Glasgow', 'Glasgow City', 'G34 9DL', 'United Kingdom']",55.87176407753276,-4.139003932540845,Sporting Goods Shop
TS0071,55.8575162318156,-4.25227214173861,GLASGOW,GLASGOW (ARGYLE ST),SCO,Unit 7/8,G2 8BJ,2167,13800,"TM7541,TS0071",5a8ecd4a5a2c9117b2eca903,JD Sports,10855,"['Unit 79 Sylvania Way', 'Clydebank', 'West Dunbartonshire', 'G81 2RR', 'United Kingdom']",55.90499338841441,-4.404138922691345,Sporting Goods Shop
TS0071,55.8575162318156,-4.25227214173861,GLASGOW,GLASGOW (ARGYLE ST),SCO,Unit 7/8,G2 8BJ,2167,13800,"TM7541,TS0071",4e14305518a8b99f10ad7e67,JD Sports,218,"['186 Trongate (Glassford St)', 'Glasgow', 'Glasgow City', 'G1 5RY', 'United Kingdom']",55.85752713631158,-4.248780012130737,Sporting Goods Shop
TS0071,55.8575162318156,-4.25227214173861,GLASGOW,GLASGOW (ARGYLE ST),SCO,Unit 7/8,G2 8BJ,2167,13800,"TM7541,TS0071",4e95865e722ed789ed0bf5e2,JD Sports,3300,"['Unit 33 Forge Shopping Centre', 'Glasgow', 'Glasgow City', 'G31 4EB', 'United Kingdom']",55.85374238397631,-4.199872612953186,Sporting Goods Shop
TS0071,55.8575162318156,-4.25227214173861,GLASGOW,GLASGOW (ARGYLE ST),SCO,Unit 7/8,G2 8BJ,2167,13800,"TM7541,TS0071",5cc0961aecb3ed002526ee0b,JD Sports,11379,"['Departure Lounge', 'Paisley', 'Renfrewshire', 'PA3', 'United Kingdom']",55.864865,-4.433959,Sporting Goods Shop
TS0080,49.2066455,-2.19853843874458,ST HELIER,JERSEY,JER,40 King Street,JE2 4WE,6044,1545,"TM7182,TS0080",4c7f9c0cd51ea143b1005b9f,JD Sports,7073,"['42 King St', 'St Helier', 'JE2 4WE', 'Jersey']",49.18466171983802,-2.107298939557211,Sporting Goods Shop
TS0088,56.1165394,-3.9334069,STIRLING,STIRLING,SCO,Unit LSU2,FK8 2EA,1762,4300,"TM7088,TS0088",505c7c7ce4b0478c09b51e32,JD Sports,96,"['26 Thistle Centre (Goosecroft Rd)', 'Stirling', 'Stirlingshire', 'FK8 2EE', 'United Kingdom']",56.117401,-3.933485,Sporting Goods Shop
TS0100,51.537324501732,-0.487355411439916,UXBRIDGE,UXBRIDGE,ENG,"Unit 216, Upper Mall",UB8 1GE,530,1600,TM7196,4baf53ccf964a5202ef83be3,JD Sports,1165,"['Units 221 222 & 205 The Chimes (High St)', 'Uxbridge', 'Greater London', 'UB8 1GB', 'United Kingdom']",51.545247,-0.476358,Sporting Goods Shop
TS0100,51.537324501732,-0.487355411439916,UXBRIDGE,UXBRIDGE,ENG,"Unit 216, Upper Mall",UB8 1GE,530,1600,TM7196,4e5c8aead22dcfc93415b9d6,JD Sports,7230,"['Terminal 5 (LHR Airport)', 'Hounslow', 'TW6 2GA', 'United Kingdom']",51.472375,-0.48872,Sporting Goods Shop
TS0100,51.537324501732,-0.487355411439916,UXBRIDGE,UXBRIDGE,ENG,"Unit 216, Upper Mall",UB8 1GE,530,1600,TM7196,53d15722498ebc0f0897ae0c,JD Sports,6136,"['Unit 5A Lombardy Retail Park,', 'Hayes', 'Greater London', 'UB3 3EX', 'United Kingdom']",51.51729563097494,-0.40481239557266235,Sporting Goods Shop
TS0100,51.537324501732,-0.487355411439916,UXBRIDGE,UXBRIDGE,ENG,"Unit 216, Upper Mall",UB8 1GE,530,1600,TM7196,4ccd7365063a721ec1c5949a,JD Sports,11490,"['Unit S5 Two Rivers Shopping Park (Mustard Mill Rd)', 'Surrey', 'TW18 4WB', 'United Kingdom']",51.435132916648826,-0.5107542872428894,Sporting Goods Shop
TS0100,51.537324501732,-0.487355411439916,UXBRIDGE,UXBRIDGE,ENG,"Unit 216, Upper Mall",UB8 1GE,530,1600,TM7196,59cce1551b0ea516e908c89a,JD Sports,10221,"['Unit 6 Westway Cross Retail', 'Greenford', 'Greater London', 'UB6 0UW', 'United Kingdom']",51.541683,-0.33989,Sporting Goods Shop
TS0100,51.537324501732,-0.487355411439916,UXBRIDGE,UXBRIDGE,ENG,"Unit 216, Upper Mall",UB8 1GE,530,1600,TM7196,58ff3626898bdc40dcbe8b7c,JD Sports,11399,"['Unit 4B, The Centre', 'Feltham', 'Greater London', 'TW13 4BS', 'United Kingdom']",51.4465937,-0.411086,Sporting Goods Shop
TS0100,51.537324501732,-0.487355411439916,UXBRIDGE,UXBRIDGE,ENG,"Unit 216, Upper Mall",UB8 1GE,530,1600,TM7196,4ce698f5f1c6236ab06154f0,JD Sports,11506,"['St Anns Road', 'Harrow on the Hill', 'Greater London', 'HA1 1JX', 'United Kingdom']",51.5816074,-0.3371214,Sporting Goods Shop
TS0100,51.537324501732,-0.487355411439916,UXBRIDGE,UXBRIDGE,ENG,"Unit 216, Upper Mall",UB8 1GE,530,1600,TM7196,50e05967e4b0bc86ad3de844,JD Sports,7855,"['190 High Street', 'Slough', 'Berkshire', 'SL1 1JS', 'United Kingdom']",51.5081573,-0.5906257,Sporting Goods Shop
TS0100,51.537324501732,-0.487355411439916,UXBRIDGE,UXBRIDGE,ENG,"Unit 216, Upper Mall",UB8 1GE,530,1600,TM7196,4ca86cac76d3a093288c156b,JD Sports,10358,"['12A Peascod St', 'Windsor', 'Berkshire', 'SL4 1DU', 'United Kingdom']",51.482695105969945,-0.6083850206934527,Sporting Goods Shop
TS0105,54.2809367389484,-0.402678817447179,SCARBOROUGH,SCARBOROUGH,ENG,Unit 29/30,YO11 1UE,1525,1390,"TM7067,TS0105",5017d704e4b06cec540a64cd,JD Sports,95,"['109 Westborough', 'Scarborough', 'North Yorkshire', 'YO11 1LD', 'United Kingdom']",54.28174277539518,-0.4021637754631229,Sporting Goods Shop
TS0108,54.0481482863929,-2.79983885053007,LANCASTER,LANCASTER,ENG,5-7 Penny Street,LA1 1UA,1666,2205,"TM7113,TS0108",55acdeff498e8f5c024df603,JD Sports,55,"['4-6 Penny Street', 'Lancaster', 'Lancashire', 'LA1 1UA', 'United Kingdom']",54.04863555167886,-2.8000446122684934,Sporting Goods Shop
TS0116,50.9421318776602,-2.63050499627858,YEOVIL,YEOVIL,ENG,"Unit 3, 5 Vicarage Walk",BA20 1EU,1678,2225,"TM7327,TS0116",5a8ece671f74405d2101d235,JD Sports,75,"['14 Vicarage Walk (Quedam Shopping Centre)', 'Somerset', 'BA20 1EU', 'United Kingdom']",50.94211361253809,-2.6294338703155518,Sporting Goods Shop
TS0120,52.1906822,-2.2201673,WORCESTER,WORCESTER 2,ENG,Unit 3,WR1 2QE,1811,1572,"TM7006,TS0120",4d0391c3c2e53704c885b267,JD Sports,179,"['46 The Shambles', 'Worcester', 'Worcestershire', 'WR1 2RE', 'United Kingdom']",52.19223082901089,-2.2194233536720276,Sporting Goods Shop
TS0122,53.7602751909851,-1.57011081173352,LEEDS (WHITE ROSE),LEEDS WHITE ROSE,ENG,White Rose Centre,LS11 8EW,2563,6096,"TM7106,TS0122",4d7fb80a95c1a143d3a4eaf2,JD Sports,343,"['Unit 45 White Rose Sc (Dewsbury Rd)', 'Leeds', 'LS11 8LU', 'United Kingdom']",53.7581482,-1.5738823,Sporting Goods Shop
TS0122,53.7602751909851,-1.57011081173352,LEEDS (WHITE ROSE),LEEDS WHITE ROSE,ENG,White Rose Centre,LS11 8EW,2563,6096,"TM7106,TS0122",59ff22af2a7ab640b4fc2865,JD Sports,6758,"['Unit 3, Bridge Shopping Park', 'Leeds', 'LS5 3BL', 'United Kingdom']",53.81739145504868,-1.6049748659133911,Sporting Goods Shop
TS0122,53.7602751909851,-1.57011081173352,LEEDS (WHITE ROSE),LEEDS WHITE ROSE,ENG,White Rose Centre,LS11 8EW,2563,6096,"TM7106,TS0122",4bf90c63b182c9b6da5b785a,JD Sports,4496,"['132 Briggate', 'Leeds', 'LS1 6HF', 'United Kingdom']",53.7971172,-1.5420968,Sporting Goods Shop
TS0122,53.7602751909851,-1.57011081173352,LEEDS (WHITE ROSE),LEEDS WHITE ROSE,ENG,White Rose Centre,LS11 8EW,2563,6096,"TM7106,TS0122",5128c7dee4b069188d2dfed0,JD Sports,9816,"['Unit G1 Trinity Walk', 'Wakefield', 'WF1 1QS', 'United Kingdom']",53.683906,-1.495606,Sporting Goods Shop
TS0122,53.7602751909851,-1.57011081173352,LEEDS (WHITE ROSE),LEEDS WHITE ROSE,ENG,White Rose Centre,LS11 8EW,2563,6096,"TM7106,TS0122",4c5145ca3940be9a27359408,JD Sports,12781,"['Unit 2 Forster Square (Valley Rd.)', 'Bradford', 'BD1 4AG', 'United Kingdom']",53.79860253079107,-1.7532795667648315,Sporting Goods Shop
TS0127,53.0981281727737,-2.44240318836414,CREWE,CREWE,ENG,Unit 2,CW1 2HH,1704,1921,"TM7331,TS0127",4cc6ad75b2beb1f7138c294c,JD Sports,72,"['Unit 1 14 Queensway (Unit 1)', 'Crewe', 'Cheshire', 'CW1 2HQ', 'United Kingdom']",53.09865450010116,-2.4417704343795776,Sporting Goods Shop
TS0128,53.741930531143,-0.339142739378381,HULL,HULL PRINCES QUAY,ENG,Unit G39,HU1 2PQ,1902,2962,TS0128,52c987b8498eb44b7a145b2c,JD Sports,662,"['Unit 30 St Stephens Shopping Centre', 'Hull', 'Kingston upon Hull', 'HU2 8LN', 'United Kingdom']",53.7454896733268,-0.34721195697784424,Sporting Goods Shop
TS0128,53.741930531143,-0.339142739378381,HULL,HULL PRINCES QUAY,ENG,Unit G39,HU1 2PQ,1902,2962,TS0128,5a8ecf0fa9fe123e9f007560,JD Sports,6005,"['Unit 5D Kingswood Retail Park', 'Hull', 'Kingston upon Hull', 'HU7 3DA', 'United Kingdom']",53.79567010991246,-0.34720659255981445,Sporting Goods Shop
TS0131,53.5662837192497,-0.0868701091549724,GRIMSBY,GRIMSBY,ENG,Freshney Place,DN31 1QL,153,2111,TS0131,4e36cfb11f6e9e21ad5c428a,JD Sports,57,"['28-30 Friargate Freshney Place', 'Grimsby', 'North East Lincolnshire', 'DN31 1QR', 'United Kingdom']",53.56634565632996,-0.08774042129516602,Sporting Goods Shop
TS0132,54.1130490272727,-3.22627259090909,BARROW,BARROW IN FURNESS,ENG,10 Portland Walk,LA14 1DB,1449,2196,"TM7617,TS0132",509ce6fce4b091ce305a85b5,JD Sports,28,"['28 Portland Walk', 'Barrow', 'Cumbria', 'LA14 1DB', 'United Kingdom']",54.112854886240875,-3.2265472412109375,Sporting Goods Shop
TS0141,50.7690107558798,0.284634715399217,EASTBOURNE,EASTBOURNE,ENG,Unit 6,BN21 3NW,1705,4100,"TM7333,TS0141",4cb2dff5db32f04d13ffd24d,JD Sports,131,"['44-45 The Beacon', 'Eastbourne', 'East Sussex', 'BN21 3NW', 'United Kingdom']",50.769021,0.286496,Sporting Goods Shop
TS0147,53.027537606986,-2.17582103157773,HANLEY,HANLEY,ENG,Unit Msu 4-5,ST1 1PS,1861,5305,"TM7497,TS0147",4c8b88822e333704c4a9cd41,JD Sports,51,"['Units 107 & 1096 The Potteries (Quadrant Rd)', 'Hanley', 'Stoke-on-Trent', 'ST1 1PS', 'United Kingdom']",53.027999,-2.175713,Sporting Goods Shop
TS0147,53.027537606986,-2.17582103157773,HANLEY,HANLEY,ENG,Unit Msu 4-5,ST1 1PS,1861,5305,"TM7497,TS0147",5a8ecee13fcee849ab4c6977,JD Sports,3747,"['Unit 11 Castle Walk', 'Stoke-on-Trent', 'ST5 1AN', 'United Kingdom']",53.01128392363246,-2.224821299314499,Sporting Goods Shop
TS0147,53.027537606986,-2.17582103157773,HANLEY,HANLEY,ENG,Unit Msu 4-5,ST1 1PS,1861,5305,"TM7497,TS0147",5a8ecff71108ba6ba7c8c90f,JD Sports,1053,"['Unit 3B, Festival Retail Park', 'Stoke-on-Trent', 'ST1 5SD', 'United Kingdom']",53.0296438,-2.1911678,Sporting Goods Shop
TS0157,53.8167730176622,-3.05381184165118,BLACKPOOL,BLACKPOOL VICTORIA ST,ENG,18/22 Victoria Street,FY1 4RW,1296,3100,"TM7252,TS0157",4c9619a458d4b60c76e63729,JD Sports,114,"['Unit N23 Houndshill (17 Victoria St)', 'Blackpool', 'FY1 4HU', 'United Kingdom']",53.815921663586536,-3.0528307754631214,Sporting Goods Shop
TS0160,53.411248812902,-2.1598757786249,STOCKPORT,STOCKPORT,ENG,37 Mersey Way,SK1 1PW,0937 4872,3300,"TM7945,TS0160",4d13848a9844b60c0661c3d4,JD Sports,161,"['83 Merseyway Sc', 'Stockport', 'SK1 1QW', 'United Kingdom']",53.410218209476476,-2.1615932245368867,Sporting Goods Shop
TS0160,53.411248812902,-2.1598757786249,STOCKPORT,STOCKPORT,ENG,37 Mersey Way,SK1 1PW,0937 4872,3300,"TM7945,TS0160",5a8eceff67af3a74d388fc4b,JD Sports,7678,"['Unit 23 The Birtles Sc', 'Wythenshawe', 'Greater Manchester', 'M22 5RF', 'United Kingdom']",53.37964860824238,-2.2626981139183044,Sporting Goods Shop
TS0160,53.411248812902,-2.1598757786249,STOCKPORT,STOCKPORT,ENG,37 Mersey Way,SK1 1PW,0937 4872,3300,"TM7945,TS0160",4dc5511cd22dafda2fa0acaa,JD Sports,9400,"['Unit C8 Terminal 1 (MAN Airport)', 'Manchester', 'M90 3NW', 'United Kingdom']",53.361734839113225,-2.2745776176452637,Sporting Goods Shop
TS0160,53.411248812902,-2.1598757786249,STOCKPORT,STOCKPORT,ENG,37 Mersey Way,SK1 1PW,0937 4872,3300,"TM7945,TS0160",5056e4bbe4b0e95b0fb662cc,JD Sports,9382,"['Terminal 2 Airside (Manchester Airport)', 'Manchester Airport', 'M90 1QX', 'United Kingdom']",53.366693,-2.279833,Sporting Goods Shop
TS0160,53.411248812902,-2.1598757786249,STOCKPORT,STOCKPORT,ENG,37 Mersey Way,SK1 1PW,0937 4872,3300,"TM7945,TS0160",5a8ecd550881587526bae41b,JD Sports,6048,"['Unit 18 Crown Point North Denton', 'Denton', 'Tameside', 'M34 3JP', 'United Kingdom']",53.459317792838654,-2.117343842983246,Sporting Goods Shop
TS0160,53.411248812902,-2.1598757786249,STOCKPORT,STOCKPORT,ENG,37 Mersey Way,SK1 1PW,0937 4872,3300,"TM7945,TS0160",4b7ec528f964a52010fe2fe3,JD Sports,9749,"['16-18 Arndale Centre, Barbarolli Mall', 'Manchester', 'M4 3AB', 'United Kingdom']",53.4835743595944,-2.2428121987419445,Sporting Goods Shop
TS0160,53.411248812902,-2.1598757786249,STOCKPORT,STOCKPORT,ENG,37 Mersey Way,SK1 1PW,0937 4872,3300,"TM7945,TS0160",4da1ab35b3e7236a011e0e79,JD Sports,9063,"['Unit B Central Retail Park Gt Ancoats St', 'Manchester', 'Greater Manchester', 'M4 6DJ', 'United Kingdom']",53.48240209762607,-2.2263139486312866,Sporting Goods Shop
TS0163,52.2386776333333,-0.893888266666667,NORTHAMPTON,NORTHAMPTON,ENG,5 Wood Street,NN1 2ED,1335,3114,"TM7269,TS0163",4e0476faa8090c0936a0dee2,JD Sports,99,"['18 Abington Street', 'Northampton', 'Northamptonshire', 'NN1 2AJ', 'United Kingdom']",52.237893991964114,-0.8945891261100769,Sporting Goods Shop
TS0164,54.5256559047588,-1.55381732998363,DARLINGTON,DARLINGTON,ENG,16 Cornmill Centre,DL1 1LS,876,2500,TS0164,4e74781b1f6e072f1337d4ab,JD Sports,86,"['Unit 26 34 The Cornmill Sc', 'Darlington', 'DL1 1LS', 'United Kingdom']",54.526276,-1.553008,Sporting Goods Shop
TS0166,51.236625590526,-0.576625205060411,GUILDFORD,GUILDFORD,ENG,The Friary Centre,GU1 4YL,954,10900,"TM7205,TS0166",5a8ecf0731fd144c99e267dd,JD Sports,99,"['35 North Street', 'Guildford', 'Surrey', 'GU1 4TE', 'United Kingdom']",51.235982626996105,-0.5756315588951111,Sporting Goods Shop
TS0166,51.236625590526,-0.576625205060411,GUILDFORD,GUILDFORD,ENG,The Friary Centre,GU1 4YL,954,10900,"TM7205,TS0166",51811256498e62ca7702a95c,JD Sports,9329,"['Wolsey Place, Wolsey Walk', 'Woking', 'Surrey', 'GU21 6GD', 'United Kingdom']",51.319715,-0.559076,Sporting Goods Shop
TS0168,53.7583348666667,-2.69964586666667,PRESTON,PRESTON FISHERGATE,ENG,125/127 Fishergate,PR1 2AH,2552,8800,"TM7017,TS0168",4e32d097c65bfd5a4e2a7801,JD Sports,43,"['17 / 19 Fishergate', 'Preston', 'Lancashire', 'PR1 3NN', 'United Kingdom']",53.757988251094005,-2.699938416481018,Sporting Goods Shop
TS0168,53.7583348666667,-2.69964586666667,PRESTON,PRESTON FISHERGATE,ENG,125/127 Fishergate,PR1 2AH,2552,8800,"TM7017,TS0168",4dca97ccd22da18f4e66c55b,JD Sports,2342,"['Unit G1 Deepdale Retail Park', 'Preston', 'Lancashire', 'PR1 6QY', 'United Kingdom']",53.774864,-2.6776044,Sporting Goods Shop
TS0169,50.8006212,-1.0896174,PORTSMOUTH,PORTSMOUTH,ENG,152/154 Commercial Road,PO1 1EX,930,4100,TS0169,4e4cee9422717c65aca204e0,JD Sports,135,"['222-224 Commercial Road', 'Portsmouth', 'Hampshire', 'PO1 1HG', 'United Kingdom']",50.80153509681172,-1.0883398354053497,Sporting Goods Shop
TS0170,50.2636733661224,-5.05232573500252,TRURO,TRURO,ENG,15/16 King Street,TR1 2RQ,2179,3607,"TM7526,TS0170",5b7f1093a2c00b002c692a87,JD Sports,212,"['Unit 2, Lemon Quay', 'Truro', 'Cornwall', 'TR1 2PU', 'United Kingdom']",50.26224148683408,-5.0503528118133545,Sporting Goods Shop
TS0172,51.4106283,-0.3025727,KINGSTON,KINGSTON UPON THAMES,ENG,34 Clarence Street,KT1 1NR,91,5324,TS0172,4d1b21efeab1224b5491cfe2,JD Sports,167,"['20 Church Street', 'Kingston', 'Greater London', 'KT1 1RJ', 'United Kingdom']",51.4105961,-0.3049785,Sporting Goods Shop
TS0172,51.4106283,-0.3025727,KINGSTON,KINGSTON UPON THAMES,ENG,34 Clarence Street,KT1 1NR,91,5324,TS0172,5a8ecd3d5a2c9117b2eca1d4,JD Sports,9586,"['53 Tooting High Street', 'Tooting', 'Greater London', 'SW17 0SP', 'United Kingdom']",51.428388,-0.167446,Sporting Goods Shop
TS0172,51.4106283,-0.3025727,KINGSTON,KINGSTON UPON THAMES,ENG,34 Clarence Street,KT1 1NR,91,5324,TS0172,4ea7f0d7b8f7ff211aa69309,JD Sports,8775,"['Unit 2 Tandem Centre Top Of Church Rd (Tandem Way)', 'Colliers Wood', 'Greater London', 'SW19 2TY', 'United Kingdom']",51.414558236308686,-0.17633914947509766,Sporting Goods Shop
TS0172,51.4106283,-0.3025727,KINGSTON,KINGSTON UPON THAMES,ENG,34 Clarence Street,KT1 1NR,91,5324,TS0172,4de21fb718385df2b01be85b,JD Sports,12141,"['Ariel Way (Unit 1158)', 'Shepherds Bush', 'Greater London', 'W12 7GD', 'United Kingdom']",51.50754047922712,-0.2222532033920288,Sporting Goods Shop
TS0172,51.4106283,-0.3025727,KINGSTON,KINGSTON UPON THAMES,ENG,34 Clarence Street,KT1 1NR,91,5324,TS0172,4c0f573a2466a5931e797a21,JD Sports,6833,"['Unit 3 15-29 The Broadway', 'Wimbledon', 'Greater London', 'SW19 1PS', 'United Kingdom']",51.42035259651733,-0.20538747310638428,Sporting Goods Shop
TS0172,51.4106283,-0.3025727,KINGSTON,KINGSTON UPON THAMES,ENG,34 Clarence Street,KT1 1NR,91,5324,TS0172,5725e6fe498e259d1c1d7b27,JD Sports,8925,"['60 High Street', 'Epsom', 'Surrey', 'KT19 8AJ', 'United Kingdom']",51.33364326384707,-0.26668936014175415,Sporting Goods Shop
TS0172,51.4106283,-0.3025727,KINGSTON,KINGSTON UPON THAMES,ENG,34 Clarence Street,KT1 1NR,91,5324,TS0172,5a8ecf5c3d479176b9778d52,JD Sports,9105,"['163 High Street', 'Sutton', 'Greater London', 'SM1 1JN', 'United Kingdom']",51.36485115254712,-0.19395321607589722,Sporting Goods Shop
TS0174,50.903708,-1.4038498,SOUTHAMPTON,SOUTHAMPTON ABOVE BAR,ENG,33/35 Above Bar Street,SO1 7DX,1344,5812,"TM7207,TS0174",4d8e2674cb9b224b9c637d41,JD Sports,121,"['70 Above Bar St', 'Southampton', 'Hampshire', 'SO14 7DS', 'United Kingdom']",50.9047987,-1.4039044,Sporting Goods Shop
TS0174,50.903708,-1.4038498,SOUTHAMPTON,SOUTHAMPTON ABOVE BAR,ENG,33/35 Above Bar Street,SO1 7DX,1344,5812,"TM7207,TS0174",5a8eceb71de7652538a3dbc6,JD Sports,7891,"['Unit 12 The Swan Sc Eastleigh', 'Southampton', 'Hampshire', 'SO50 5SG', 'United Kingdom']",50.96711322182679,-1.3535472750663757,Sporting Goods Shop
TS0174,50.903708,-1.4038498,SOUTHAMPTON,SOUTHAMPTON ABOVE BAR,ENG,33/35 Above Bar Street,SO1 7DX,1344,5812,"TM7207,TS0174",4cfa52162d80a143cad043d8,JD Sports,428,"['Unit 8A West Quay Road (Pirelli St)', 'Southampton', 'Hampshire', 'SO15 1BA', 'United Kingdom']",50.9043065087875,-1.4098790287971497,Sporting Goods Shop
TS0175,54.8944689,-2.9366504,CARLISLE,CARLISLE,ENG,18/24 English Street,CA3 8HX,1355,2800,"TM7276,TS0175",4ede33a20e61d46adc771c09,JD Sports,206,"['Unit 8 The Lanes Sc (The Lanes Shopping Centre)', 'Carlisle', 'Cumbria', 'CA3 8NS', 'United Kingdom']",54.895995133178204,-2.9348301887512207,Sporting Goods Shop
TS0176,52.5739918568794,-0.244771143481647,PETERBOROUGH,PETERBOROUGH,ENG,21/23 Queensgate Centre,PE1 1NH,1395,3900,"TM7279,TS0176",4e662dd82271573ad931a478,JD Sports,18,"['Su76 Queensgate Shopping Centre', 'Peterborough', 'PE1 1NS', 'United Kingdom']",52.573844,-0.244906,Sporting Goods Shop
TS0177,53.3820640363904,-1.46846518952708,SHEFFIELD,SHEFFIELD FARGATE,ENG,33/35 Fargate,S1 2HD,1385,6971,"TM7280,TS0177",4be691eb2457a5937bf5ac15,JD Sports,648,"['Unit 2, Phase 2, The Moor', 'Sheffield', 'S1 4PA', 'United Kingdom']",53.37693738210521,-1.4731080830097198,Sporting Goods Shop
TS0177,53.3820640363904,-1.46846518952708,SHEFFIELD,SHEFFIELD FARGATE,ENG,33/35 Fargate,S1 2HD,1385,6971,"TM7280,TS0177",5a8eceb8dd84423bad936344,JD Sports,9351,"['8 College Walk', 'Rotherham', 'S60 1QB', 'United Kingdom']",53.433154568820235,-1.3565996289253235,Sporting Goods Shop
TS0177,53.3820640363904,-1.46846518952708,SHEFFIELD,SHEFFIELD FARGATE,ENG,33/35 Fargate,S1 2HD,1385,6971,"TM7280,TS0177",4cf262b01c158cfadf54d7b5,JD Sports,5116,"['42, High Street, Meadowhall Sc (Meadowhall Shopping Centre)', 'Sheffield', 'S9 1EN', 'United Kingdom']",53.413212,-1.411773,Sporting Goods Shop
TS0177,53.3820640363904,-1.46846518952708,SHEFFIELD,SHEFFIELD FARGATE,ENG,33/35 Fargate,S1 2HD,1385,6971,"TM7280,TS0177",50d5dc4ce4b0ab0ed79f88db,JD Sports,8567,"['Unit 15 Drakehouse Retail Park Waterthorpe (Waterthorpe)', 'Sheffield', 'S20 7JJ', 'United Kingdom']",53.3440073,-1.3563627,Sporting Goods Shop
TS0178,55.9528949214286,-3.19278307857143,EDINBURGH,EDINBURGH PRINCES ST,SCO,30 Princes Street,EH2 2BY,1370,13666,"TM7281,TS0178",4d0e1bc5eea9b60c4508623f,JD Sports,268,"['14-16 Hanover Street', 'Edinburgh', 'EH2 2EN', 'United Kingdom']",55.952373088041035,-3.196991980075836,Sporting Goods Shop
TS0178,55.9528949214286,-3.19278307857143,EDINBURGH,EDINBURGH PRINCES ST,SCO,30 Princes Street,EH2 2BY,1370,13666,"TM7281,TS0178",5a8e109aa6031c4c8a59c29d,JD Sports,10636,"['Edinburgh Airport Airside', 'Edinburgh', 'EH12 9DN', 'United Kingdom']",55.948506,-3.363257,Sporting Goods Shop
TS0178,55.9528949214286,-3.19278307857143,EDINBURGH,EDINBURGH PRINCES ST,SCO,30 Princes Street,EH2 2BY,1370,13666,"TM7281,TS0178",5a8ed00267af3a74d389a282,JD Sports,5904,"['Unit 26B, Edinburgh Fort', 'Edinburgh', 'EH15 3RD', 'United Kingdom']",55.93360004018467,-3.1045496463775635,Sporting Goods Shop
TS0178,55.9528949214286,-3.19278307857143,EDINBURGH,EDINBURGH PRINCES ST,SCO,30 Princes Street,EH2 2BY,1370,13666,"TM7281,TS0178",5246ade911d2870c13704e78,JD Sports,5465,"['Fort Kinnaird', 'United Kingdom']",55.952389912571675,-3.1051005475315665,Sporting Goods Shop
TS0183,52.0405225,-0.7563854,MILTON KEYNES,MILTON KEYNES STORE,ENG,32 Midsummer Place,MK9 3GA,488,7530,"TM7143,TS0183",4e6f2cce45dd49e0f1a833d7,JD Sports,272,"['29/35 Midsummer Place (thecentre:mk)', 'Milton Keynes', 'Buckinghamshire', 'MK9 3BG', 'United Kingdom']",52.04281320296908,-0.7577959533729199,Sporting Goods Shop
TS0183,52.0405225,-0.7563854,MILTON KEYNES,MILTON KEYNES STORE,ENG,32 Midsummer Place,MK9 3GA,488,7530,"TM7143,TS0183",5a254a9ca4236243c99384bf,JD Sports,3584,"['MK1 Shopping Park (Unit H3)', 'Bletchley', 'Buckinghamshire', 'MK1 1ST', 'United Kingdom']",52.011017,-0.735446,Sporting Goods Shop
TS0185,-33.6483333,150.7344444,LONDONDERRY,LONDONDERRY,NI,Unit M7,BT48 6XY,426,4735,"TM8105,TS0185",5b7f3ce50457b7002caf4c21,JD Sports,12103,"['316 Level 2 Westfield Penrith, 585 High Street', 'Penrith NSW 2750', 'Australia']",-33.7516623,150.6937806,Sporting Goods Shop
TS0191,53.4884849234741,-2.09424579486343,ASHTON UNDER LYNE,ASHTON UNDER LYNE,ENG,51 Warrington Street,OL6 7JG,1540,1998,"TM7262,TS0191",5a8ecd550881587526bae41b,JD Sports,3589,"['Unit 18 Crown Point North Denton', 'Denton', 'Tameside', 'M34 3JP', 'United Kingdom']",53.459317792838654,-2.117343842983246,Sporting Goods Shop
TS0191,53.4884849234741,-2.09424579486343,ASHTON UNDER LYNE,ASHTON UNDER LYNE,ENG,51 Warrington Street,OL6 7JG,1540,1998,"TM7262,TS0191",4bf93e604a67c928dd8026cf,JD Sports,6038,"['Units 16-17 Lower Mall The Spindles Sc (Lower Mall)', 'Oldham', 'Lancashire', 'OL1 1HE', 'United Kingdom']",53.541413,-2.114194,Sporting Goods Shop
TS0191,53.4884849234741,-2.09424579486343,ASHTON UNDER LYNE,ASHTON UNDER LYNE,ENG,51 Warrington Street,OL6 7JG,1540,1998,"TM7262,TS0191",4c6aca2f897b1b8d72b1b217,JD Sports,8284,"['Unit 3 Centre Retail Park Elk Mill', 'Oldham', 'Lancashire', 'OL2 5HX', 'United Kingdom']",53.558099788457994,-2.138509154319763,Sporting Goods Shop
TS0191,53.4884849234741,-2.09424579486343,ASHTON UNDER LYNE,ASHTON UNDER LYNE,ENG,51 Warrington Street,OL6 7JG,1540,1998,"TM7262,TS0191",4d13848a9844b60c0661c3d4,JD Sports,9789,"['83 Merseyway Sc', 'Stockport', 'SK1 1QW', 'United Kingdom']",53.410218209476476,-2.1615932245368867,Sporting Goods Shop
TS0191,53.4884849234741,-2.09424579486343,ASHTON UNDER LYNE,ASHTON UNDER LYNE,ENG,51 Warrington Street,OL6 7JG,1540,1998,"TM7262,TS0191",4b7ec528f964a52010fe2fe3,JD Sports,9855,"['16-18 Arndale Centre, Barbarolli Mall', 'Manchester', 'M4 3AB', 'United Kingdom']",53.4835743595944,-2.2428121987419445,Sporting Goods Shop
TS0191,53.4884849234741,-2.09424579486343,ASHTON UNDER LYNE,ASHTON UNDER LYNE,ENG,51 Warrington Street,OL6 7JG,1540,1998,"TM7262,TS0191",4da1ab35b3e7236a011e0e79,JD Sports,8774,"['Unit B Central Retail Park Gt Ancoats St', 'Manchester', 'Greater Manchester', 'M4 6DJ', 'United Kingdom']",53.48240209762607,-2.2263139486312866,Sporting Goods Shop
TS0197,52.6767989168901,-2.44604497594654,TELFORD,TELFORD,ENG,"115 The Border, The Mall",TF3 4AE,1524,2067,"TM7305,TS0197",4d0a4b215edd548195dc049b,JD Sports,113,"['Unit 21-23 Sherwood Street', 'Telford', 'Telford and Wrekin', 'TF3 4BW', 'United Kingdom']",52.675783610515154,-2.446083426475525,Sporting Goods Shop
TS0200,52.7095985691259,-2.75257793335387,SHREWSBURY,SHREWSBURY,ENG,Unit Lru,SY1 1BN,1824,1930,"TM7028,TS0200",5c162e18bf7dde002c3a29a1,JD Sports,72,"['Shrewsbury', 'Shropshire', 'SY1 1DQ', 'United Kingdom']",52.709115,-2.753309,Sporting Goods Shop
TS0216,51.3755876016704,-0.101051817531248,CROYDON,CROYDON NORTH END,ENG,54 North End,CR0 1UG,5025,4440,"TM7189,TS0216",4f7442c1e4b026e7918325e6,JD Sports,1,"['52 North End', 'Croydon', 'Greater London', 'CR0 1UG', 'United Kingdom']",51.375579449377554,-0.10104149580001831,Sporting Goods Shop
TS0216,51.3755876016704,-0.101051817531248,CROYDON,CROYDON NORTH END,ENG,54 North End,CR0 1UG,5025,4440,"TM7189,TS0216",4ca49c66b0ff8cfacb2cc15e,JD Sports,11009,"['Unit 6 The Aylesham Sc', 'Peckham', 'Greater London', 'SE15 5EW', 'United Kingdom']",51.472513899649655,-0.06954699754714966,Sporting Goods Shop
TS0216,51.3755876016704,-0.101051817531248,CROYDON,CROYDON NORTH END,ENG,54 North End,CR0 1UG,5025,4440,"TM7189,TS0216",5a8ecd3d5a2c9117b2eca1d4,JD Sports,7470,"['53 Tooting High Street', 'Tooting', 'Greater London', 'SW17 0SP', 'United Kingdom']",51.428388,-0.167446,Sporting Goods Shop
TS0216,51.3755876016704,-0.101051817531248,CROYDON,CROYDON NORTH END,ENG,54 North End,CR0 1UG,5025,4440,"TM7189,TS0216",4ea7f0d7b8f7ff211aa69309,JD Sports,6794,"['Unit 2 Tandem Centre Top Of Church Rd (Tandem Way)', 'Colliers Wood', 'Greater London', 'SW19 2TY', 'United Kingdom']",51.414558236308686,-0.17633914947509766,Sporting Goods Shop
TS0216,51.3755876016704,-0.101051817531248,CROYDON,CROYDON NORTH END,ENG,54 North End,CR0 1UG,5025,4440,"TM7189,TS0216",4c0f573a2466a5931e797a21,JD Sports,8794,"['Unit 3 15-29 The Broadway', 'Wimbledon', 'Greater London', 'SW19 1PS', 'United Kingdom']",51.42035259651733,-0.20538747310638428,Sporting Goods Shop
TS0216,51.3755876016704,-0.101051817531248,CROYDON,CROYDON NORTH END,ENG,54 North End,CR0 1UG,5025,4440,"TM7189,TS0216",4fa527e1e4b09571deeaf1bd,JD Sports,8720,"['151-153 High Street', 'Bromley', 'Greater London', 'BR1 1JD', 'United Kingdom']",51.404885672551686,0.015374422073364258,Sporting Goods Shop
TS0216,51.3755876016704,-0.101051817531248,CROYDON,CROYDON NORTH END,ENG,54 North End,CR0 1UG,5025,4440,"TM7189,TS0216",512b3f55e4b051c723e5ba1d,JD Sports,9675,"['451-453 Brixton Road', 'Brixton', 'Greater London', 'SW9 8HH', 'United Kingdom']",51.46207403944858,-0.11496618390083313,Sporting Goods Shop
TS0216,51.3755876016704,-0.101051817531248,CROYDON,CROYDON NORTH END,ENG,54 North End,CR0 1UG,5025,4440,"TM7189,TS0216",5a8ece58fc9e9457d6baa95c,JD Sports,9582,"['Unit 2A Island Retail Park, Plassy Rd', 'Catford', 'Greater London', 'SE6 2DD', 'United Kingdom']",51.444706954348455,-0.01879740244680761,Sporting Goods Shop
TS0216,51.3755876016704,-0.101051817531248,CROYDON,CROYDON NORTH END,ENG,54 North End,CR0 1UG,5025,4440,"TM7189,TS0216",5a8ecf5c3d479176b9778d52,JD Sports,6565,"['163 High Street', 'Sutton', 'Greater London', 'SM1 1JN', 'United Kingdom']",51.36485115254712,-0.19395321607589722,Sporting Goods Shop
TS0309,51.4666151,-0.0968000068121059,CANARY WHARF,CANARY WHARF,ENG,Topshop Unit 3 Canada Square,E14 5AB,497,2183,"TM8634,TS0309",4ac518f1f964a520ecad20e3,JD Sports,6171,"['197-203 Oxford Street', 'West End', 'Greater London', 'W1D 2LE', 'United Kingdom']",51.5152391,-0.1395672,Sporting Goods Shop
TS0309,51.4666151,-0.0968000068121059,CANARY WHARF,CANARY WHARF,ENG,Topshop Unit 3 Canada Square,E14 5AB,497,2183,"TM8634,TS0309",5a8ecd3d5a2c9117b2eca1d4,JD Sports,6490,"['53 Tooting High Street', 'Tooting', 'Greater London', 'SW17 0SP', 'United Kingdom']",51.428388,-0.167446,Sporting Goods Shop
TS0317,51.8022826,-0.2039953,WELWYN GARDEN CITY,WELWYN GARDEN CITY,ENG,"Unit 14, The Howard Centre",AL8 6HA,5311,1622,TS0317,5b7f1a2f3abcaf002ceacaab,JD Sports,117,"['Unit 23 The Howard Sc', 'Welwyn Garden City', 'Hertfordshire', 'AL8 6HA', 'United Kingdom']",51.80122604740225,-0.20401149988174438,Sporting Goods Shop
TS0317,51.8022826,-0.2039953,WELWYN GARDEN CITY,WELWYN GARDEN CITY,ENG,"Unit 14, The Howard Centre",AL8 6HA,5311,1622,TS0317,4c77a02b923ba143a78567e6,JD Sports,5249,"['Hatfield Park Plaza, Comet Way (Comet Way)', 'Hatfield', 'Hertfordshire', 'AL10 0XX', 'United Kingdom']",51.760739,-0.240079,Sporting Goods Shop
TS0319,51.5779970169978,0.183252185162146,ROMFORD,ROMFORD,ENG,Unit 5,RM1 3RL,5067,3770,"TM8488,TS0319",5ac67b6031fd1429d63a299d,JD Sports,41,"['Unit 8 Liberty Shopping Centre', 'Romford', 'Greater London', 'RM1 3RL', 'United Kingdom']",51.5783386230469,0.183479994535446,Sporting Goods Shop
TS0319,51.5779970169978,0.183252185162146,ROMFORD,ROMFORD,ENG,Unit 5,RM1 3RL,5067,3770,"TM8488,TS0319",4c5830b26201e21e9b590c70,JD Sports,4710,"['Unit 2-3 The Mall Heathway (Heathway)', 'Dagenham', 'Greater London', 'RM10 8RE', 'United Kingdom']",51.541466,0.148887,Sporting Goods Shop
TS0319,51.5779970169978,0.183252185162146,ROMFORD,ROMFORD,ENG,Unit 5,RM1 3RL,5067,3770,"TM8488,TS0319",5a8ecd861acf1143546de85d,JD Sports,9889,"['Unit 6 Gallions Reach Sc', 'Beckton', 'Greater London', 'E6 7ER', 'United Kingdom']",51.51739577570335,0.07878988981246948,Sporting Goods Shop
TS0319,51.5779970169978,0.183252185162146,ROMFORD,ROMFORD,ENG,Unit 5,RM1 3RL,5067,3770,"TM8488,TS0319",4dcaa60d7d8bc0c0b8821a85,JD Sports,7813,"['177-185 High Road', 'Ilford', 'Greater London', 'IG1 1DG', 'United Kingdom']",51.559402078565505,0.07436424493789673,Sporting Goods Shop
TS0319,51.5779970169978,0.183252185162146,ROMFORD,ROMFORD,ENG,Unit 5,RM1 3RL,5067,3770,"TM8488,TS0319",4f9e7982e4b02aa9c1937e72,JD Sports,10191,"['131 High Street North', 'East Ham Central', 'Greater London', 'E6 1HZ', 'United Kingdom']",51.536704916993685,0.05183033268622239,Sporting Goods Shop
TS0319,51.5779970169978,0.183252185162146,ROMFORD,ROMFORD,ENG,Unit 5,RM1 3RL,5067,3770,"TM8488,TS0319",4c2b3c53ae6820a10a701743,JD Sports,6931,"['679-691 Eastern Avenue Newbury Park', 'Ilford', 'Greater London', 'IG2 6PF', 'United Kingdom']",51.57391400624386,0.08328258991241455,Sporting Goods Shop
TS0319,51.5779970169978,0.183252185162146,ROMFORD,ROMFORD,ENG,Unit 5,RM1 3RL,5067,3770,"TM8488,TS0319",5b7eedc52bf29b002d60303d,JD Sports,9894,"['Unit 6 Epping Forest Shopping Park', 'Debden', 'Essex', 'IG10 3UE', 'United Kingdom']",51.64356305488748,0.08661389350891113,Sporting Goods Shop
TS0319,51.5779970169978,0.183252185162146,ROMFORD,ROMFORD,ENG,Unit 5,RM1 3RL,5067,3770,"TM8488,TS0319",5b7a7e42123a19002c5cc9f0,JD Sports,8446,"['2 Ripple Road', 'Barking', 'Greater London', 'IG11 7NF', 'United Kingdom']",51.537581290626626,0.07996737957000732,Sporting Goods Shop
TS0328,51.7330592870538,0.472826944418891,CHELMSFORD,CHELMSFORD,ENG,1 High Chelmer,CM1 1XG,5020,3955,"TM7877,TS0328",4e6f6e6e6365162c5c837f72,JD Sports,19,"['Unit 7 Higher Chelmer', 'Chelmsford', 'Essex', 'CM1 1XG', 'United Kingdom']",51.7331653,0.472597,Sporting Goods Shop
TS0328,51.7330592870538,0.472826944418891,CHELMSFORD,CHELMSFORD,ENG,1 High Chelmer,CM1 1XG,5020,3955,"TM7877,TS0328",4e27079d8877d0ffee866e30,JD Sports,1558,"['Unit B1 Chelmer Village (off Chelmer Village Way)', 'Chelmsford', 'Essex', 'CM2 6XE', 'United Kingdom']",51.73221802197107,0.4953986406326294,Sporting Goods Shop
TS0337,54.9063062753811,-1.38359956274905,SUNDERLAND,SUNDERLAND,ENG,Unit 21 The Bridges,SR1 3LD,433,4275,"TM7152,TS0337",5a8ecf22e7a237608e624a10,JD Sports,80,"['Unit 42 The Bridges', 'Sunderland', 'SR1 3LB', 'United Kingdom']",54.905685121403714,-1.384230635582071,Sporting Goods Shop
TS0337,54.9063062753811,-1.38359956274905,SUNDERLAND,SUNDERLAND,ENG,Unit 21 The Bridges,SR1 3LD,433,4275,"TM7152,TS0337",4ef1f9270e617e29c6859566,JD Sports,9520,"['Unit 89 The Galleries Sc', 'Washington', 'Sunderland', 'NE38 7RT', 'United Kingdom']",54.900158,-1.531965,Sporting Goods Shop
TS0393,52.4130189,-1.7768935,SOLIHULL,SOLIHULL,ENG,"Unit Su60, Touchwood Centre",B91 3QF,523,4000,"TM7174,TS0393",4c25ef82905a0f47a04d6260,JD Sports,183,"['24 Crescent Arcade Touchwood (Touchwood)', 'Solihull', 'B91 3GZ', 'United Kingdom']",52.412555,-1.7794924,Sporting Goods Shop
TS0393,52.4130189,-1.7768935,SOLIHULL,SOLIHULL,ENG,"Unit Su60, Touchwood Centre",B91 3QF,523,4000,"TM7174,TS0393",4e0716402271dfa46bacef18,JD Sports,5292,"['Unit 5 T1 & T2 Airside, Birmingham Airport (Birmingham Airport (BHX))', 'Birmingham', 'West Midlands', 'B26 3QJ', 'United Kingdom']",52.452891,-1.734425,Sporting Goods Shop
TS0393,52.4130189,-1.7768935,SOLIHULL,SOLIHULL,ENG,"Unit Su60, Touchwood Centre",B91 3QF,523,4000,"TM7174,TS0393",5a8eceadd7627e4ebd708413,JD Sports,7874,"['3/5 Greenwood Square', 'Chelmsley Wood', 'Solihull', 'B37 5TR', 'United Kingdom']",52.479992,-1.739538,Sporting Goods Shop
TS0393,52.4130189,-1.7768935,SOLIHULL,SOLIHULL,ENG,"Unit Su60, Touchwood Centre",B91 3QF,523,4000,"TM7174,TS0393",5be9e7ec51950e002c0b22e4,JD Sports,11153,"['20 Fort Pkwy, The Fort Shopping Centre, UNIT 6B', 'Birmingham', 'West Midlands', 'B24 9FP', 'United Kingdom']",52.50935705780881,-1.8220888014777756,Sporting Goods Shop
TS0393,52.4130189,-1.7768935,SOLIHULL,SOLIHULL,ENG,"Unit Su60, Touchwood Centre",B91 3QF,523,4000,"TM7174,TS0393",5a8ecee86dcf044534ac0e46,JD Sports,8176,"['165 High Street', 'Moseley and Kings Heath', 'West Midlands', 'B14 7DJ', 'United Kingdom']",52.43296076449883,-1.8928080797195435,Sporting Goods Shop
TS0393,52.4130189,-1.7768935,SOLIHULL,SOLIHULL,ENG,"Unit Su60, Touchwood Centre",B91 3QF,523,4000,"TM7174,TS0393",5017e956e4b0cfe38c88c6b2,JD Sports,9127,"['Unit 7 St Andrews Shopping Park', 'Birmingham', 'West Midlands', 'B10 0XA', 'United Kingdom']",52.4743638061818,-1.8661576509475708,Sporting Goods Shop
TS0451,53.393269,-6.3899469,Z EIRE BLANCHARDSTOWN,BLANCHARDSTOWN,EIR,Unit 221,D15RF61,22,4384,"TM7654,TS0451",4f44fd68e4b0f766d4cf25bf,JD Sports,10539,"['Rt16 Dublin Airport, T2 Airside', 'Dublin', 'Dublin City', 'Ireland']",53.4256915,-6.2407147,Sporting Goods Shop
TS0451,53.393269,-6.3899469,Z EIRE BLANCHARDSTOWN,BLANCHARDSTOWN,EIR,Unit 221,D15RF61,22,4384,"TM7654,TS0451",4b5346b9f964a520679527e3,JD Sports,9607,"['43-44 Mary Street', 'Dublin', 'Dublin City', 'Ireland']",53.349051401670906,-6.2657193644180325,Sporting Goods Shop
TS0451,53.393269,-6.3899469,Z EIRE BLANCHARDSTOWN,BLANCHARDSTOWN,EIR,Unit 221,D15RF61,22,4384,"TM7654,TS0451",4f749c9de4b0c97e39c20a28,JD Sports,11881,"['The Square Shopping Centre', 'Tallaght', 'Ireland']",53.287130490372135,-6.371030559109272,Sporting Goods Shop
TS0451,53.393269,-6.3899469,Z EIRE BLANCHARDSTOWN,BLANCHARDSTOWN,EIR,Unit 221,D15RF61,22,4384,"TM7654,TS0451",4e6cc844b0fba3f50e720b5b,JD Sports,4577,"['Liffey Valley Shopping Centre', 'Dublin', 'Dublin City', 'Ireland']",53.352168,-6.392166,Sporting Goods Shop
TS0453,53.2892637,-9.01828611815232,Z EIRE GALWAY,GALWAY,EIR,Unit 9/10/11 Edward Square,H91 RKT0,469,2300,"TM7099,TS0453",53c2b61d498e354934044791,JD Sports,2725,"['Unit 128, Eyre Square Shopping Centre, Eyre Square', 'Galway', 'Co Galway', 'Ireland']",53.273358,-9.0494109,Sporting Goods Shop
TS0518,55.8830123,-3.51702154285714,LIVINGSTON,LIVINGSTON,SCO,313/314 Almondvale South,EH54 6GS,901,4612,"TM7394,TS0518",4e3187b8fa76b9130b72928f,JD Sports,69,"['Unit 325 The Elements', 'Livingston', 'West Lothian', 'EH54 6GS', 'United Kingdom']",55.8828676,-3.5159382,Sporting Goods Shop
TS0520,51.8887129377415,0.900384664814258,COLCHESTER,COLCHESTER,ENG,20 Culver Walk,CO1 1XJ,941,4500,"TM7187,TS0520",4c46d9a076d72d7fb73f3b4d,JD Sports,168,"['Unit 11 30 Culvar Street West Culver Square (Unit 11 Culver Sq)', 'Colchester', 'Essex', 'CO1 1WF', 'United Kingdom']",51.888999442240625,0.897982120513916,Sporting Goods Shop
TS0526,52.2461296131222,0.709692765492755,BURY ST EDMUNDS,BURY ST EDMUNDS,ENG,Unit 1/2,IP33 3FA,718,4360,"TM7400,TS0526",4d932349d176a1cd820132f0,JD Sports,218,"['Unit A Butter Market', 'Bury St Edmunds', 'Suffolk', 'IP33 1DB', 'United Kingdom']",52.24567557745533,0.7128191398810486,Sporting Goods Shop
TS0535,57.1489835711827,-2.10003791892695,ABERDEEN,ABERDEEN (BON ACCORD),SCO,"Unit 19a, Bon Accord Centre",AB25 1HZ,904,8139,"TM7484,TS0535",4c2f29b83896e21ed569e390,JD Sports,675,"['1 East Terrace, Union Square, Guild Square (Union Square)', 'Aberdeen', 'Aberdeen City', 'AB11 5RD', 'United Kingdom']",57.143374,-2.095788,Sporting Goods Shop
TS0554,52.1369496666667,-0.469310633333333,BEDFORD,BEDFORD,ENG,"21/25 Harpur Centre, Midland Road",MK40 1PL,7174,2100,"TM7857,TS0554",4ff95801e4b054fbab556ba0,JD Sports,124,"['1-3 Silver Street', 'Bedford', 'MK40 1SY', 'United Kingdom']",52.1370680023802,-0.46750232577323914,Sporting Goods Shop
TS0647,53.5520279547262,-1.47987938892599,BARNSLEY,BARNSLEY,ENG,20/22 Cheapside,S70 1RR,4708,3142,"TM7869,TS0647",5a8ecffc12138435918ff083,JD Sports,7708,"['Cortonwood Retail Park', 'Barnsley', 'S73 0UF', 'United Kingdom']",53.51025364452402,-1.3869589533729823,Sporting Goods Shop
TS0648,53.7488456086413,-2.48280315602969,BLACKBURN,BLACKBURN,ENG,14/16 Spring Hill,BB1 7JB,4721,3000,"TM7937,TS0648",4eff071b7ee5f14f395c2b8d,JD Sports,89,"['Unit 24 Lord Square', 'Blackburn', 'Blackburn with Darwen', 'BB1 7NQ', 'United Kingdom']",53.748039,-2.482857,Sporting Goods Shop
TS0653,52.802571506924,-1.63162871004641,BURTON ON TRENT,BURTON ON TRENT,ENG,2/4 Swan Walk,DE14 1DD,4733,2630,"TM7818,TS0653",520762e411d2f0296477ffc0,JD Sports,64,"['Units 4-5, Coopers Square', 'Burton-on-Trent', 'Staffordshire', 'DE14 1HL', 'United Kingdom']",52.80203170809563,-1.631971299648285,Sporting Goods Shop
TS0654,54.7758720006232,-1.57742469645493,DURHAM,DURHAM,ENG,18 Silver Street,DH1 3RB,4761,2721,"TM7485,TS0654",4d98516061a3a1cd4dc8ca42,JD Sports,232,"['Unit 41/42 Prince Bishops Shopping Centre', 'Durham', 'DH1 3UJ', 'United Kingdom']",54.77691841011983,-1.5742877125740051,Sporting Goods Shop
TS0654,54.7758720006232,-1.57742469645493,DURHAM,DURHAM,ENG,18 Silver Street,DH1 3RB,4761,2721,"TM7485,TS0654",5b7eebb5dab4b1002cadecf2,JD Sports,3446,"['Unit 3 Arnison Shopping Park, Durham', 'Durham', 'DH1 5GB', 'United Kingdom']",54.8066656,-1.5829711,Sporting Goods Shop
TS0656,50.8528982422451,-1.17804637301083,FAREHAM,FAREHAM,ENG,"Unit 21, 13 Westbury Mall",PO16 0PE,4771,2200,"TM7946,TS0656",51d1c687498e62b1c62be52e,JD Sports,6028,"['Unit B4, Whiteley Valley', 'Fareham', 'Hampshire', 'PO15 7LL', 'United Kingdom']",50.885534,-1.246531,Sporting Goods Shop
TS0656,50.8528982422451,-1.17804637301083,FAREHAM,FAREHAM,ENG,"Unit 21, 13 Westbury Mall",PO16 0PE,4771,2200,"TM7946,TS0656",4e4cee9422717c65aca204e0,JD Sports,8513,"['222-224 Commercial Road', 'Portsmouth', 'Hampshire', 'PO1 1HG', 'United Kingdom']",50.80153509681172,-1.0883398354053497,Sporting Goods Shop
TS0659,51.062685859403,-0.329678193387513,HORSHAM,HORSHAM,ENG,54 West Street,RH12 1PL,4788,1900,"TM7703,TS0659",4e3bdb6962e19d6109580a8c,JD Sports,83,"['17 Swan Walk', 'Horsham', 'West Sussex', 'RH12 1HQ', 'United Kingdom']",51.06332115094934,-0.330314040184021,Sporting Goods Shop
TS0659,51.062685859403,-0.329678193387513,HORSHAM,HORSHAM,ENG,54 West Street,RH12 1PL,4788,1900,"TM7703,TS0659",4f802cece4b0acccb7bc4b44,JD Sports,11558,"['Unit 15 County Mall', 'Crawley', 'West Sussex', 'RH10 1FF', 'United Kingdom']",51.113629404731086,-0.18563434481620789,Sporting Goods Shop
TS0671,53.4518765131608,-2.73687900300366,ST HELENS,ST HELENS,ENG,1 Lagrange Avenue,WA10 1BN,4870,3500,TS0671,5a8ece71a87921721ff87479,JD Sports,70,"['Units 2 & 4 Church Square', 'St Helens', 'St. Helens', 'WA10 1AF', 'United Kingdom']",53.45181935873133,-2.7358263731002808,Sporting Goods Shop
TS0671,53.4518765131608,-2.73687900300366,ST HELENS,ST HELENS,ENG,1 Lagrange Avenue,WA10 1BN,4870,3500,TS0671,50e5a98de4b01e90712f258c,JD Sports,5017,"['Unit 6B Cables Retail Park', 'Prescot', 'Knowsley', 'L34 5NQ', 'United Kingdom']",53.4266116,-2.7995483,Sporting Goods Shop
TS0672,51.9033635179182,-0.202143856834364,STEVENAGE,STEVENAGE,ENG,66/68 Queensway,SG1 1EG,4871,2440,"TM7751,TS0672",5023ae09e4b0397f311b0f9a,JD Sports,50,"['91-93 Queensway', 'Stevenage', 'Hertfordshire', 'SG1 1EA', 'United Kingdom']",51.90358467481122,-0.20150095224380493,Sporting Goods Shop
TS0672,51.9033635179182,-0.202143856834364,STEVENAGE,STEVENAGE,ENG,66/68 Queensway,SG1 1EG,4871,2440,"TM7751,TS0672",4e4e3bc3d4c0b6da5d6bf22d,JD Sports,12152,"['Luton Airport (After Security)', 'Luton', 'LU2 9LR', 'United Kingdom']",51.88038,-0.375074,Sporting Goods Shop
TS0675,51.0158752917798,-3.10290150120401,TAUNTON,TAUNTON,ENG,54 North Street,TA1 1LX,4877,2356,"TM7752,TS0675",5cc02f3735d3fc002c81cd80,JD Sports,189,"['1 East Street', 'Taunton', 'Somerset', 'TA1 3LQ', 'United Kingdom']",51.0144597,-3.1013881,Sporting Goods Shop
TS0707,54.59555065,-5.92807936503482,NEWTOWNABBEY,NEWTOWNABBEY,NI,"Unit 4, Abbey Centre",BT37 9UH,558,2026,"TM7195,TS0707",4d2e06f55d4ca1cd8faf141b,JD Sports,396,"['14 Donegall Place', 'Belfast', 'BT1 5BA', 'United Kingdom']",54.5989231832766,-5.930063724517822,Sporting Goods Shop
TS0707,54.59555065,-5.92807936503482,NEWTOWNABBEY,NEWTOWNABBEY,NI,"Unit 4, Abbey Centre",BT37 9UH,558,2026,"TM7195,TS0707",5a8ece44840fc24cf4a49115,JD Sports,6750,"['37 Abbey Centre Newtownabbey', 'Newtownabbey', 'BT37 9UH', 'United Kingdom']",54.655915251323044,-5.918057763229399,Sporting Goods Shop
TS0707,54.59555065,-5.92807936503482,NEWTOWNABBEY,NEWTOWNABBEY,NI,"Unit 4, Abbey Centre",BT37 9UH,558,2026,"TM7195,TS0707",5a8ecd60061b510741e88c9b,JD Sports,12176,"['18 Bow Street Mall', 'Lisburn', 'BT28 1AW', 'United Kingdom']",54.51215200000001,-6.050113,Sporting Goods Shop
TS0707,54.59555065,-5.92807936503482,NEWTOWNABBEY,NEWTOWNABBEY,NI,"Unit 4, Abbey Centre",BT37 9UH,558,2026,"TM7195,TS0707",4d9b2ef1335ab60c00b0f4f9,JD Sports,317,"['Ug7 & Ffug 8 Victoria Square (UG7 & FFUG)', 'Belfast', 'BT1 4QG', 'United Kingdom']",54.59794306,-5.925389865,Sporting Goods Shop
TS0707,54.59555065,-5.92807936503482,NEWTOWNABBEY,NEWTOWNABBEY,NI,"Unit 4, Abbey Centre",BT37 9UH,558,2026,"TM7195,TS0707",5b7ed024c97f28002c3f9f09,JD Sports,2375,"['Unit E-LO-RO2, Windsor Park Stadium (Donegall Av)', 'Belfast', 'BT12 6LW', 'United Kingdom']",54.5817252653697,-5.9561240673065186,Sporting Goods Shop
TS0707,54.59555065,-5.92807936503482,NEWTOWNABBEY,NEWTOWNABBEY,NI,"Unit 4, Abbey Centre",BT37 9UH,558,2026,"TM7195,TS0707",4f3e48aae4b03dd024000396,JD Sports,2970,"['Unit 7 Boucher Retail Park, Boucher Crescent (Boucher Crescent)', 'Belfast', 'BT12 6HU', 'United Kingdom']",54.58084,-5.966501,Sporting Goods Shop
TS0707,54.59555065,-5.92807936503482,NEWTOWNABBEY,NEWTOWNABBEY,NI,"Unit 4, Abbey Centre",BT37 9UH,558,2026,"TM7195,TS0707",5b7ece6a112c6c002c0aa9b7,JD Sports,2331,"['Unit 18-20 Park Centre (Donegall Rd)', 'Belfast', 'BT12 6HN', 'United Kingdom']",54.58922324433211,-5.962539911270142,Sporting Goods Shop
TS0710,51.2664295830949,-1.08824790238093,BASINGSTOKE,BASINGSTOKE,ENG,7/8 Lower Ground Floor,RG21 7AW,566,4600,"TM7199,TS0710",4bae1386f964a5206c813be3,JD Sports,238,"['Unit 5 Festival Place, Basingstoke (Ground Level)', 'Basingstoke', 'Hampshire', 'RG21 7BE', 'United Kingdom']",51.264314,-1.087689,Sporting Goods Shop
TS0718,56.07252453414,-3.45774790834009,DUNFERMLINE,DUNFERMLINE,SCO,Kingsgate Centre,KY12 7QU,1723,2400,TS0718,577cc67f498e4378a7e1226c,JD Sports,159,"['Unit 19 The Kingsgate Sc', 'Dunfermline', 'Fife', 'KY12 7QU', 'United Kingdom']",56.0717750583021,-3.4599423558197486,Sporting Goods Shop
TS0723,52.4779817721622,-1.89356471976791,BIRMINGHAM,BIRMINGHAM BULLRING,ENG,Unit Msu2b,B5 4BF,570,20603,"TM7236,TS0723",4c2a8822197e9521b079628d,JD Sports,28,"['Lower Mall The Bullring Sc', 'Birmingham', 'West Midlands', 'B5 4BA', 'United Kingdom']",52.478206663656344,-1.893361682209047,Sporting Goods Shop
TS0723,52.4779817721622,-1.89356471976791,BIRMINGHAM,BIRMINGHAM BULLRING,ENG,Unit Msu2b,B5 4BF,570,20603,"TM7236,TS0723",4b831f50f964a52000f930e3,JD Sports,151,"['1 New Street', 'Birmingham', 'West Midlands', 'B2 4RF', 'United Kingdom']",52.47876008140004,-1.895391047000885,Sporting Goods Shop
TS0723,52.4779817721622,-1.89356471976791,BIRMINGHAM,BIRMINGHAM BULLRING,ENG,Unit Msu2b,B5 4BF,570,20603,"TM7236,TS0723",5a8ecebefdb9a74c882b7e6f,JD Sports,8472,"['Unit 42-44 Northfield Shopping Centre', 'Birmingham', 'West Midlands', 'B31 2JU', 'United Kingdom']",52.41686055360401,-1.967965364417978,Sporting Goods Shop
TS0723,52.4779817721622,-1.89356471976791,BIRMINGHAM,BIRMINGHAM BULLRING,ENG,Unit Msu2b,B5 4BF,570,20603,"TM7236,TS0723",4e0716402271dfa46bacef18,JD Sports,11148,"['Unit 5 T1 & T2 Airside, Birmingham Airport (Birmingham Airport (BHX))', 'Birmingham', 'West Midlands', 'B26 3QJ', 'United Kingdom']",52.452891,-1.734425,Sporting Goods Shop
TS0723,52.4779817721622,-1.89356471976791,BIRMINGHAM,BIRMINGHAM BULLRING,ENG,Unit Msu2b,B5 4BF,570,20603,"TM7236,TS0723",5b7f096bb9a5a8002cc9f0c1,JD Sports,5037,"['Selly Oak Shopping Park', 'Selly Oak', 'West Midlands', 'B29 6SJ', 'United Kingdom']",52.442382436954475,-1.9394114613533022,Sporting Goods Shop
TS0723,52.4779817721622,-1.89356471976791,BIRMINGHAM,BIRMINGHAM BULLRING,ENG,Unit Msu2b,B5 4BF,570,20603,"TM7236,TS0723",5a8ecff1d4cc9848ebfd2efd,JD Sports,4475,"['Unit 11 One Stop Retail Park Walsall Road (Walsall Rd)', 'Perry Barr', 'West Midlands', 'B42 1AA', 'United Kingdom']",52.517768,-1.9030310233135879,Sporting Goods Shop
TS0723,52.4779817721622,-1.89356471976791,BIRMINGHAM,BIRMINGHAM BULLRING,ENG,Unit Msu2b,B5 4BF,570,20603,"TM7236,TS0723",4ed63aad722eff15c01c3750,JD Sports,8167,"['Unit Su3 New Square', 'West Bromwich', 'Sandwell', 'B70 7NX', 'United Kingdom']",52.52038283517374,-1.9919317960739136,Sporting Goods Shop
TS0723,52.4779817721622,-1.89356471976791,BIRMINGHAM,BIRMINGHAM BULLRING,ENG,Unit Msu2b,B5 4BF,570,20603,"TM7236,TS0723",5a8ecee86dcf044534ac0e46,JD Sports,5011,"['165 High Street', 'Moseley and Kings Heath', 'West Midlands', 'B14 7DJ', 'United Kingdom']",52.43296076449883,-1.8928080797195435,Sporting Goods Shop
TS0723,52.4779817721622,-1.89356471976791,BIRMINGHAM,BIRMINGHAM BULLRING,ENG,Unit Msu2b,B5 4BF,570,20603,"TM7236,TS0723",4c25ef82905a0f47a04d6260,JD Sports,10627,"['24 Crescent Arcade Touchwood (Touchwood)', 'Solihull', 'B91 3GZ', 'United Kingdom']",52.412555,-1.7794924,Sporting Goods Shop
TS0723,52.4779817721622,-1.89356471976791,BIRMINGHAM,BIRMINGHAM BULLRING,ENG,Unit Msu2b,B5 4BF,570,20603,"TM7236,TS0723",510d0f5de4b0873bbfd4f4ec,JD Sports,10479,"['144 The Mall Gracechurch Sc Sutton Coldfield', 'West Midlands', 'B72 1PA', 'United Kingdom']",52.56251893541293,-1.8254926800727844,Sporting Goods Shop
TS0723,52.4779817721622,-1.89356471976791,BIRMINGHAM,BIRMINGHAM BULLRING,ENG,Unit Msu2b,B5 4BF,570,20603,"TM7236,TS0723",5017e956e4b0cfe38c88c6b2,JD Sports,1901,"['Unit 7 St Andrews Shopping Park', 'Birmingham', 'West Midlands', 'B10 0XA', 'United Kingdom']",52.4743638061818,-1.8661576509475708,Sporting Goods Shop
TS0726,55.8712370036407,-4.1432677592203,GLASGOW (FORT),GLASGOW FORT RETAIL PARK,SCO,Glasgow Fort Retail Park,G33 5AL,587,5500,"TM7242,TS0726",4bf93d4f8d30d13ae8da0118,JD Sports,272,"['Unit 13 Glasgow Fort Shopping Park', 'Glasgow', 'Glasgow City', 'G34 9DL', 'United Kingdom']",55.87176407753276,-4.139003932540845,Sporting Goods Shop
TS0726,55.8712370036407,-4.1432677592203,GLASGOW (FORT),GLASGOW FORT RETAIL PARK,SCO,Glasgow Fort Retail Park,G33 5AL,587,5500,"TM7242,TS0726",5a8eceaaf427de518729d6fd,JD Sports,13058,"['Unit 5 Brandon Parade', 'Motherwell', 'North Lanarkshire', 'ML1 1RB', 'United Kingdom']",55.790066009808605,-3.992476165294647,Sporting Goods Shop
TS0726,55.8712370036407,-4.1432677592203,GLASGOW (FORT),GLASGOW FORT RETAIL PARK,SCO,Glasgow Fort Retail Park,G33 5AL,587,5500,"TM7242,TS0726",4ed0bb4db8f7971d6aff6643,JD Sports,7566,"['Unit 16 Faraday Retail Park', 'Coatbridge', 'North Lanarkshire', 'ML5 3SQ', 'United Kingdom']",55.85861387149974,-4.02424231779105,Sporting Goods Shop
TS0726,55.8712370036407,-4.1432677592203,GLASGOW (FORT),GLASGOW FORT RETAIL PARK,SCO,Glasgow Fort Retail Park,G33 5AL,587,5500,"TM7242,TS0726",5182b87a498e9f19eac5d907,JD Sports,7003,"['87-91 Argyle Street (St Enoch Shopping Centre)', 'Glasgow', 'Glasgow City', 'G2 8BJ', 'United Kingdom']",55.85771785989028,-4.252762906745943,Sporting Goods Shop
TS0726,55.8712370036407,-4.1432677592203,GLASGOW (FORT),GLASGOW FORT RETAIL PARK,SCO,Glasgow Fort Retail Park,G33 5AL,587,5500,"TM7242,TS0726",4e95865e722ed789ed0bf5e2,JD Sports,4036,"['Unit 33 Forge Shopping Centre', 'Glasgow', 'Glasgow City', 'G31 4EB', 'United Kingdom']",55.85374238397631,-4.199872612953186,Sporting Goods Shop
TS0726,55.8712370036407,-4.1432677592203,GLASGOW (FORT),GLASGOW FORT RETAIL PARK,SCO,Glasgow Fort Retail Park,G33 5AL,587,5500,"TM7242,TS0726",4e0b3ed3e4cdfb543c6264f5,JD Sports,6915,"['229-249 Buchanan Street', 'Glasgow', 'Glasgow City', 'G1 2NG', 'United Kingdom']",55.86393884565854,-4.253217726945877,Sporting Goods Shop
TS0726,55.8712370036407,-4.1432677592203,GLASGOW (FORT),GLASGOW FORT RETAIL PARK,SCO,Glasgow Fort Retail Park,G33 5AL,587,5500,"TM7242,TS0726",4e14305518a8b99f10ad7e67,JD Sports,6765,"['186 Trongate (Glassford St)', 'Glasgow', 'Glasgow City', 'G1 5RY', 'United Kingdom']",55.85752713631158,-4.248780012130737,Sporting Goods Shop
TS0727,50.7532071273342,-1.84350489907249,BOURNEMOUTH(CASTLEPOINT),CASTLEPOINT,ENG,"Unit N1, Castle Point Shopping Centre",BH8 9UY,578,7112,"TM7243,TS0727",4dd7df58fa76ad96d12f285f,JD Sports,195,"['Unit 24 Castlepoint', 'Bournemouth', 'Dorset', 'BH8 9UY', 'United Kingdom']",50.7535798,-1.840794,Sporting Goods Shop
TS0727,50.7532071273342,-1.84350489907249,BOURNEMOUTH(CASTLEPOINT),CASTLEPOINT,ENG,"Unit N1, Castle Point Shopping Centre",BH8 9UY,578,7112,"TM7243,TS0727",4deb60d218386283a3fd755a,JD Sports,2872,"['Unit 17 Soverign Centre', 'Boscombe', 'Dorset', 'BH1 4SX', 'United Kingdom']",50.727518,-1.839732,Sporting Goods Shop
TS0727,50.7532071273342,-1.84350489907249,BOURNEMOUTH(CASTLEPOINT),CASTLEPOINT,ENG,"Unit N1, Castle Point Shopping Centre",BH8 9UY,578,7112,"TM7243,TS0727",5a09a7b079187117266e7bef,JD Sports,10392,"['Unit 19/20, Dolphin Centre', 'Poole', 'Dorset', 'BH15 1TA', 'United Kingdom']",50.7181900317485,-1.9802501840267723,Sporting Goods Shop
TS0727,50.7532071273342,-1.84350489907249,BOURNEMOUTH(CASTLEPOINT),CASTLEPOINT,ENG,"Unit N1, Castle Point Shopping Centre",BH8 9UY,578,7112,"TM7243,TS0727",5607c2e2498ea7032928db1e,JD Sports,4622,"['70 Commercial Road', 'Bournemouth', 'Dorset', 'BH2 5LR', 'United Kingdom']",50.71999800181426,-1.8828986585140228,Sporting Goods Shop
TS0731,53.7233177615814,-1.85831618464023,HALIFAX,HALIFAX,ENG,Unit 22 Woolshops,HX1 1RU,607,1840,"TM7273,TS0731",51fbe273498ec588e0bb16e1,JD Sports,25,"['Unit 20, 14 Woolshops', 'Halifax', 'Calderdale', 'HX1 1RU', 'United Kingdom']",53.723188914009974,-1.8580051951064434,Sporting Goods Shop
TS0731,53.7233177615814,-1.85831618464023,HALIFAX,HALIFAX,ENG,Unit 22 Woolshops,HX1 1RU,607,1840,"TM7273,TS0731",4c5145ca3940be9a27359408,JD Sports,10863,"['Unit 2 Forster Square (Valley Rd.)', 'Bradford', 'BD1 4AG', 'United Kingdom']",53.79860253079107,-1.7532795667648315,Sporting Goods Shop
TS0731,53.7233177615814,-1.85831618464023,HALIFAX,HALIFAX,ENG,Unit 22 Woolshops,HX1 1RU,607,1840,"TM7273,TS0731",4c711a8ab5a5236abe195252,JD Sports,10066,"['Unit 1 Kingsgate Shopping Centre', 'Huddersfield', 'Kirklees', 'HD1 2QB', 'United Kingdom']",53.64615310066369,-1.778714906745904,Sporting Goods Shop
TS0732,54.86933645,-6.2794732192465,BALLYMENA,BALLYMENA,NI,"Unit 52-53, Fairhill Shopping Centre",BT43 6UF,601,3500,"TM7275,TS0732",51cec195498e81b276b68bdb,JD Sports,252,"['55 56 Fairhill Shopping Centre', 'Ballymena', 'Ballymena District', 'BT43 6UF', 'United Kingdom']",54.86941016282572,-6.275532245635986,Sporting Goods Shop
TS0734,50.74467035,-1.85798090318094,BOURNEMOUTH,BOURNEMOUTH,ENG,Unit 2,BH1 1BU,608,3700,"TM7278,TS0734",4deb60d218386283a3fd755a,JD Sports,2301,"['Unit 17 Soverign Centre', 'Boscombe', 'Dorset', 'BH1 4SX', 'United Kingdom']",50.727518,-1.839732,Sporting Goods Shop
TS0734,50.74467035,-1.85798090318094,BOURNEMOUTH,BOURNEMOUTH,ENG,Unit 2,BH1 1BU,608,3700,"TM7278,TS0734",5a09a7b079187117266e7bef,JD Sports,9105,"['Unit 19/20, Dolphin Centre', 'Poole', 'Dorset', 'BH15 1TA', 'United Kingdom']",50.7181900317485,-1.9802501840267723,Sporting Goods Shop
TS0734,50.74467035,-1.85798090318094,BOURNEMOUTH,BOURNEMOUTH,ENG,Unit 2,BH1 1BU,608,3700,"TM7278,TS0734",5607c2e2498ea7032928db1e,JD Sports,3259,"['70 Commercial Road', 'Bournemouth', 'Dorset', 'BH2 5LR', 'United Kingdom']",50.71999800181426,-1.8828986585140228,Sporting Goods Shop
TS0734,50.74467035,-1.85798090318094,BOURNEMOUTH,BOURNEMOUTH,ENG,Unit 2,BH1 1BU,608,3700,"TM7278,TS0734",4dd7df58fa76ad96d12f285f,JD Sports,1564,"['Unit 24 Castlepoint', 'Bournemouth', 'Dorset', 'BH8 9UY', 'United Kingdom']",50.7535798,-1.840794,Sporting Goods Shop
TS0743,53.483981,-2.2402409,MANCHESTER,MANCHESTER (ARNDALE),ENG,Msu3 Northern Ext,M4 3AQ,692,25573,"TM7299,TS0743",4b7ec528f964a52010fe2fe3,JD Sports,176,"['16-18 Arndale Centre, Barbarolli Mall', 'Manchester', 'M4 3AB', 'United Kingdom']",53.4835743595944,-2.2428121987419445,Sporting Goods Shop
TS0743,53.483981,-2.2402409,MANCHESTER,MANCHESTER (ARNDALE),ENG,Msu3 Northern Ext,M4 3AQ,692,25573,"TM7299,TS0743",5a4545b8c0f16320555bd027,JD Sports,1808,"['Unit G, Regent Retail Park', 'Salford', 'M5 4DE', 'United Kingdom']",53.477943,-2.265591,Sporting Goods Shop
TS0743,53.483981,-2.2402409,MANCHESTER,MANCHESTER (ARNDALE),ENG,Msu3 Northern Ext,M4 3AQ,692,25573,"TM7299,TS0743",4bf93e604a67c928dd8026cf,JD Sports,10511,"['Units 16-17 Lower Mall The Spindles Sc (Lower Mall)', 'Oldham', 'Lancashire', 'OL1 1HE', 'United Kingdom']",53.541413,-2.114194,Sporting Goods Shop
TS0743,53.483981,-2.2402409,MANCHESTER,MANCHESTER (ARNDALE),ENG,Msu3 Northern Ext,M4 3AQ,692,25573,"TM7299,TS0743",4c6aca2f897b1b8d72b1b217,JD Sports,10649,"['Unit 3 Centre Retail Park Elk Mill', 'Oldham', 'Lancashire', 'OL2 5HX', 'United Kingdom']",53.558099788457994,-2.138509154319763,Sporting Goods Shop
TS0743,53.483981,-2.2402409,MANCHESTER,MANCHESTER (ARNDALE),ENG,Msu3 Northern Ext,M4 3AQ,692,25573,"TM7299,TS0743",4edd380cbe7be2833b142d45,JD Sports,7440,"['48 Regents Crescent, Unit L12', 'Trafford Centre', 'Trafford', 'M17 8AP', 'United Kingdom']",53.466613,-2.348693,Sporting Goods Shop
TS0743,53.483981,-2.2402409,MANCHESTER,MANCHESTER (ARNDALE),ENG,Msu3 Northern Ext,M4 3AQ,692,25573,"TM7299,TS0743",4d13848a9844b60c0661c3d4,JD Sports,9726,"['83 Merseyway Sc', 'Stockport', 'SK1 1QW', 'United Kingdom']",53.410218209476476,-2.1615932245368867,Sporting Goods Shop
TS0743,53.483981,-2.2402409,MANCHESTER,MANCHESTER (ARNDALE),ENG,Msu3 Northern Ext,M4 3AQ,692,25573,"TM7299,TS0743",4da1ab35b3e7236a011e0e79,JD Sports,939,"['Unit B Central Retail Park Gt Ancoats St', 'Manchester', 'Greater Manchester', 'M4 6DJ', 'United Kingdom']",53.48240209762607,-2.2263139486312866,Sporting Goods Shop
TS0743,53.483981,-2.2402409,MANCHESTER,MANCHESTER (ARNDALE),ENG,Msu3 Northern Ext,M4 3AQ,692,25573,"TM7299,TS0743",5a8ecd550881587526bae41b,JD Sports,8593,"['Unit 18 Crown Point North Denton', 'Denton', 'Tameside', 'M34 3JP', 'United Kingdom']",53.459317792838654,-2.117343842983246,Sporting Goods Shop
TS0743,53.483981,-2.2402409,MANCHESTER,MANCHESTER (ARNDALE),ENG,Msu3 Northern Ext,M4 3AQ,692,25573,"TM7299,TS0743",4fad0970e4b027b7361a3518,JD Sports,11635,"['Gf2 Ellesmere Shopping Centre', 'Walkden', 'Salford', 'M28 3BT', 'United Kingdom']",53.525361,-2.401625,Sporting Goods Shop
TS0744,53.5239634156893,-1.13857158204181,DONCASTER,DONCASTER,ENG,24 Upper West Mall,DN1 1LF,639,6648,"TM7353,TS0744",4ff822a1e4b0f3316314010e,JD Sports,127,"['8 North Mall, Frenchgate Centre', 'Doncaster', 'DN1 1SR', 'United Kingdom']",53.523305,-1.136993,Sporting Goods Shop
TS0744,53.5239634156893,-1.13857158204181,DONCASTER,DONCASTER,ENG,24 Upper West Mall,DN1 1LF,639,6648,"TM7353,TS0744",57541f72498e5248657bbaa4,JD Sports,98,"['2-6 St Sepulchre Gate Frenchgate Sc (Frenchgate Shopping Centre)', 'Doncaster', 'DN1 1TD', 'United Kingdom']",53.5235573,-1.1372458,Sporting Goods Shop
TS0745,51.2751579182325,0.520847701585243,MAIDSTONE,MAIDSTONE FREMLINS CNTR,ENG,19/21 Fremlin Walk,ME14 1QG,627,6139,"TM7354,TS0745",4f081141e4b0882d22b3f4b3,JD Sports,72,"['Unit 32 Fremlin Walk', 'Maidstone', 'Kent', 'ME14 1QP', 'United Kingdom']",51.275347,0.519858,Sporting Goods Shop
TS0745,51.2751579182325,0.520847701585243,MAIDSTONE,MAIDSTONE FREMLINS CNTR,ENG,19/21 Fremlin Walk,ME14 1QG,627,6139,"TM7354,TS0745",4e770a2c1495be5171d05d9c,JD Sports,8245,"['Unit 18A Hempstead Valley Sc', 'Gillingham', 'Kent', 'ME7 3PB', 'United Kingdom']",51.34148618444865,0.5735810101032257,Sporting Goods Shop
TS0746,51.7671878,0.096197,HARLOW,HARLOW WATER GARDENS,ENG,"Unit 6, Water Gardens Shopping Centre",CM20 1AN,630,4000,"TM7355,TS0746",4e0c91a7d4c07c82a2dd714a,JD Sports,172,"['Unit 11 The Water Gardens Southgate', 'Harlow', 'Essex', 'CM20 1AB', 'United Kingdom']",51.76865156302543,0.09536594152450562,Sporting Goods Shop
TS0746,51.7671878,0.096197,HARLOW,HARLOW WATER GARDENS,ENG,"Unit 6, Water Gardens Shopping Centre",CM20 1AN,630,4000,"TM7355,TS0746",4ec7aedf722e1437968ba5cc,JD Sports,10701,"['Unit 4 Brookfields Retail', 'Cheshunt', 'Hertfordshire', 'EN8 0QL', 'United Kingdom']",51.719358559094594,-0.03848433494567871,Sporting Goods Shop
TS0747,52.95692885,-1.146972525,NOTTINGHAM,NOTTINGHAM (VICTORIA),ENG,136 Victoria Centre,NG1 3QD,635,15080,"TM7356,TS0747",5b7f0324b399f700390aeda6,JD Sports,187,"['intu Victoria Centre (Unit 31A-31B)', 'Nottingham', 'Nottinghamshire', 'NG1 3QN', 'United Kingdom']",52.95854675646754,-1.1477333307266235,Sporting Goods Shop
TS0747,52.95692885,-1.146972525,NOTTINGHAM,NOTTINGHAM (VICTORIA),ENG,136 Victoria Centre,NG1 3QD,635,15080,"TM7356,TS0747",4db175c5a86e63d2116b210c,JD Sports,260,"['30-32 Clumber Street', 'Nottingham', 'Nottinghamshire', 'NG1 3GB', 'United Kingdom']",52.954609011339315,-1.1475066840648651,Sporting Goods Shop
TS0748,51.2768662881026,1.08174945968111,CANTERBURY,CANTERBURY WHITEFRIARS,ENG,1-3 Whitefriars Street,CT1 2TA,637,10000,"TM7357,TS0748",55cdda67498ef8f118dc762a,JD Sports,313,"['36 High Street', 'Canterbury', 'Kent', 'CT1 2RY', 'United Kingdom']",51.27925723818299,1.0793718695640564,Sporting Goods Shop
TS0749,50.7252107559396,-3.52728097911406,EXETER,EXETER PRINCESSHAY,ENG,Exeter Princesshay,EX1 1GB,641,5298,"TM7358,TS0749",4fd3515be4b0052fbb754f6f,JD Sports,110,"['No: 22 Unit Su28 Princesshay', 'Exeter', 'Devon', 'EX1 1GE', 'United Kingdom']",50.72439197976415,-3.5281767754630664,Sporting Goods Shop
TS0750,-33.7946398,150.9813423,CRAIGAVON,CRAIGAVON,NI,"Unit C, Rushmere Shopping Centre",BT64 1AA,628,3100,"TM7359,TS0750",5aee782823a2e6002ccdc016,JD Sports,3243,"['Parramatta NSW 2150', 'Australia']",-33.817489,151.003108,Sporting Goods Shop
TS0753,53.79470785,-1.74992804778044,BRADFORD,BRADFORD BROADWAY,ENG,Unit Msuo3,BD11US,1020,4536,"TM7479,TS0753",59ff22af2a7ab640b4fc2865,JD Sports,9857,"['Unit 3, Bridge Shopping Park', 'Leeds', 'LS5 3BL', 'United Kingdom']",53.81739145504868,-1.6049748659133911,Sporting Goods Shop
TS0753,53.79470785,-1.74992804778044,BRADFORD,BRADFORD BROADWAY,ENG,Unit Msuo3,BD11US,1020,4536,"TM7479,TS0753",4c5145ca3940be9a27359408,JD Sports,486,"['Unit 2 Forster Square (Valley Rd.)', 'Bradford', 'BD1 4AG', 'United Kingdom']",53.79860253079107,-1.7532795667648315,Sporting Goods Shop
TS0753,53.79470785,-1.74992804778044,BRADFORD,BRADFORD BROADWAY,ENG,Unit Msuo3,BD11US,1020,4536,"TM7479,TS0753",51fbe273498ec588e0bb16e1,JD Sports,10675,"['Unit 20, 14 Woolshops', 'Halifax', 'Calderdale', 'HX1 1RU', 'United Kingdom']",53.723188914009974,-1.8580051951064434,Sporting Goods Shop
TS0759,53.5465747914311,-2.6293631786429,WIGAN,WIGAN,ENG,Unit 1,WN1 1BH,720,4932,"TM7366,TS0759",5a8ece71a87921721ff87479,JD Sports,12686,"['Units 2 & 4 Church Square', 'St Helens', 'St. Helens', 'WA10 1AF', 'United Kingdom']",53.45181935873133,-2.7358263731002808,Sporting Goods Shop
TS0759,53.5465747914311,-2.6293631786429,WIGAN,WIGAN,ENG,Unit 1,WN1 1BH,720,4932,"TM7366,TS0759",5a8ece809411f228f298f08b,JD Sports,74,"['Lsu08 2 The Grand Arcade', 'Wigan', 'WN1 1BH', 'United Kingdom']",53.5465218,-2.6304883,Sporting Goods Shop
TS0759,53.5465747914311,-2.6293631786429,WIGAN,WIGAN,ENG,Unit 1,WN1 1BH,720,4932,"TM7366,TS0759",56015e2a498edbed0bbdc5c4,JD Sports,11852,"['22 Market Walk Sc', 'Chorley', 'Lancashire', 'PR7 1DE', 'United Kingdom']",53.65304803883779,-2.629924714565277,Sporting Goods Shop
TS0759,53.5465747914311,-2.6293631786429,WIGAN,WIGAN,ENG,Unit 1,WN1 1BH,720,4932,"TM7366,TS0759",4e7cbccfb0fbfe3c1647ba41,JD Sports,7383,"['Unit 2 Middlebrook Retail Park Mansell Way (Mansell Way)', 'Bolton', 'Lancashire', 'BL6 6JA', 'United Kingdom']",53.581697,-2.534621,Sporting Goods Shop
TS0759,53.5465747914311,-2.6293631786429,WIGAN,WIGAN,ENG,Unit 1,WN1 1BH,720,4932,"TM7366,TS0759",567e6923498ee565cda1d90c,JD Sports,8535,"['Unit 7B Parsonage Retail Park', 'Leigh', 'Wigan', 'WN7 5SJ', 'United Kingdom']",53.49935409259884,-2.5277379155158997,Sporting Goods Shop
TS0763,53.3899432,-2.594526,WARRINGTON,WARRINGTON,ENG,Unit Su3,WA1 1QB,739,7000,"TM7369,TS0763",4c1f44335668b713b49ef569,JD Sports,173,"['Su40 Golden Square', 'Warrington', 'WA1 1QP', 'United Kingdom']",53.38998900000002,-2.597133830688449,Sporting Goods Shop
TS0763,53.3899432,-2.594526,WARRINGTON,WARRINGTON,ENG,Unit Su3,WA1 1QB,739,7000,"TM7369,TS0763",5a8ece71a87921721ff87479,JD Sports,11632,"['Units 2 & 4 Church Square', 'St Helens', 'St. Helens', 'WA10 1AF', 'United Kingdom']",53.45181935873133,-2.7358263731002808,Sporting Goods Shop
TS0763,53.3899432,-2.594526,WARRINGTON,WARRINGTON,ENG,Unit Su3,WA1 1QB,739,7000,"TM7369,TS0763",4cc81e78d77af04dd987ac99,JD Sports,9714,"['Unit 51 Halton Lea Centre, Forest Walk', 'Runcorn', 'Halton', 'WA7 2GZ', 'United Kingdom']",53.32783030977396,-2.6972350362245834,Sporting Goods Shop
TS0765,52.9196550315789,-1.47323935263158,DERBY,DERBY,ENG,Su208/307,DE1 2PQ,741,8400,"TM7370,TS0765",4f49060ee4b0c8396045504f,JD Sports,119,"['Su310 & 259 The Eagle Centre', 'Derbyshire', 'DE1 2PL', 'United Kingdom']",52.918596,-1.472944,Sporting Goods Shop
TS0766,53.3390493,-6.2569508,Z EIRE DUBLIN (ST STEPH),DUBLIN ST STEPHENS,EIR,6-7 St Stephens Green,D02 X827,705,14135,TS0766,50fc102fe4b01725bcb42b45,JD Sports,5917,"['Unit 13 Level 2, Dundrum Shopping Centre, Dundrum, (Level 2)', 'Dublin', 'Dublin City', 'Ireland']",53.28664913743767,-6.242019948410075,Sporting Goods Shop
TS0766,53.3390493,-6.2569508,Z EIRE DUBLIN (ST STEPH),DUBLIN ST STEPHENS,EIR,6-7 St Stephens Green,D02 X827,705,14135,TS0766,4f44fd68e4b0f766d4cf25bf,JD Sports,9704,"['Rt16 Dublin Airport, T2 Airside', 'Dublin', 'Dublin City', 'Ireland']",53.4256915,-6.2407147,Sporting Goods Shop
TS0766,53.3390493,-6.2569508,Z EIRE DUBLIN (ST STEPH),DUBLIN ST STEPHENS,EIR,6-7 St Stephens Green,D02 X827,705,14135,TS0766,4b5346b9f964a520679527e3,JD Sports,1256,"['43-44 Mary Street', 'Dublin', 'Dublin City', 'Ireland']",53.349051401670906,-6.2657193644180325,Sporting Goods Shop
TS0768,51.67193505,-0.0332490756229035,ENFIELD,ENFIELD,ENG,12 Hutton Walk,EN2 6BH,717,4605,"TM7378,TS0768",5b7eedc52bf29b002d60303d,JD Sports,8859,"['Unit 6 Epping Forest Shopping Park', 'Debden', 'Essex', 'IG10 3UE', 'United Kingdom']",51.64356305488748,0.08661389350891113,Sporting Goods Shop
TS0768,51.67193505,-0.0332490756229035,ENFIELD,ENFIELD,ENG,12 Hutton Walk,EN2 6BH,717,4605,"TM7378,TS0768",5a8ecfb9bed48320672e4ca4,JD Sports,5473,"['22 North Mall', 'Edmonton', 'Greater London', 'N9 0EQ', 'United Kingdom']",51.625076,-0.057244,Sporting Goods Shop
TS0768,51.67193505,-0.0332490756229035,ENFIELD,ENFIELD,ENG,12 Hutton Walk,EN2 6BH,717,4605,"TM7378,TS0768",4fbf51d3e4b07c0ab040c868,JD Sports,9909,"['Unit C The Mall 33 Selbourne Walk', 'Walthamstow', 'Greater London', 'E17 7JR', 'United Kingdom']",51.58313160928119,-0.02323061227798462,Sporting Goods Shop
TS0768,51.67193505,-0.0332490756229035,ENFIELD,ENFIELD,ENG,12 Hutton Walk,EN2 6BH,717,4605,"TM7378,TS0768",4db04e5043a1bea42bb483a0,JD Sports,4074,"['Unit 18/18A Palace Exchange', 'Enfield', 'Greater London', 'EN2 6BP', 'United Kingdom']",51.65107575735866,-0.08174300193786621,Sporting Goods Shop
TS0768,51.67193505,-0.0332490756229035,ENFIELD,ENFIELD,ENG,12 Hutton Walk,EN2 6BH,717,4605,"TM7378,TS0768",4eff303b8231bcb703361fa2,JD Sports,10095,"['Ground Floor 78-80 High Road (The Mall)', 'Wood Green', 'Greater London', 'N22 6HE', 'United Kingdom']",51.5936162,-0.1069224,Sporting Goods Shop
TS0768,51.67193505,-0.0332490756229035,ENFIELD,ENFIELD,ENG,12 Hutton Walk,EN2 6BH,717,4605,"TM7378,TS0768",4e81ef359adf8adb8a7529f1,JD Sports,11995,"['Hackney', 'Greater London', 'United Kingdom']",51.56738657958422,-0.07527960178128176,Sporting Goods Shop
TS0768,51.67193505,-0.0332490756229035,ENFIELD,ENFIELD,ENG,12 Hutton Walk,EN2 6BH,717,4605,"TM7378,TS0768",4ec7aedf722e1437968ba5cc,JD Sports,5291,"['Unit 4 Brookfields Retail', 'Cheshunt', 'Hertfordshire', 'EN8 0QL', 'United Kingdom']",51.719358559094594,-0.03848433494567871,Sporting Goods Shop
TS0768,51.67193505,-0.0332490756229035,ENFIELD,ENFIELD,ENG,12 Hutton Walk,EN2 6BH,717,4605,"TM7378,TS0768",4c712724d7fab1f7db6b60c9,JD Sports,9588,"['Unit A1 Tottenham Hale Retail Park', 'Tottenham', 'Greater London', 'N15 4QD', 'United Kingdom']",51.58780970260657,-0.06308555603027344,Sporting Goods Shop
TS0769,51.6295891588696,-0.755162098834289,HIGH WYCOMBE,HIGH WYCOMBE,ENG,Unit 43,HP11 2BY,738,4390,"TM7392,TS0769",50cdc081e4b09a6d9e5cc38a,JD Sports,80,"['Unit 51, Eden Centre', 'High Wycombe', 'Buckinghamshire', 'HP11 2BZ', 'United Kingdom']",51.629373067661405,-0.7540547847747803,Sporting Goods Shop
TS0772,53.957221875,-1.0797729,YORK,YORK COPPERGATE,ENG,3 St Mary's Square,YO1 9NY,708,10300,"TM7938,TS0772",4d43fdeebf61a1cdf1dc03ac,JD Sports,425,"['Unit 2 3-7 Coney Street (Unit 2)', 'York', 'North Yorkshire', 'YO1 9QL', 'United Kingdom']",53.95976460709815,-1.0846175998449326,Sporting Goods Shop
TS0773,51.8647246296421,-2.24532325446425,GLOUCESTER,GLOUCESTER,ENG,8-8a Eastgate Street,GL1 1PA,712,4000,"TM7948,TS0773",4bfd2c7d83bbd13a23ef62c5,JD Sports,90,"['Unit 8A, Market Way', 'Gloucester', 'Gloucestershire', 'GL1 1QH', 'United Kingdom']",51.86398233096751,-2.244783639907837,Sporting Goods Shop
TS0784,51.4048474272514,0.0153298535955656,BROMLEY,BROMLEY,ENG,145 High St,BR1 1JD,747,12010,"TM7844,TS0784",4fa527e1e4b09571deeaf1bd,JD Sports,5,"['151-153 High Street', 'Bromley', 'Greater London', 'BR1 1JD', 'United Kingdom']",51.404885672551686,0.015374422073364258,Sporting Goods Shop
TS0784,51.4048474272514,0.0153298535955656,BROMLEY,BROMLEY,ENG,145 High St,BR1 1JD,747,12010,"TM7844,TS0784",4ca49c66b0ff8cfacb2cc15e,JD Sports,9561,"['Unit 6 The Aylesham Sc', 'Peckham', 'Greater London', 'SE15 5EW', 'United Kingdom']",51.472513899649655,-0.06954699754714966,Sporting Goods Shop
TS0784,51.4048474272514,0.0153298535955656,BROMLEY,BROMLEY,ENG,145 High St,BR1 1JD,747,12010,"TM7844,TS0784",5a8ecfb7a87921024db525ab,JD Sports,5768,"['122-124 High Street', 'Eltham', 'Greater London', 'SE9 1BJ', 'United Kingdom']",51.45055283365102,0.05450516939163208,Sporting Goods Shop
TS0784,51.4048474272514,0.0153298535955656,BROMLEY,BROMLEY,ENG,145 High St,BR1 1JD,747,12010,"TM7844,TS0784",4cd6c5b8122ba143c99c34a1,JD Sports,10989,"['Unit Lfu1 Surrey Quays Rotherhithe', 'Surrey Quays', 'Greater London', 'SE16 7LL', 'United Kingdom']",51.49569594614948,-0.046661049127578735,Sporting Goods Shop
TS0784,51.4048474272514,0.0153298535955656,BROMLEY,BROMLEY,ENG,145 High St,BR1 1JD,747,12010,"TM7844,TS0784",4f7442c1e4b026e7918325e6,JD Sports,8715,"['52 North End', 'Croydon', 'Greater London', 'CR0 1UG', 'United Kingdom']",51.375579449377554,-0.10104149580001831,Sporting Goods Shop
TS0784,51.4048474272514,0.0153298535955656,BROMLEY,BROMLEY,ENG,145 High St,BR1 1JD,747,12010,"TM7844,TS0784",5a8ecd58f79faa17fd23a67c,JD Sports,10274,"['44-48 Powis Street', 'Woolwich', 'Greater London', 'SE18 6LQ', 'United Kingdom']",51.4913649,0.0669251,Sporting Goods Shop
TS0784,51.4048474272514,0.0153298535955656,BROMLEY,BROMLEY,ENG,145 High St,BR1 1JD,747,12010,"TM7844,TS0784",512b3f55e4b051c723e5ba1d,JD Sports,11061,"['451-453 Brixton Road', 'Brixton', 'Greater London', 'SW9 8HH', 'United Kingdom']",51.46207403944858,-0.11496618390083313,Sporting Goods Shop
TS0784,51.4048474272514,0.0153298535955656,BROMLEY,BROMLEY,ENG,145 High St,BR1 1JD,747,12010,"TM7844,TS0784",5a8ece58fc9e9457d6baa95c,JD Sports,5029,"['Unit 2A Island Retail Park, Plassy Rd', 'Catford', 'Greater London', 'SE6 2DD', 'United Kingdom']",51.444706954348455,-0.01879740244680761,Sporting Goods Shop
TS0785,54.5752268607782,-1.23690921624681,MIDDLESBROUGH,MIDDLESBROUGH,ENG,92 Linthorpe Road,TS1 2JZ,750,9030,"TM7778,TS0785",4cb1b056ef1b370495364500,JD Sports,77,"['The Cleveland Sc', 'Middlesbrough', 'TS1 2NR', 'United Kingdom']",54.575493,-1.235804,Sporting Goods Shop
TS0785,54.5752268607782,-1.23690921624681,MIDDLESBROUGH,MIDDLESBROUGH,ENG,92 Linthorpe Road,TS1 2JZ,750,9030,"TM7778,TS0785",56bc801d498ef9fa3273d186,JD Sports,5121,"['Unit 14 Wellington Square Sc', 'Stockton-on-Tees', 'TS18 1RG', 'United Kingdom']",54.565600339217596,-1.3145240932540219,Sporting Goods Shop
TS0785,54.5752268607782,-1.23690921624681,MIDDLESBROUGH,MIDDLESBROUGH,ENG,92 Linthorpe Road,TS1 2JZ,750,9030,"TM7778,TS0785",5a8ecf492632ec370312fcc0,JD Sports,12192,"['Unit 176 Middleton Grange Sc', 'Hartlepool', 'TS24 7RR', 'United Kingdom']",54.68390768833016,-1.2134206295013428,Sporting Goods Shop
TS0785,54.5752268607782,-1.23690921624681,MIDDLESBROUGH,MIDDLESBROUGH,ENG,92 Linthorpe Road,TS1 2JZ,750,9030,"TM7778,TS0785",4e51111118383eb2af37dc8d,JD Sports,3139,"['Unit 21C Teesside Retail Park', 'Middlesbrough', 'TS17 7BU', 'United Kingdom']",54.55732552692567,-1.2744945287704468,Sporting Goods Shop
TS0785,54.5752268607782,-1.23690921624681,MIDDLESBROUGH,MIDDLESBROUGH,ENG,92 Linthorpe Road,TS1 2JZ,750,9030,"TM7778,TS0785",4f92d7a3e4b0cd2d532a5c1c,JD Sports,11964,"['Unit 17 Regent Walk', 'Redcar', 'Redcar and Cleveland', 'TS10 3FB', 'United Kingdom']",54.617761,-1.066535,Sporting Goods Shop
TS0786,55.9485706698595,-4.75882246271085,GREENOCK,GREENOCK,SCO,30 Hamilton Way,PA15 1RH,4079,1100,TS0786,5a8ece355a2c9117b2ed4d12,JD Sports,30,"['Hamilton Way', 'Greenock', 'Inverclyde', 'PA15 1JW', 'United Kingdom']",55.948572,-4.759311,Sporting Goods Shop
TS0857,53.7454256852662,-0.349511797437794,HULL,HULL ST STEPHENS CENTRE,ENG,"Unit 12, 13",HU2 8LN,787,8400,"TM7445,TS0857",5a8ecf0fa9fe123e9f007560,JD Sports,5595,"['Unit 5D Kingswood Retail Park', 'Hull', 'Kingston upon Hull', 'HU7 3DA', 'United Kingdom']",53.79567010991246,-0.34720659255981445,Sporting Goods Shop
TS0857,53.7454256852662,-0.349511797437794,HULL,HULL ST STEPHENS CENTRE,ENG,"Unit 12, 13",HU2 8LN,787,8400,"TM7445,TS0857",52c987b8498eb44b7a145b2c,JD Sports,151,"['Unit 30 St Stephens Shopping Centre', 'Hull', 'Kingston upon Hull', 'HU2 8LN', 'United Kingdom']",53.7454896733268,-0.34721195697784424,Sporting Goods Shop
TS0864,51.5304006,-3.2510664,CARDIFF,CARDIFF,WAL,Unit 1 Andrews Buildings,CF10 2AS,699,19487,"TM7491,TS0864",5a8eceaca6031c4c8add6d9c,JD Sports,5648,"['Unit 11 Castle Court Castle Centre', 'Caerphilly', 'Caerphilly County Borough', 'CF83 1NU', 'United Kingdom']",51.57643694833398,-3.21675181388855,Sporting Goods Shop
TS0864,51.5304006,-3.2510664,CARDIFF,CARDIFF,WAL,Unit 1 Andrews Buildings,CF10 2AS,699,19487,"TM7491,TS0864",4bfa80a85efe2d7ff6a96d34,JD Sports,7478,"['Unit 5 53 - 57 Queen Street (Unit 5)', 'Cardiff', 'CF10 2AS', 'United Kingdom']",51.48223646064706,-3.175818622112274,Sporting Goods Shop
TS0864,51.5304006,-3.2510664,CARDIFF,CARDIFF,WAL,Unit 1 Andrews Buildings,CF10 2AS,699,19487,"TM7491,TS0864",4c0ce4882466a593d8a87621,JD Sports,9359,"['1A Cardiff Bay Retail Park (Cardiff Bay)', 'Cardiff', 'CF11 0JR', 'United Kingdom']",51.4569651901827,-3.1853002309799194,Sporting Goods Shop
TS0864,51.5304006,-3.2510664,CARDIFF,CARDIFF,WAL,Unit 1 Andrews Buildings,CF10 2AS,699,19487,"TM7491,TS0864",5103fbe2e4b01cf88583ef68,JD Sports,8970,"['Unit 12 Talbot Park Shopping Park', 'Llantrisant', 'County Borough of Rhondda Cynon Taff', 'CF72 8LW', 'United Kingdom']",51.5374927,-3.3801094,Sporting Goods Shop
TS0870,54.59555065,-5.92807936503482,BELFAST,BELFAST VICTORIA SQUARE,NI,Msu2 Victoria Square,BT1 4QG,806,19502,"TM7513,TS0870",4d2e06f55d4ca1cd8faf141b,JD Sports,396,"['14 Donegall Place', 'Belfast', 'BT1 5BA', 'United Kingdom']",54.5989231832766,-5.930063724517822,Sporting Goods Shop
TS0870,54.59555065,-5.92807936503482,BELFAST,BELFAST VICTORIA SQUARE,NI,Msu2 Victoria Square,BT1 4QG,806,19502,"TM7513,TS0870",5a8ece44840fc24cf4a49115,JD Sports,6750,"['37 Abbey Centre Newtownabbey', 'Newtownabbey', 'BT37 9UH', 'United Kingdom']",54.655915251323044,-5.918057763229399,Sporting Goods Shop
TS0870,54.59555065,-5.92807936503482,BELFAST,BELFAST VICTORIA SQUARE,NI,Msu2 Victoria Square,BT1 4QG,806,19502,"TM7513,TS0870",5a8ecd60061b510741e88c9b,JD Sports,12176,"['18 Bow Street Mall', 'Lisburn', 'BT28 1AW', 'United Kingdom']",54.51215200000001,-6.050113,Sporting Goods Shop
TS0870,54.59555065,-5.92807936503482,BELFAST,BELFAST VICTORIA SQUARE,NI,Msu2 Victoria Square,BT1 4QG,806,19502,"TM7513,TS0870",4d9b2ef1335ab60c00b0f4f9,JD Sports,317,"['Ug7 & Ffug 8 Victoria Square (UG7 & FFUG)', 'Belfast', 'BT1 4QG', 'United Kingdom']",54.59794306,-5.925389865,Sporting Goods Shop
TS0870,54.59555065,-5.92807936503482,BELFAST,BELFAST VICTORIA SQUARE,NI,Msu2 Victoria Square,BT1 4QG,806,19502,"TM7513,TS0870",5b7ed024c97f28002c3f9f09,JD Sports,2375,"['Unit E-LO-RO2, Windsor Park Stadium (Donegall Av)', 'Belfast', 'BT12 6LW', 'United Kingdom']",54.5817252653697,-5.9561240673065186,Sporting Goods Shop
TS0870,54.59555065,-5.92807936503482,BELFAST,BELFAST VICTORIA SQUARE,NI,Msu2 Victoria Square,BT1 4QG,806,19502,"TM7513,TS0870",4f3e48aae4b03dd024000396,JD Sports,2970,"['Unit 7 Boucher Retail Park, Boucher Crescent (Boucher Crescent)', 'Belfast', 'BT12 6HU', 'United Kingdom']",54.58084,-5.966501,Sporting Goods Shop
TS0870,54.59555065,-5.92807936503482,BELFAST,BELFAST VICTORIA SQUARE,NI,Msu2 Victoria Square,BT1 4QG,806,19502,"TM7513,TS0870",5b7ece6a112c6c002c0aa9b7,JD Sports,2331,"['Unit 18-20 Park Centre (Donegall Rd)', 'Belfast', 'BT12 6HN', 'United Kingdom']",54.58922324433211,-5.962539911270142,Sporting Goods Shop
TS0873,51.5140982676524,-0.0949137630593093,LONDON (CITY),CHEAPSIDE,ENG,Unit Msu1,EC2V 6AH,820,10300,"TM7580,TS0873",4fbf51d3e4b07c0ab040c868,JD Sports,9147,"['Unit C The Mall 33 Selbourne Walk', 'Walthamstow', 'Greater London', 'E17 7JR', 'United Kingdom']",51.58313160928119,-0.02323061227798462,Sporting Goods Shop
TS0873,51.5140982676524,-0.0949137630593093,LONDON (CITY),CHEAPSIDE,ENG,Unit Msu1,EC2V 6AH,820,10300,"TM7580,TS0873",4ac518f1f964a520ecad20e3,JD Sports,3095,"['197-203 Oxford Street', 'West End', 'Greater London', 'W1D 2LE', 'United Kingdom']",51.5152391,-0.1395672,Sporting Goods Shop
TS0874,51.5074173852427,-0.221360685945052,LONDON (WHITE CITY),WHITE CITY,ENG,2039-2041,W12 7GE,798,18581,"TM7588,TS0874",4ac518f1f964a520ecad20e3,JD Sports,5733,"['197-203 Oxford Street', 'West End', 'Greater London', 'W1D 2LE', 'United Kingdom']",51.5152391,-0.1395672,Sporting Goods Shop
TS0874,51.5074173852427,-0.221360685945052,LONDON (WHITE CITY),WHITE CITY,ENG,2039-2041,W12 7GE,798,18581,"TM7588,TS0874",5a8ecd3d5a2c9117b2eca1d4,JD Sports,9558,"['53 Tooting High Street', 'Tooting', 'Greater London', 'SW17 0SP', 'United Kingdom']",51.428388,-0.167446,Sporting Goods Shop
TS0874,51.5074173852427,-0.221360685945052,LONDON (WHITE CITY),WHITE CITY,ENG,2039-2041,W12 7GE,798,18581,"TM7588,TS0874",50ca2e02e4b0a678c04f68a5,JD Sports,7269,"['Unit 1B Stadium Retail Park (Wembley Pk Dr)', 'Wembley', 'Greater London', 'HA9 8TS', 'United Kingdom']",51.5613556,-0.280536,Sporting Goods Shop
TS0875,51.3376625237768,-0.74648905865756,CAMBERLEY,CAMBERLEY,ENG,3/5 Cambridge Walk,GU15 3SW,7192,1900,"TM7589,TS0875",4bf7d65e5ec320a1899287d3,JD Sports,50,"['Unit 2 The Square', 'Camberley', 'Surrey', 'GU15 3SL', 'United Kingdom']",51.33809062678435,-0.7462441921234131,Sporting Goods Shop
TS0875,51.3376625237768,-0.74648905865756,CAMBERLEY,CAMBERLEY,ENG,3/5 Cambridge Walk,GU15 3SW,7192,1900,"TM7589,TS0875",4c4ace8f5609c9b6de1b3790,JD Sports,5164,"['Unit 19 3 Princes Mead Sc', 'Farnborough', 'Hampshire', 'GU14 6YA', 'United Kingdom']",51.29176932457626,-0.7573673129081726,Sporting Goods Shop
TS0875,51.3376625237768,-0.74648905865756,CAMBERLEY,CAMBERLEY,ENG,3/5 Cambridge Walk,GU15 3SW,7192,1900,"TM7589,TS0875",4e9adbbd6da1cbe0b87f66f8,JD Sports,9955,"['52-53 The Mall Wellington Sc', 'Aldershot', 'Hampshire', 'GU11 1DB', 'United Kingdom']",51.248995,-0.765137,Sporting Goods Shop
TS0875,51.3376625237768,-0.74648905865756,CAMBERLEY,CAMBERLEY,ENG,3/5 Cambridge Walk,GU15 3SW,7192,1900,"TM7589,TS0875",5bfcf7021ffed7002cf00ec3,JD Sports,8835,"['UNIT 7, BRACCAN WALK, THE LEXICON SC', 'Bracknell', 'Bracknell Forest', 'RG12 1BE', 'United Kingdom']",51.4170193,-0.7488416,Sporting Goods Shop
TS0879,50.3723172288433,-4.13816895222987,PLYMOUTH,PLYMOUTH,ENG,Unit 43/44 Drakes Circus,PL1 1EA,799,7549,"TM7598,TS0879",568a8ec5498e71639f174885,JD Sports,21,"['Unit 37 Upper Level Drake Circus Sc (Upper Level)', 'Plymouth', 'Devon', 'PL1 1EA', 'United Kingdom']",50.3723076,-4.1378636,Sporting Goods Shop
TS0879,50.3723172288433,-4.13816895222987,PLYMOUTH,PLYMOUTH,ENG,Unit 43/44 Drakes Circus,PL1 1EA,799,7549,"TM7598,TS0879",5b7f04fadd12f8002c8536d7,JD Sports,480,"['52 New George St', 'Plymouth', 'Devon', 'PL1 1RR', 'United Kingdom']",50.37142962178803,-4.144796133041382,Sporting Goods Shop
TS0880,52.2045108768988,0.12243169040015,CAMBRIDGE,CAMBRIDGE,ENG,Unit Su 15 & 42,CB2 3AX,802,12600,"TM7609,TS0880",4bb606d36edc76b04848301c,JD Sports,114,"['Units 30-31 32 Lion Yard', 'Cambridge', 'Cambridgeshire', 'CB2 3NA', 'United Kingdom']",52.20478112557174,0.12080535292625427,Sporting Goods Shop
TS0885,55.8221106549371,-4.34221124806501,GLASGOW (SILVERBURN),GLASGOW SILVERBURN,SCO,Silverburn Shopping Centre,G53 6AG,807,5819,"TM7612,TS0885",55eaf05f498e8edb05e64cbc,JD Sports,121,"['Unit 65 Silverburn Centre, Barrhead Road (Barrhead Rd)', 'Glasgow', 'Glasgow City', 'G53 6AG', 'United Kingdom']",55.82106136560886,-4.3416836857795715,Sporting Goods Shop
TS0885,55.8221106549371,-4.34221124806501,GLASGOW (SILVERBURN),GLASGOW SILVERBURN,SCO,Silverburn Shopping Centre,G53 6AG,807,5819,"TM7612,TS0885",5a8ecd4a5a2c9117b2eca903,JD Sports,10004,"['Unit 79 Sylvania Way', 'Clydebank', 'West Dunbartonshire', 'G81 2RR', 'United Kingdom']",55.90499338841441,-4.404138922691345,Sporting Goods Shop
TS0885,55.8221106549371,-4.34221124806501,GLASGOW (SILVERBURN),GLASGOW SILVERBURN,SCO,Silverburn Shopping Centre,G53 6AG,807,5819,"TM7612,TS0885",4fef1b16e4b09cfafdd1dedb,JD Sports,6142,"['Unit 58/59, Lower Level, Braehead Sc (Kings Inch Rd)', 'Glasgow City', 'G51 4BP', 'United Kingdom']",55.87587199062784,-4.364382999999975,Sporting Goods Shop
TS0885,55.8221106549371,-4.34221124806501,GLASGOW (SILVERBURN),GLASGOW SILVERBURN,SCO,Silverburn Shopping Centre,G53 6AG,807,5819,"TM7612,TS0885",5182b87a498e9f19eac5d907,JD Sports,6853,"['87-91 Argyle Street (St Enoch Shopping Centre)', 'Glasgow', 'Glasgow City', 'G2 8BJ', 'United Kingdom']",55.85771785989028,-4.252762906745943,Sporting Goods Shop
TS0885,55.8221106549371,-4.34221124806501,GLASGOW (SILVERBURN),GLASGOW SILVERBURN,SCO,Silverburn Shopping Centre,G53 6AG,807,5819,"TM7612,TS0885",4e95865e722ed789ed0bf5e2,JD Sports,9568,"['Unit 33 Forge Shopping Centre', 'Glasgow', 'Glasgow City', 'G31 4EB', 'United Kingdom']",55.85374238397631,-4.199872612953186,Sporting Goods Shop
TS0885,55.8221106549371,-4.34221124806501,GLASGOW (SILVERBURN),GLASGOW SILVERBURN,SCO,Silverburn Shopping Centre,G53 6AG,807,5819,"TM7612,TS0885",5cc0961aecb3ed002526ee0b,JD Sports,7452,"['Departure Lounge', 'Paisley', 'Renfrewshire', 'PA3', 'United Kingdom']",55.864865,-4.433959,Sporting Goods Shop
TS0885,55.8221106549371,-4.34221124806501,GLASGOW (SILVERBURN),GLASGOW SILVERBURN,SCO,Silverburn Shopping Centre,G53 6AG,807,5819,"TM7612,TS0885",4e14305518a8b99f10ad7e67,JD Sports,7046,"['186 Trongate (Glassford St)', 'Glasgow', 'Glasgow City', 'G1 5RY', 'United Kingdom']",55.85752713631158,-4.248780012130737,Sporting Goods Shop
TS0891,54.9731943184377,-1.61659043304394,NEWCASTLE UPON TYNE,NEWCASTLE ELDON SQUARE,ENG,Units 3-7 St. Andrews Way,NE1 7XD,870,15088,"TM7664,TS0891",4ef1f9270e617e29c6859566,JD Sports,9766,"['Unit 89 The Galleries Sc', 'Washington', 'Sunderland', 'NE38 7RT', 'United Kingdom']",54.900158,-1.531965,Sporting Goods Shop
TS0891,54.9731943184377,-1.61659043304394,NEWCASTLE UPON TYNE,NEWCASTLE ELDON SQUARE,ENG,Units 3-7 St. Andrews Way,NE1 7XD,870,15088,"TM7664,TS0891",4bc09ecdb492d13aee80a460,JD Sports,3888,"['105A 106B B1-B7/9 The Gallery Metro Centre (Red Mall)', 'Gateshead', 'NE11 9YP', 'United Kingdom']",54.95711929952166,-1.6706176822090129,Sporting Goods Shop
TS0891,54.9731943184377,-1.61659043304394,NEWCASTLE UPON TYNE,NEWCASTLE ELDON SQUARE,ENG,Units 3-7 St. Andrews Way,NE1 7XD,870,15088,"TM7664,TS0891",4c237be87e85c9285d9bbd21,JD Sports,8982,"['Unit G2 Silverlink Retail Park', 'Newcastle upon Tyne', 'NE28 9NP', 'United Kingdom']",55.011193525684234,-1.492515206336975,Sporting Goods Shop
TS0891,54.9731943184377,-1.61659043304394,NEWCASTLE UPON TYNE,NEWCASTLE ELDON SQUARE,ENG,Units 3-7 St. Andrews Way,NE1 7XD,870,15088,"TM7664,TS0891",4c9206c5ae45224bbc6aec97,JD Sports,381,"['54 Northumberland Street', 'Newcastle upon Tyne', 'NE1 7DF', 'United Kingdom']",54.9756803,-1.6124877,Sporting Goods Shop
TS0893,53.6849427953932,-1.49654295091195,WAKEFIELD,WAKEFIELD,ENG,Unit G11 & G12,WF1 1QR,939,5000,"TM7361,TS0893",5128c7dee4b069188d2dfed0,JD Sports,130,"['Unit G1 Trinity Walk', 'Wakefield', 'WF1 1QS', 'United Kingdom']",53.683906,-1.495606,Sporting Goods Shop
TS0893,53.6849427953932,-1.49654295091195,WAKEFIELD,WAKEFIELD,ENG,Unit G11 & G12,WF1 1QR,939,5000,"TM7361,TS0893",4bf90c63b182c9b6da5b785a,JD Sports,12842,"['132 Briggate', 'Leeds', 'LS1 6HF', 'United Kingdom']",53.7971172,-1.5420968,Sporting Goods Shop
TS0893,53.6849427953932,-1.49654295091195,WAKEFIELD,WAKEFIELD,ENG,Unit G11 & G12,WF1 1QR,939,5000,"TM7361,TS0893",5a8eceb25c68381ffe1fb356,JD Sports,10624,"['Unit 27 Carlton Lanes', 'Castleford', 'Wakefield', 'WF10 1AD', 'United Kingdom']",53.7258869,-1.3508986,Sporting Goods Shop
TS0893,53.6849427953932,-1.49654295091195,WAKEFIELD,WAKEFIELD,ENG,Unit G11 & G12,WF1 1QR,939,5000,"TM7361,TS0893",4d7fb80a95c1a143d3a4eaf2,JD Sports,9610,"['Unit 45 White Rose Sc (Dewsbury Rd)', 'Leeds', 'LS11 8LU', 'United Kingdom']",53.7581482,-1.5738823,Sporting Goods Shop
TS0894,51.482579474247,-0.610993674951536,WINDSOR,WINDSOR,ENG,33 King Edward Court,SL4 1TG,830,3683,TS0894,4ca86cac76d3a093288c156b,JD Sports,181,"['12A Peascod St', 'Windsor', 'Berkshire', 'SL4 1DU', 'United Kingdom']",51.482695105969945,-0.6083850206934527,Sporting Goods Shop
TS0894,51.482579474247,-0.610993674951536,WINDSOR,WINDSOR,ENG,33 King Edward Court,SL4 1TG,830,3683,TS0894,4baf53ccf964a5202ef83be3,JD Sports,11647,"['Units 221 222 & 205 The Chimes (High St)', 'Uxbridge', 'Greater London', 'UB8 1GB', 'United Kingdom']",51.545247,-0.476358,Sporting Goods Shop
TS0894,51.482579474247,-0.610993674951536,WINDSOR,WINDSOR,ENG,33 King Edward Court,SL4 1TG,830,3683,TS0894,4ccd7365063a721ec1c5949a,JD Sports,8731,"['Unit S5 Two Rivers Shopping Park (Mustard Mill Rd)', 'Surrey', 'TW18 4WB', 'United Kingdom']",51.435132916648826,-0.5107542872428894,Sporting Goods Shop
TS0894,51.482579474247,-0.610993674951536,WINDSOR,WINDSOR,ENG,33 King Edward Court,SL4 1TG,830,3683,TS0894,50e05967e4b0bc86ad3de844,JD Sports,3178,"['190 High Street', 'Slough', 'Berkshire', 'SL1 1JS', 'United Kingdom']",51.5081573,-0.5906257,Sporting Goods Shop
TS0894,51.482579474247,-0.610993674951536,WINDSOR,WINDSOR,ENG,33 King Edward Court,SL4 1TG,830,3683,TS0894,4e5c8aead22dcfc93415b9d6,JD Sports,8553,"['Terminal 5 (LHR Airport)', 'Hounslow', 'TW6 2GA', 'United Kingdom']",51.472375,-0.48872,Sporting Goods Shop
TS0931,52.6362436897644,-1.13528680957916,LEICESTER,LEICESTER,ENG,Units 87/88 & 108/109,LE1 4FQ,838,8855,"TM7740,TS0931",4d1b517883c5a1cda8d52a4e,JD Sports,73,"['Units Su14, B C & D, High Cross Shopping Centre (Lower Level)', 'Leicester', 'LE1 4FR', 'United Kingdom']",52.63611505744007,-1.1363527178764343,Sporting Goods Shop
TS0931,52.6362436897644,-1.13528680957916,LEICESTER,LEICESTER,ENG,Units 87/88 & 108/109,LE1 4FQ,838,8855,"TM7740,TS0931",5a8ecd8ea87921721ff7ddb8,JD Sports,5265,"['Unit 5B, Fosse Shopping Park', 'Leicester', 'LE19 1HX', 'United Kingdom']",52.59717,-1.1791906,Sporting Goods Shop
TS0933,53.4146877148088,-1.40932402799025,SHEFFIELD (MEADOWHALL),MEADOWHALL,ENG,9/15 Park Lane,S9 1EL,853,15500,"TM7741,TS0933",4cf262b01c158cfadf54d7b5,JD Sports,231,"['42, High Street, Meadowhall Sc (Meadowhall Shopping Centre)', 'Sheffield', 'S9 1EN', 'United Kingdom']",53.413212,-1.411773,Sporting Goods Shop
TS0933,53.4146877148088,-1.40932402799025,SHEFFIELD (MEADOWHALL),MEADOWHALL,ENG,9/15 Park Lane,S9 1EL,853,15500,"TM7741,TS0933",5a8eceb8dd84423bad936344,JD Sports,4056,"['8 College Walk', 'Rotherham', 'S60 1QB', 'United Kingdom']",53.433154568820235,-1.3565996289253235,Sporting Goods Shop
TS0933,53.4146877148088,-1.40932402799025,SHEFFIELD (MEADOWHALL),MEADOWHALL,ENG,9/15 Park Lane,S9 1EL,853,15500,"TM7741,TS0933",5a8ecffc12138435918ff083,JD Sports,10741,"['Cortonwood Retail Park', 'Barnsley', 'S73 0UF', 'United Kingdom']",53.51025364452402,-1.3869589533729823,Sporting Goods Shop
TS0933,53.4146877148088,-1.40932402799025,SHEFFIELD (MEADOWHALL),MEADOWHALL,ENG,9/15 Park Lane,S9 1EL,853,15500,"TM7741,TS0933",4be691eb2457a5937bf5ac15,JD Sports,5965,"['Unit 2, Phase 2, The Moor', 'Sheffield', 'S1 4PA', 'United Kingdom']",53.37693738210521,-1.4731080830097198,Sporting Goods Shop
TS0933,53.4146877148088,-1.40932402799025,SHEFFIELD (MEADOWHALL),MEADOWHALL,ENG,9/15 Park Lane,S9 1EL,853,15500,"TM7741,TS0933",50d5dc4ce4b0ab0ed79f88db,JD Sports,8618,"['Unit 15 Drakehouse Retail Park Waterthorpe (Waterthorpe)', 'Sheffield', 'S20 7JJ', 'United Kingdom']",53.3440073,-1.3563627,Sporting Goods Shop
TS0934,53.43022975,-7.89766989616603,Z EIRE ATHLONE,ATHLONE,EIR,Unit 36,N37 NN28,850,2200,TS0934,4dd3e83e45dd98b61e772c6f,JD Sports,2651,"['Unit 52 Athlone Town Centre', 'Athlone', 'Co Westmeath', 'Ireland']",53.423555,-7.9360473,Sporting Goods Shop
TS0938,51.4529629,-0.97187085,READING,READING ORACLE CTR,ENG,"Unit 43, Town Mall",RG1 2AS,171,10800,"TM7096,TS0938",4bb5ec762ea1952174e3aa2f,JD Sports,343,"['52 Broad Street', 'Reading', 'RG1 2AA', 'United Kingdom']",51.45582619146551,-0.973699539899826,Sporting Goods Shop
TS0961,51.458420625,-2.5858980125,BRISTOL,BRISTOL CABOT CIRCUS,ENG,Lower Ground Su25,BS1 3BA,724,12819,"TM7760,TS0961",4b05883ef964a52043ba22e3,JD Sports,60,"['Su12 Cabot Circus', 'Bristol', 'BS1 3BF', 'United Kingdom']",51.45892557189351,-2.585558295249939,Sporting Goods Shop
TS0961,51.458420625,-2.5858980125,BRISTOL,BRISTOL CABOT CIRCUS,ENG,Lower Ground Su25,BS1 3BA,724,12819,"TM7760,TS0961",5b7ee2c482a750002cc10104,JD Sports,2125,"['Unit 2B Avonmeads Shopping', 'Bristol', 'BS2 0SP', 'United Kingdom']",51.4481915,-2.5600224,Sporting Goods Shop
TS0961,51.458420625,-2.5858980125,BRISTOL,BRISTOL CABOT CIRCUS,ENG,Lower Ground Su25,BS1 3BA,724,12819,"TM7760,TS0961",4cbafb1a4495721e5e15537a,JD Sports,7473,"['Lr40 Lower Level The Mall, Cribbs Causeway (Cribbs Causeway)', 'Bristol', 'BS34 5UP', 'United Kingdom']",51.5252783,-2.5957777,Sporting Goods Shop
TS0962,51.5618917,-1.7861816,SWINDON,SWINDON,ENG,Su1,SN1 1BL,897,3800,"TM7761,TS0962",4cac678e2f08236a9a508b61,JD Sports,65,"['Unit 5 Canal Walk Bridge Street (Bridge St)', 'Swindon', 'SN1 1LD', 'United Kingdom']",51.56130636616309,-1.7861607670783997,Sporting Goods Shop
TS1012,53.46255895,-2.34611903044906,MANCHESTER (TRAFFORD C),TRAFFORD CENTRE,ENG,130-134 Regent Crescent,M17 8AF,1056,26093,"TM7788,TS1012",4edd380cbe7be2833b142d45,JD Sports,482,"['48 Regents Crescent, Unit L12', 'Trafford Centre', 'Trafford', 'M17 8AP', 'United Kingdom']",53.466613,-2.348693,Sporting Goods Shop
TS1012,53.46255895,-2.34611903044906,MANCHESTER (TRAFFORD C),TRAFFORD CENTRE,ENG,130-134 Regent Crescent,M17 8AF,1056,26093,"TM7788,TS1012",5a8eceff67af3a74d388fc4b,JD Sports,10761,"['Unit 23 The Birtles Sc', 'Wythenshawe', 'Greater Manchester', 'M22 5RF', 'United Kingdom']",53.37964860824238,-2.2626981139183044,Sporting Goods Shop
TS1012,53.46255895,-2.34611903044906,MANCHESTER (TRAFFORD C),TRAFFORD CENTRE,ENG,130-134 Regent Crescent,M17 8AF,1056,26093,"TM7788,TS1012",5a4545b8c0f16320555bd027,JD Sports,5603,"['Unit G, Regent Retail Park', 'Salford', 'M5 4DE', 'United Kingdom']",53.477943,-2.265591,Sporting Goods Shop
TS1012,53.46255895,-2.34611903044906,MANCHESTER (TRAFFORD C),TRAFFORD CENTRE,ENG,130-134 Regent Crescent,M17 8AF,1056,26093,"TM7788,TS1012",4fad0970e4b027b7361a3518,JD Sports,7898,"['Gf2 Ellesmere Shopping Centre', 'Walkden', 'Salford', 'M28 3BT', 'United Kingdom']",53.525361,-2.401625,Sporting Goods Shop
TS1012,53.46255895,-2.34611903044906,MANCHESTER (TRAFFORD C),TRAFFORD CENTRE,ENG,130-134 Regent Crescent,M17 8AF,1056,26093,"TM7788,TS1012",4b7ec528f964a52010fe2fe3,JD Sports,7233,"['16-18 Arndale Centre, Barbarolli Mall', 'Manchester', 'M4 3AB', 'United Kingdom']",53.4835743595944,-2.2428121987419445,Sporting Goods Shop
TS1012,53.46255895,-2.34611903044906,MANCHESTER (TRAFFORD C),TRAFFORD CENTRE,ENG,130-134 Regent Crescent,M17 8AF,1056,26093,"TM7788,TS1012",4da1ab35b3e7236a011e0e79,JD Sports,8239,"['Unit B Central Retail Park Gt Ancoats St', 'Manchester', 'Greater Manchester', 'M4 6DJ', 'United Kingdom']",53.48240209762607,-2.2263139486312866,Sporting Goods Shop
TS1036,56.4590904874538,-2.97458139581251,DUNDEE,DUNDEE,SCO,L12 -14 Overgate,DD1 1UE,927,4462,"TM7380,TS1036",56e81290cd1005bb81bf1865,JD Sports,37,"['Unit L1 Overgate Sc', 'Dundee', 'Dundee City', 'DD1 1UF', 'United Kingdom']",56.4593799,-2.9742761,Sporting Goods Shop
TS1040,51.13422665,0.264452066666667,TUNBRIDGE WELLS,TUNBRIDGE WELLS,ENG,13-17 Calverley Road,TN1 2TB,916,6425,"TM7868,TS1040",5a8ecf9e7dc9e1114ef20a51,JD Sports,165,"['117-119, Royal Victoria Place', 'Tunbridge Wells', 'Kent', 'TN1 2SS', 'United Kingdom']",51.135011,0.266473,Sporting Goods Shop
TS1041,54.153731,-4.5361958,DOUGLAS (IOM),DOUGLAS IOM,IOM,32/36 Strand Centre,IM1 2ER,976,3012,"TM7872,TS1041",5a8ecffd51950e7c14d44094,JD Sports,3711,"['62-66 Strand Street', 'Douglas', 'IM1 2LY', 'Isle of Man']",54.1521145,-4.4793224,Sporting Goods Shop
TS1049,51.5700195236142,0.464007872057603,BASILDON,BASILDON,ENG,24/25 Eastgate Centre,SS14 1AE,946,3200,"TM7944,TS1049",528696b5498e217cc9ab8e8e,JD Sports,361,"['92 Town Square', 'Basildon', 'Essex', 'SS14 1BX', 'United Kingdom']",51.57009473727974,0.4587838053703308,Sporting Goods Shop
TS1054,51.4997736386709,-0.164214811164383,LONDON (KNIGHTSBRIDGE),KNIGHTSBRIDGE,ENG,70 Brompton Road,SW3 1ER,910,10190,"TM7014,TS1054",5a8ecd3d5a2c9117b2eca1d4,JD Sports,7949,"['53 Tooting High Street', 'Tooting', 'Greater London', 'SW17 0SP', 'United Kingdom']",51.428388,-0.167446,Sporting Goods Shop
TS1054,51.4997736386709,-0.164214811164383,LONDON (KNIGHTSBRIDGE),KNIGHTSBRIDGE,ENG,70 Brompton Road,SW3 1ER,910,10190,"TM7014,TS1054",4ac518f1f964a520ecad20e3,JD Sports,2424,"['197-203 Oxford Street', 'West End', 'Greater London', 'W1D 2LE', 'United Kingdom']",51.5152391,-0.1395672,Sporting Goods Shop
TS1055,50.836318,-0.778100414285714,CHICHESTER,CHICHESTER,ENG,89-91 East Street,PO19 1HA,936,4198,"TM7069,TS1055",4ede4d065c5c96a202d6d0b8,JD Sports,9417,"['13 London Road', 'Bognor Regis', 'West Sussex', 'PO21 1PQ', 'United Kingdom']",50.78401411394586,-0.6728678876493177,Sporting Goods Shop
TS1064,53.5951925091956,-2.29079511534322,BURY,BURY,ENG,Unit E03 The Rock,BL9 0JL,932,4000,"TM7172,TS1064",4e7ef870b8f78496894cdf34,JD Sports,153,"['Unit 27, The Rock', 'Bury', 'Borough of Bury', 'BL9 0ND', 'United Kingdom']",53.59459724467711,-2.292889999999943,Sporting Goods Shop
TS1064,53.5951925091956,-2.29079511534322,BURY,BURY,ENG,Unit E03 The Rock,BL9 0JL,932,4000,"TM7172,TS1064",5b7f0f5e4a7aae002cf533ea,JD Sports,12218,"['The Sharp Project (Thorpe Rd)', 'Manchester', 'Greater Manchester', 'M40 5BJ', 'United Kingdom']",53.50143612114339,-2.194744348526001,Sporting Goods Shop
TS1064,53.5951925091956,-2.29079511534322,BURY,BURY,ENG,Unit E03 The Rock,BL9 0JL,932,4000,"TM7172,TS1064",5b7ee447cabcff002b406904,JD Sports,378,"['Unit 6 Woodfield Retail Park (Peelway)', 'Bury', 'Borough of Bury', 'BL9 5BY', 'United Kingdom']",53.59748415364366,-2.2950375080108643,Sporting Goods Shop
TS1064,53.5951925091956,-2.29079511534322,BURY,BURY,ENG,Unit E03 The Rock,BL9 0JL,932,4000,"TM7172,TS1064",4c6aca2f897b1b8d72b1b217,JD Sports,10879,"['Unit 3 Centre Retail Park Elk Mill', 'Oldham', 'Lancashire', 'OL2 5HX', 'United Kingdom']",53.558099788457994,-2.138509154319763,Sporting Goods Shop
TS1064,53.5951925091956,-2.29079511534322,BURY,BURY,ENG,Unit E03 The Rock,BL9 0JL,932,4000,"TM7172,TS1064",4cce650a97d0224b3ba86bb8,JD Sports,9314,"['37 Market Place', 'Bolton', 'Lancashire', 'BL1 2AL', 'United Kingdom']",53.58132225610311,-2.4298163386727083,Sporting Goods Shop
TS1064,53.5951925091956,-2.29079511534322,BURY,BURY,ENG,Unit E03 The Rock,BL9 0JL,932,4000,"TM7172,TS1064",501620dfe4b0ad6ab37d6045,JD Sports,9132,"['38 Yorkshire Street', 'Rochdale', 'OL16 1JN', 'United Kingdom']",53.617892854318065,-2.1579283475875854,Sporting Goods Shop
TS1081,51.45488658,-0.1929248,WANDSWORTH,WANDSWORTH,ENG,"Unit 42/44, High Street",SW18 4TF,947,3000,TS1081,5a8ecd3d5a2c9117b2eca1d4,JD Sports,3438,"['53 Tooting High Street', 'Tooting', 'Greater London', 'SW17 0SP', 'United Kingdom']",51.428388,-0.167446,Sporting Goods Shop
TS1081,51.45488658,-0.1929248,WANDSWORTH,WANDSWORTH,ENG,"Unit 42/44, High Street",SW18 4TF,947,3000,TS1081,4ac518f1f964a520ecad20e3,JD Sports,7669,"['197-203 Oxford Street', 'West End', 'Greater London', 'W1D 2LE', 'United Kingdom']",51.5152391,-0.1395672,Sporting Goods Shop
TS1081,51.45488658,-0.1929248,WANDSWORTH,WANDSWORTH,ENG,"Unit 42/44, High Street",SW18 4TF,947,3000,TS1081,4d1b21efeab1224b5491cfe2,JD Sports,9207,"['20 Church Street', 'Kingston', 'Greater London', 'KT1 1RJ', 'United Kingdom']",51.4105961,-0.3049785,Sporting Goods Shop
TS1082,57.4788126,-4.2205434,INVERNESS,INVERNESS,SCO,"Units 63, 64 & 65 Eastgate Shopping Centre",IV2 3PP,966,4500,"TM7217,TS1082",4faa5ccfe4b0387cf18e8795,JD Sports,2608,"['Unit 6A Inverness Retail Park', 'Inverness', 'Highland', 'IV2 7GD', 'United Kingdom']",57.48104490516316,-4.177148347221419,Sporting Goods Shop
TS1090,51.5436306833333,-0.0072226,STRATFORD (WESTFIELD),STRATFORD WESTFIELD,ENG,"Su 2016, 223-224 The Arcade",E20 1EQ,964,19500,"TM7428,TS1090",4fbf51d3e4b07c0ab040c868,JD Sports,4534,"['Unit C The Mall 33 Selbourne Walk', 'Walthamstow', 'Greater London', 'E17 7JR', 'United Kingdom']",51.58313160928119,-0.02323061227798462,Sporting Goods Shop
TS1090,51.5436306833333,-0.0072226,STRATFORD (WESTFIELD),STRATFORD WESTFIELD,ENG,"Su 2016, 223-224 The Arcade",E20 1EQ,964,19500,"TM7428,TS1090",4ac518f1f964a520ecad20e3,JD Sports,9694,"['197-203 Oxford Street', 'West End', 'Greater London', 'W1D 2LE', 'United Kingdom']",51.5152391,-0.1395672,Sporting Goods Shop
TS1214,51.434012,-0.511044,STAINES,STAINES,ENG,15/16 South Mall,TW18 4QT,967,3300,"TM7655,TS1214",4ccd7365063a721ec1c5949a,JD Sports,126,"['Unit S5 Two Rivers Shopping Park (Mustard Mill Rd)', 'Surrey', 'TW18 4WB', 'United Kingdom']",51.435132916648826,-0.5107542872428894,Sporting Goods Shop
TS1214,51.434012,-0.511044,STAINES,STAINES,ENG,15/16 South Mall,TW18 4QT,967,3300,"TM7655,TS1214",4baf53ccf964a5202ef83be3,JD Sports,12613,"['Units 221 222 & 205 The Chimes (High St)', 'Uxbridge', 'Greater London', 'UB8 1GB', 'United Kingdom']",51.545247,-0.476358,Sporting Goods Shop
TS1214,51.434012,-0.511044,STAINES,STAINES,ENG,15/16 South Mall,TW18 4QT,967,3300,"TM7655,TS1214",51811256498e62ca7702a95c,JD Sports,13153,"['Wolsey Place, Wolsey Walk', 'Woking', 'Surrey', 'GU21 6GD', 'United Kingdom']",51.319715,-0.559076,Sporting Goods Shop
TS1214,51.434012,-0.511044,STAINES,STAINES,ENG,15/16 South Mall,TW18 4QT,967,3300,"TM7655,TS1214",58ff3626898bdc40dcbe8b7c,JD Sports,7075,"['Unit 4B, The Centre', 'Feltham', 'Greater London', 'TW13 4BS', 'United Kingdom']",51.4465937,-0.411086,Sporting Goods Shop
TS1214,51.434012,-0.511044,STAINES,STAINES,ENG,15/16 South Mall,TW18 4QT,967,3300,"TM7655,TS1214",5a8ecf374ac28a25b17fd086,JD Sports,10909,"['Unit 28/29 Treaty Centre', 'Hounslow', 'Greater London', 'TW3 1RH', 'United Kingdom']",51.4675941959067,-0.3632985055446625,Sporting Goods Shop
TS1214,51.434012,-0.511044,STAINES,STAINES,ENG,15/16 South Mall,TW18 4QT,967,3300,"TM7655,TS1214",5a8ecd3de1f2287787b907a6,JD Sports,11129,"['173 High Street', 'Hounslow', 'Greater London', 'TW3 1QL', 'United Kingdom']",51.46904581033594,-0.3607801779098736,Sporting Goods Shop
TS1214,51.434012,-0.511044,STAINES,STAINES,ENG,15/16 South Mall,TW18 4QT,967,3300,"TM7655,TS1214",50e05967e4b0bc86ad3de844,JD Sports,9928,"['190 High Street', 'Slough', 'Berkshire', 'SL1 1JS', 'United Kingdom']",51.5081573,-0.5906257,Sporting Goods Shop
TS1214,51.434012,-0.511044,STAINES,STAINES,ENG,15/16 South Mall,TW18 4QT,967,3300,"TM7655,TS1214",4ca86cac76d3a093288c156b,JD Sports,8657,"['12A Peascod St', 'Windsor', 'Berkshire', 'SL4 1DU', 'United Kingdom']",51.482695105969945,-0.6083850206934527,Sporting Goods Shop
TS1214,51.434012,-0.511044,STAINES,STAINES,ENG,15/16 South Mall,TW18 4QT,967,3300,"TM7655,TS1214",4e5c8aead22dcfc93415b9d6,JD Sports,4542,"['Terminal 5 (LHR Airport)', 'Hounslow', 'TW6 2GA', 'United Kingdom']",51.472375,-0.48872,Sporting Goods Shop
TS1232,51.4874256273321,0.283780895739933,THURROCK (LAKESIDE),LAKESIDE,ENG,334/336 Lakeside Shopping Centre,RM20 2ZH,957,17650,"TM7709,TS1232",4c2b49be77cfe21ee934b4f1,JD Sports,85,"['Units 83/85 Lakeside Shopping Centre (West Thurrock Way)', 'Essex', 'RM20 2ZP', 'United Kingdom']",51.48818758310209,0.28396546840667725,Sporting Goods Shop
TS1232,51.4874256273321,0.283780895739933,THURROCK (LAKESIDE),LAKESIDE,ENG,334/336 Lakeside Shopping Centre,RM20 2ZH,957,17650,"TM7709,TS1232",4e578d59aeb7eff130ccb9e5,JD Sports,10042,"['Unit 5 Broadway', 'Bexleyheath', 'Greater London', 'DA6 7LL', 'United Kingdom']",51.45633176667103,0.14783263206481934,Sporting Goods Shop
TS1232,51.4874256273321,0.283780895739933,THURROCK (LAKESIDE),LAKESIDE,ENG,334/336 Lakeside Shopping Centre,RM20 2ZH,957,17650,"TM7709,TS1232",4c5830b26201e21e9b590c70,JD Sports,11113,"['Unit 2-3 The Mall Heathway (Heathway)', 'Dagenham', 'Greater London', 'RM10 8RE', 'United Kingdom']",51.541466,0.148887,Sporting Goods Shop
TS1232,51.4874256273321,0.283780895739933,THURROCK (LAKESIDE),LAKESIDE,ENG,334/336 Lakeside Shopping Centre,RM20 2ZH,957,17650,"TM7709,TS1232",50dc5ed3e4b05e3a0cec1b57,JD Sports,6532,"['Unit 5 The Orchards Sc', 'Dartford', 'Kent', 'DA1 1AA', 'United Kingdom']",51.444879,0.218907,Sporting Goods Shop
TS1232,51.4874256273321,0.283780895739933,THURROCK (LAKESIDE),LAKESIDE,ENG,334/336 Lakeside Shopping Centre,RM20 2ZH,957,17650,"TM7709,TS1232",4d8ddd14c479a35d875b3797,JD Sports,5530,"['L071 Lower Thames Walk (Bluewater Shopping Centre)', 'Kent', 'DA9 9SL', 'United Kingdom']",51.43853281505391,0.2696618981475467,Sporting Goods Shop
TS1248,50.8229757,-0.1454397,BRIGHTON,BRIGHTON,ENG,Unit Msu 7,BN1 2TE,994,14185,"TM7726,TS1248",4b05884af964a520aabc22e3,JD Sports,82,"['Unit 1 Churchill Square', 'Brighton', 'East Sussex', 'BN1 2TA', 'United Kingdom']",50.823517,-0.146246,Sporting Goods Shop
TS1273,52.771299725,-1.206875325,LOUGHBOROUGH,LOUGHBOROUGH,ENG,17 Carillion Court,LE11 3EA,969,2700,"TM8106,TS1273",4f06ed06e4b039f5ab4bd944,JD Sports,329,['United Kingdom'],52.774238539964216,-1.207446239522529,Sporting Goods Shop
TS1273,52.771299725,-1.206875325,LOUGHBOROUGH,LOUGHBOROUGH,ENG,17 Carillion Court,LE11 3EA,969,2700,"TM8106,TS1273",4b94fb26f964a520488a34e3,JD Sports,1074,"['Market St', 'Loughborough', 'Leicestershire', 'United Kingdom']",52.76165282,-1.20754795,Sporting Goods Shop
TS1274,51.522913232647,-0.721018695787853,MAIDENHEAD,MAIDENHEAD,ENG,45-49 Nicholson Shopping Centre,SL6 1PY,973,2750,"TM8114,TS1274",50cdc081e4b09a6d9e5cc38a,JD Sports,12069,"['Unit 51, Eden Centre', 'High Wycombe', 'Buckinghamshire', 'HP11 2BZ', 'United Kingdom']",51.629373067661405,-0.7540547847747803,Sporting Goods Shop
TS1274,51.522913232647,-0.721018695787853,MAIDENHEAD,MAIDENHEAD,ENG,45-49 Nicholson Shopping Centre,SL6 1PY,973,2750,"TM8114,TS1274",50e05967e4b0bc86ad3de844,JD Sports,9180,"['190 High Street', 'Slough', 'Berkshire', 'SL1 1JS', 'United Kingdom']",51.5081573,-0.5906257,Sporting Goods Shop
TS1274,51.522913232647,-0.721018695787853,MAIDENHEAD,MAIDENHEAD,ENG,45-49 Nicholson Shopping Centre,SL6 1PY,973,2750,"TM8114,TS1274",4ca86cac76d3a093288c156b,JD Sports,8997,"['12A Peascod St', 'Windsor', 'Berkshire', 'SL4 1DU', 'United Kingdom']",51.482695105969945,-0.6083850206934527,Sporting Goods Shop
TS1291,55.7601775550406,-4.18278677513311,EAST KILBRIDE,EAST KILBRIDE,SCO,Unit Lr1/2,G74 1LL,980,3840,"TM8394,TS1291",4f48f33ce4b0e1322a5b9c9a,JD Sports,207,"['Unit 46 The Plaza, East Kilbride Shopping Centre (East Kilbride Shopping Centre)', 'East Kilbride', 'South Lanarkshire', 'G74 1LW', 'United Kingdom']",55.75972058202065,-4.179579019546509,Sporting Goods Shop
TS1291,55.7601775550406,-4.18278677513311,EAST KILBRIDE,EAST KILBRIDE,SCO,Unit Lr1/2,G74 1LL,980,3840,"TM8394,TS1291",5182b87a498e9f19eac5d907,JD Sports,11707,"['87-91 Argyle Street (St Enoch Shopping Centre)', 'Glasgow', 'Glasgow City', 'G2 8BJ', 'United Kingdom']",55.85771785989028,-4.252762906745943,Sporting Goods Shop
TS1291,55.7601775550406,-4.18278677513311,EAST KILBRIDE,EAST KILBRIDE,SCO,Unit Lr1/2,G74 1LL,980,3840,"TM8394,TS1291",4bd805f50b779c74be3a06a0,JD Sports,9674,"['Unit 2 Palace Towers Sc', 'Hamilton', 'South Lanarkshire', 'ML3 6AD', 'United Kingdom']",55.7769109283782,-4.031180441379547,Sporting Goods Shop
TS1291,55.7601775550406,-4.18278677513311,EAST KILBRIDE,EAST KILBRIDE,SCO,Unit Lr1/2,G74 1LL,980,3840,"TM8394,TS1291",4e95865e722ed789ed0bf5e2,JD Sports,10470,"['Unit 33 Forge Shopping Centre', 'Glasgow', 'Glasgow City', 'G31 4EB', 'United Kingdom']",55.85374238397631,-4.199872612953186,Sporting Goods Shop
TS1291,55.7601775550406,-4.18278677513311,EAST KILBRIDE,EAST KILBRIDE,SCO,Unit Lr1/2,G74 1LL,980,3840,"TM8394,TS1291",4e14305518a8b99f10ad7e67,JD Sports,11596,"['186 Trongate (Glassford St)', 'Glasgow', 'Glasgow City', 'G1 5RY', 'United Kingdom']",55.85752713631158,-4.248780012130737,Sporting Goods Shop
TS1312,55.4597793,-4.6264503,AYR,AYR,SCO,Unit 6,KA7 1TN,981,3500,"TM8412,TS1312",58a878e7a55db02433fa0d2d,JD Sports,38,"['Unit 5 Ayr Central', 'Ayr', 'South Ayrshire', 'KA7 1TN', 'United Kingdom']",55.4600756,-4.6261454,Sporting Goods Shop
TS1313,50.8852330426813,-1.24632432605335,WHITELEY,WHITELEY VILLAGE,ENG,Whiteley Way,PO15 7PD,988,5000,"TM8413,TS1313",51d1c687498e62b1c62be52e,JD Sports,36,"['Unit B4, Whiteley Valley', 'Fareham', 'Hampshire', 'PO15 7LL', 'United Kingdom']",50.885534,-1.246531,Sporting Goods Shop
TS1319,51.513261,-0.159628,LONDON (MARBLE ARCH),MARBLE ARCH,ENG,536-540 Oxford Street,W1C 1LS,805,6620,"TM8757,TS1319",5a8ecd3d5a2c9117b2eca1d4,JD Sports,9463,"['53 Tooting High Street', 'Tooting', 'Greater London', 'SW17 0SP', 'United Kingdom']",51.428388,-0.167446,Sporting Goods Shop
TS1319,51.513261,-0.159628,LONDON (MARBLE ARCH),MARBLE ARCH,ENG,536-540 Oxford Street,W1C 1LS,805,6620,"TM8757,TS1319",4ac518f1f964a520ecad20e3,JD Sports,1407,"['197-203 Oxford Street', 'West End', 'Greater London', 'W1D 2LE', 'United Kingdom']",51.5152391,-0.1395672,Sporting Goods Shop
TS1321,51.3199038243216,-0.560401830923909,WOKING,WOKING,ENG,Unit 46,GU21 6GD,989,3000,"TM8420,TS1321",51811256498e62ca7702a95c,JD Sports,94,"['Wolsey Place, Wolsey Walk', 'Woking', 'Surrey', 'GU21 6GD', 'United Kingdom']",51.319715,-0.559076,Sporting Goods Shop
TS1321,51.3199038243216,-0.560401830923909,WOKING,WOKING,ENG,Unit 46,GU21 6GD,989,3000,"TM8420,TS1321",4bf7d65e5ec320a1899287d3,JD Sports,13084,"['Unit 2 The Square', 'Camberley', 'Surrey', 'GU15 3SL', 'United Kingdom']",51.33809062678435,-0.7462441921234131,Sporting Goods Shop
TS1321,51.3199038243216,-0.560401830923909,WOKING,WOKING,ENG,Unit 46,GU21 6GD,989,3000,"TM8420,TS1321",5a8ecf0731fd144c99e267dd,JD Sports,9402,"['35 North Street', 'Guildford', 'Surrey', 'GU1 4TE', 'United Kingdom']",51.235982626996105,-0.5756315588951111,Sporting Goods Shop
TS1354,51.4393959,0.2711872,DARTFORD (BLUEWATERPARK),BLUEWATER PARK,ENG,"Unit 27-58, Upper Rose Gallery",DA9 9SP,992,14800,"TM8487,TS1354",4e578d59aeb7eff130ccb9e5,JD Sports,8763,"['Unit 5 Broadway', 'Bexleyheath', 'Greater London', 'DA6 7LL', 'United Kingdom']",51.45633176667103,0.14783263206481934,Sporting Goods Shop
TS1354,51.4393959,0.2711872,DARTFORD (BLUEWATERPARK),BLUEWATER PARK,ENG,"Unit 27-58, Upper Rose Gallery",DA9 9SP,992,14800,"TM8487,TS1354",50dc5ed3e4b05e3a0cec1b57,JD Sports,3678,"['Unit 5 The Orchards Sc', 'Dartford', 'Kent', 'DA1 1AA', 'United Kingdom']",51.444879,0.218907,Sporting Goods Shop
TS1354,51.4393959,0.2711872,DARTFORD (BLUEWATERPARK),BLUEWATER PARK,ENG,"Unit 27-58, Upper Rose Gallery",DA9 9SP,992,14800,"TM8487,TS1354",4d8ddd14c479a35d875b3797,JD Sports,142,"['L071 Lower Thames Walk (Bluewater Shopping Centre)', 'Kent', 'DA9 9SL', 'United Kingdom']",51.43853281505391,0.2696618981475467,Sporting Goods Shop
TS1354,51.4393959,0.2711872,DARTFORD (BLUEWATERPARK),BLUEWATER PARK,ENG,"Unit 27-58, Upper Rose Gallery",DA9 9SP,992,14800,"TM8487,TS1354",4c2b49be77cfe21ee934b4f1,JD Sports,5503,"['Units 83/85 Lakeside Shopping Centre (West Thurrock Way)', 'Essex', 'RM20 2ZP', 'United Kingdom']",51.48818758310209,0.28396546840667725,Sporting Goods Shop
TS2806,51.5252091993175,-2.59573012402087,BRISTOL (CRIBBSCAUSEWAY),BRISTOL CRIBBS CAUSEWAY,ENG,"Unit 49 Lower Level, The Mall",BS34 5GG,985,6200,"TM8451,TS2806",4cbafb1a4495721e5e15537a,JD Sports,8,"['Lr40 Lower Level The Mall, Cribbs Causeway (Cribbs Causeway)', 'Bristol', 'BS34 5UP', 'United Kingdom']",51.5252783,-2.5957777,Sporting Goods Shop
TS2806,51.5252091993175,-2.59573012402087,BRISTOL (CRIBBSCAUSEWAY),BRISTOL CRIBBS CAUSEWAY,ENG,"Unit 49 Lower Level, The Mall",BS34 5GG,985,6200,"TM8451,TS2806",5b7ee2c482a750002cc10104,JD Sports,8923,"['Unit 2B Avonmeads Shopping', 'Bristol', 'BS2 0SP', 'United Kingdom']",51.4481915,-2.5600224,Sporting Goods Shop
TS2806,51.5252091993175,-2.59573012402087,BRISTOL (CRIBBSCAUSEWAY),BRISTOL CRIBBS CAUSEWAY,ENG,"Unit 49 Lower Level, The Mall",BS34 5GG,985,6200,"TM8451,TS2806",4b05883ef964a52043ba22e3,JD Sports,7412,"['Su12 Cabot Circus', 'Bristol', 'BS1 3BF', 'United Kingdom']",51.45892557189351,-2.585558295249939,Sporting Goods Shop
TS2851,53.6459748976988,-1.77919793267774,HUDDERSFIELD,HUDDERSFIELD KINGSGATES,ENG,Unit 26 Kingsgates Centre,HD1 2QB,995,4500,"TM8475,TS2851",4c711a8ab5a5236abe195252,JD Sports,37,"['Unit 1 Kingsgate Shopping Centre', 'Huddersfield', 'Kirklees', 'HD1 2QB', 'United Kingdom']",53.64615310066369,-1.778714906745904,Sporting Goods Shop
TS2851,53.6459748976988,-1.77919793267774,HUDDERSFIELD,HUDDERSFIELD KINGSGATES,ENG,Unit 26 Kingsgates Centre,HD1 2QB,995,4500,"TM8475,TS2851",51fbe273498ec588e0bb16e1,JD Sports,10043,"['Unit 20, 14 Woolshops', 'Halifax', 'Calderdale', 'HX1 1RU', 'United Kingdom']",53.723188914009974,-1.8580051951064434,Sporting Goods Shop
TS2879,51.7514758745725,-1.2593504284495,OXFORD,OXFORD,ENG,22 Queen Street,OX1 1EP,1061,10100,"TM8571,TS2879",59e764186adbf520ce5da010,JD Sports,292,"['Unit 39 Westgate Shopping Centre', 'Oxford', 'Oxfordshire', 'OX1 1AN', 'United Kingdom']",51.74917229931676,-1.2613999843597412,Sporting Goods Shop
TS2879,51.7514758745725,-1.2593504284495,OXFORD,OXFORD,ENG,22 Queen Street,OX1 1EP,1061,10100,"TM8571,TS2879",55f17b71498e8a4f3bcf3dd4,JD Sports,3469,"['Unit 3 John Allen Cr, Btn Towns Road, Cowley', 'Oxford', 'Oxfordshire', 'OX4 3JP', 'United Kingdom']",51.73375459939117,-1.2179428339004517,Sporting Goods Shop
TS2880,52.5620913180707,-1.82560476233488,SUTTON COLDFIELD,SUTTON COLDFIELD,ENG,204 The Parade,B72 1PB,1021,3000,"TM8573,TS2880",510d0f5de4b0873bbfd4f4ec,JD Sports,48,"['144 The Mall Gracechurch Sc Sutton Coldfield', 'West Midlands', 'B72 1PA', 'United Kingdom']",52.56251893541293,-1.8254926800727844,Sporting Goods Shop
TS2880,52.5620913180707,-1.82560476233488,SUTTON COLDFIELD,SUTTON COLDFIELD,ENG,204 The Parade,B72 1PB,1021,3000,"TM8573,TS2880",5a8eceadd7627e4ebd708413,JD Sports,10840,"['3/5 Greenwood Square', 'Chelmsley Wood', 'Solihull', 'B37 5TR', 'United Kingdom']",52.479992,-1.739538,Sporting Goods Shop
TS2880,52.5620913180707,-1.82560476233488,SUTTON COLDFIELD,SUTTON COLDFIELD,ENG,204 The Parade,B72 1PB,1021,3000,"TM8573,TS2880",5a8ecff1d4cc9848ebfd2efd,JD Sports,7198,"['Unit 11 One Stop Retail Park Walsall Road (Walsall Rd)', 'Perry Barr', 'West Midlands', 'B42 1AA', 'United Kingdom']",52.517768,-1.9030310233135879,Sporting Goods Shop
TS2880,52.5620913180707,-1.82560476233488,SUTTON COLDFIELD,SUTTON COLDFIELD,ENG,204 The Parade,B72 1PB,1021,3000,"TM8573,TS2880",4c2a8822197e9521b079628d,JD Sports,10404,"['Lower Mall The Bullring Sc', 'Birmingham', 'West Midlands', 'B5 4BA', 'United Kingdom']",52.478206663656344,-1.893361682209047,Sporting Goods Shop
TS2880,52.5620913180707,-1.82560476233488,SUTTON COLDFIELD,SUTTON COLDFIELD,ENG,204 The Parade,B72 1PB,1021,3000,"TM8573,TS2880",5a8ecfc447f8767d374f1f8a,JD Sports,11204,"['Ventura Park Rd, Ventura Retail Park (Ventura Park Rd)', 'Tamworth', 'Staffordshire', 'B78 3JD', 'United Kingdom']",52.6274565,-1.6996064,Sporting Goods Shop
TS2880,52.5620913180707,-1.82560476233488,SUTTON COLDFIELD,SUTTON COLDFIELD,ENG,204 The Parade,B72 1PB,1021,3000,"TM8573,TS2880",4b831f50f964a52000f930e3,JD Sports,10411,"['1 New Street', 'Birmingham', 'West Midlands', 'B2 4RF', 'United Kingdom']",52.47876008140004,-1.895391047000885,Sporting Goods Shop
TS2880,52.5620913180707,-1.82560476233488,SUTTON COLDFIELD,SUTTON COLDFIELD,ENG,204 The Parade,B72 1PB,1021,3000,"TM8573,TS2880",5017e956e4b0cfe38c88c6b2,JD Sports,10144,"['Unit 7 St Andrews Shopping Park', 'Birmingham', 'West Midlands', 'B10 0XA', 'United Kingdom']",52.4743638061818,-1.8661576509475708,Sporting Goods Shop
TS2880,52.5620913180707,-1.82560476233488,SUTTON COLDFIELD,SUTTON COLDFIELD,ENG,204 The Parade,B72 1PB,1021,3000,"TM8573,TS2880",4c419349af052d7f9d887d79,JD Sports,11250,"['Unit 14 Town Wharf Retail Park', 'Walsall', 'WS2 8LL', 'United Kingdom']",52.58696965511438,-1.9867819547653198,Sporting Goods Shop
TS2880,52.5620913180707,-1.82560476233488,SUTTON COLDFIELD,SUTTON COLDFIELD,ENG,204 The Parade,B72 1PB,1021,3000,"TM8573,TS2880",4c2a8a85197e95212f7a628d,JD Sports,10434,"['Unit 6-7 Corporation St Caxtongate, Caxtongate', 'Birmingham', 'West Midlands', 'B2 4RN', 'United Kingdom']",52.47935100898577,-1.897990773463789,Sporting Goods Shop
TS2881,52.4820583450168,-2.11120199888267,DUDLEY (MERRY HILL),DUDLEY MERRY HILL,ENG,"Unit L81, The Merry Hill Centre",DY5 1SN,1024,9000,"TM8572,TS2881",4cfa84f6dccef04df8c9b59c,JD Sports,278,"['Unit L101 Merryhill Sc Brierley Hill', 'Dudley', 'DY5 1SY', 'United Kingdom']",52.47963609184035,-2.11019549570085,Sporting Goods Shop
TS2881,52.4820583450168,-2.11120199888267,DUDLEY (MERRY HILL),DUDLEY MERRY HILL,ENG,"Unit L81, The Merry Hill Centre",DY5 1SN,1024,9000,"TM8572,TS2881",5b7f096bb9a5a8002cc9f0c1,JD Sports,12460,"['Selly Oak Shopping Park', 'Selly Oak', 'West Midlands', 'B29 6SJ', 'United Kingdom']",52.442382436954475,-1.9394114613533022,Sporting Goods Shop
TS2881,52.4820583450168,-2.11120199888267,DUDLEY (MERRY HILL),DUDLEY MERRY HILL,ENG,"Unit L81, The Merry Hill Centre",DY5 1SN,1024,9000,"TM8572,TS2881",4ed63aad722eff15c01c3750,JD Sports,9139,"['Unit Su3 New Square', 'West Bromwich', 'Sandwell', 'B70 7NX', 'United Kingdom']",52.52038283517374,-1.9919317960739136,Sporting Goods Shop
TS2881,52.4820583450168,-2.11120199888267,DUDLEY (MERRY HILL),DUDLEY MERRY HILL,ENG,"Unit L81, The Merry Hill Centre",DY5 1SN,1024,9000,"TM8572,TS2881",4d233e5e5acaa35d28d4de35,JD Sports,12915,"['Unit C3B Bentley Bridge Retail Park', 'Wednesfield', 'West Midlands', 'WV11 1BP', 'United Kingdom']",52.597179067429494,-2.087477863754202,Sporting Goods Shop
TS2881,52.4820583450168,-2.11120199888267,DUDLEY (MERRY HILL),DUDLEY MERRY HILL,ENG,"Unit L81, The Merry Hill Centre",DY5 1SN,1024,9000,"TM8572,TS2881",55f17061498e32b72a281497,JD Sports,11440,"['Unit 26-32 Central Arcade', 'Wolverhampton', 'West Midlands', 'WV1 3NH', 'United Kingdom']",52.584325,-2.127989,Sporting Goods Shop
TS2881,52.4820583450168,-2.11120199888267,DUDLEY (MERRY HILL),DUDLEY MERRY HILL,ENG,"Unit L81, The Merry Hill Centre",DY5 1SN,1024,9000,"TM8572,TS2881",5a8ecfdc5f68b906981ca202,JD Sports,10198,"['Unit 1 Windsmill Shopping Park', 'Smethwick', 'Sandwell', 'B66 3PR', 'United Kingdom']",52.487095624543954,-1.9609951972961426,Sporting Goods Shop
TS2884,51.6547170124404,-0.393358439198212,WATFORD,WATFORD,ENG,Unit 123,WD17 2TH,1243,2775,"TM8577,TS2884",4bc34f68461576b0d56e7e32,JD Sports,71,"['Unit A4 The Harlequin Sc (Lower Mall)', 'Watford', 'Hertfordshire', 'WD17 2TE', 'United Kingdom']",51.655268,-0.393895,Sporting Goods Shop
TS2884,51.6547170124404,-0.393358439198212,WATFORD,WATFORD,ENG,Unit 123,WD17 2TH,1243,2775,"TM8577,TS2884",4b98f1aaf964a520b95735e3,JD Sports,8005,"['Unit 6A Borehamwood Shopping Park', 'Borehamwood', 'Hertfordshire', 'WD6 4PR', 'United Kingdom']",51.65661545299919,-0.2774852514266968,Sporting Goods Shop
TS2884,51.6547170124404,-0.393358439198212,WATFORD,WATFORD,ENG,Unit 123,WD17 2TH,1243,2775,"TM8577,TS2884",4ce698f5f1c6236ab06154f0,JD Sports,9019,"['St Anns Road', 'Harrow on the Hill', 'Greater London', 'HA1 1JX', 'United Kingdom']",51.5816074,-0.3371214,Sporting Goods Shop
TS2884,51.6547170124404,-0.393358439198212,WATFORD,WATFORD,ENG,Unit 123,WD17 2TH,1243,2775,"TM8577,TS2884",53135ebf498e6bb1af028614,JD Sports,9399,"['Unit 9 Broadwalk Sc', 'Edgware', 'Greater London', 'HA8 7BD', 'United Kingdom']",51.61284356160277,-0.27522012591362,Sporting Goods Shop
TS2892,52.37147884,4.89189362,Z HOLLAND AMSTERDAM R,KALVERSTRAAT,NL,Unit 48/52,1012PE,3500,10203,"TM8580,TS2892",598f628fa879210716bc4e62,JD Sports,1894,"['Ferdinand Bolstraat 71-77', '1072 LC Amsterdam', 'Nederland']",52.35448163822464,4.890640588954966,Sporting Goods Shop
TS2892,52.37147884,4.89189362,Z HOLLAND AMSTERDAM R,KALVERSTRAAT,NL,Unit 48/52,1012PE,3500,10203,"TM8580,TS2892",56276132498e87d33210ebfd,JD Sports,362,"['196 Nieuwendijk', '1012 MV Amsterdam', 'Nederland']",52.374577,4.893558,Sporting Goods Shop
TS2954,51.7478196768204,-0.473168834223249,HEMEL HEMPSTEAD,HEMEL HEMPSTEAD,ENG,Unit 6/7/8,HP1 1BT,1033,3123,"TM8616,TS2954",4c39a9973849c928aaa1c1b1,JD Sports,11029,"['High Wycombe', 'Buckinghamshire', 'United Kingdom']",51.835648,-0.39903,Sporting Goods Shop
TS2954,51.7478196768204,-0.473168834223249,HEMEL HEMPSTEAD,HEMEL HEMPSTEAD,ENG,Unit 6/7/8,HP1 1BT,1033,3123,"TM8616,TS2954",4bc34f68461576b0d56e7e32,JD Sports,11664,"['Unit A4 The Harlequin Sc (Lower Mall)', 'Watford', 'Hertfordshire', 'WD17 2TE', 'United Kingdom']",51.655268,-0.393895,Sporting Goods Shop
TS2954,51.7478196768204,-0.473168834223249,HEMEL HEMPSTEAD,HEMEL HEMPSTEAD,ENG,Unit 6/7/8,HP1 1BT,1033,3123,"TM8616,TS2954",5a8ecefabd40091eb21d9171,JD Sports,226,"['Unit 15 The Marlowes Sc', 'Hemel Hempstead', 'Hertfordshire', 'HP1 1DX', 'United Kingdom']",51.74946954033304,-0.4712507128715515,Sporting Goods Shop
TS3044,53.5814072076006,-2.4300211359163,BOLTON,BOLTON,ENG,Unit 19,BL1 2AL,1066,4000,"TM8668,TS3044",4cce650a97d0224b3ba86bb8,JD Sports,16,"['37 Market Place', 'Bolton', 'Lancashire', 'BL1 2AL', 'United Kingdom']",53.58132225610311,-2.4298163386727083,Sporting Goods Shop
TS3044,53.5814072076006,-2.4300211359163,BOLTON,BOLTON,ENG,Unit 19,BL1 2AL,1066,4000,"TM8668,TS3044",5b7ee447cabcff002b406904,JD Sports,9096,"['Unit 6 Woodfield Retail Park (Peelway)', 'Bury', 'Borough of Bury', 'BL9 5BY', 'United Kingdom']",53.59748415364366,-2.2950375080108643,Sporting Goods Shop
TS3044,53.5814072076006,-2.4300211359163,BOLTON,BOLTON,ENG,Unit 19,BL1 2AL,1066,4000,"TM8668,TS3044",4fad0970e4b027b7361a3518,JD Sports,6515,"['Gf2 Ellesmere Shopping Centre', 'Walkden', 'Salford', 'M28 3BT', 'United Kingdom']",53.525361,-2.401625,Sporting Goods Shop
TS3044,53.5814072076006,-2.4300211359163,BOLTON,BOLTON,ENG,Unit 19,BL1 2AL,1066,4000,"TM8668,TS3044",4e7ef870b8f78496894cdf34,JD Sports,9179,"['Unit 27, The Rock', 'Bury', 'Borough of Bury', 'BL9 0ND', 'United Kingdom']",53.59459724467711,-2.292889999999943,Sporting Goods Shop
TS3044,53.5814072076006,-2.4300211359163,BOLTON,BOLTON,ENG,Unit 19,BL1 2AL,1066,4000,"TM8668,TS3044",4e7cbccfb0fbfe3c1647ba41,JD Sports,6912,"['Unit 2 Middlebrook Retail Park Mansell Way (Mansell Way)', 'Bolton', 'Lancashire', 'BL6 6JA', 'United Kingdom']",53.581697,-2.534621,Sporting Goods Shop
TS3044,53.5814072076006,-2.4300211359163,BOLTON,BOLTON,ENG,Unit 19,BL1 2AL,1066,4000,"TM8668,TS3044",567e6923498ee565cda1d90c,JD Sports,11190,"['Unit 7B Parsonage Retail Park', 'Leigh', 'Wigan', 'WN7 5SJ', 'United Kingdom']",53.49935409259884,-2.5277379155158997,Sporting Goods Shop
TS3105,51.4895589,6.8859196,Z GERMANY OBERHAUSEN R,CENTRO OBERHAUSEN,DE,Centroallee 118/119,46047,3505,8900,"TM8667,TS3105",5acb7ff160d11b01329463b2,JD Sports,425,"['Centro Oberhausen, Centroallee 55', '46047 Oberhausen', 'Deutschland']",51.490886,6.880163,Sporting Goods Shop
TS3105,51.4895589,6.8859196,Z GERMANY OBERHAUSEN R,CENTRO OBERHAUSEN,DE,Centroallee 118/119,46047,3505,8900,"TM8667,TS3105",56152356498ecc7410c60e0c,JD Sports,9019,"['Limbecker Platz 1a', '45127 Essen', 'Deutschland']",51.458405819898076,7.006005048751831,Sporting Goods Shop
TS3112,51.4160308108112,-0.749510184311833,BRACKNELL,BRACKNELL,ENG,1 Braccan Walk,RG12 1BE,1019,4135,"TM8712,TS3112",5bfcf7021ffed7002cf00ec3,JD Sports,119,"['UNIT 7, BRACCAN WALK, THE LEXICON SC', 'Bracknell', 'Bracknell Forest', 'RG12 1BE', 'United Kingdom']",51.4170193,-0.7488416,Sporting Goods Shop
TS3112,51.4160308108112,-0.749510184311833,BRACKNELL,BRACKNELL,ENG,1 Braccan Walk,RG12 1BE,1019,4135,"TM8712,TS3112",4bf7d65e5ec320a1899287d3,JD Sports,8679,"['Unit 2 The Square', 'Camberley', 'Surrey', 'GU15 3SL', 'United Kingdom']",51.33809062678435,-0.7462441921234131,Sporting Goods Shop
TS3129,52.52027755,13.4047296223029,Z GERMANY BERLIN R,BERLIN KAUFHOF,DE,Galeria Kaufhof,10178,3508,9759,"TM8721,TS3129",5a8eced8f8cbd46ab8856e2c,JD Sports,8348,"['Schlossstrae 117', '12163 Berlin', 'Deutschland']",52.46236942932585,13.326460272073746,Sporting Goods Shop
TS3177,52.0758411392857,4.30891749464286,Z HOLLAND DEN HAAG R,DEN HAAG,NL,Den Haag,2511BG,3511,6792,"TM8862,TS3177",5a8ecef4f4b5255793e89be9,JD Sports,210,"['8 Spuistraat', '2511 BD Den Haag', 'Nederland']",52.0772657743774,4.3109482526779175,Sporting Goods Shop
TS3178,51.9205603355263,4.48330226842105,Z HOLLAND ROTTERDAM R,ROTTERDAM,NL,Rotterdam,3011PM,3510,6530,"TM8744,TS3178",58b15afc1174203d15c5350a,JD Sports,3788,"['Zuidplein Hg 523/537', '3083 BG Rotterdam', 'Nederland']",51.886801066968815,4.490232457672164,Sporting Goods Shop
TS3178,51.9205603355263,4.48330226842105,Z HOLLAND ROTTERDAM R,ROTTERDAM,NL,Rotterdam,3011PM,3510,6530,"TM8744,TS3178",52f2499511d20ef978d3810d,JD Sports,451,"['Lijnbaan 77', '3012 EM Rotterdam', 'Nederland']",51.9206209310261,4.4767282994689594,Sporting Goods Shop
TS3180,53.228607,-0.5408199,LINCOLN,LINCOLN,ENG,Unit Ru2,LN2 1AP,1040,4490,"TM8749,TS3180",50dd8f01e4b07549714a148a,JD Sports,380,"['Unit A 158 High Street (Unit A)', 'Lincoln', 'Lincolnshire', 'LN5 7TP', 'United Kingdom']",53.22543580714263,-0.5429587288360835,Sporting Goods Shop
TS3190,-33.892378825,151.2506208,Z AUSTRALIA SYDNEY R,BONDI JUNCTION SYDNEY,AU,500 Oxford Street,NSW 2022,3400,8923,"TM8762,TS3190",5c00cb9eff0306002cc12b7d,JD Sports,4700,"['Shop T4, 189 Sydney Arcade,  Pitt Street Mall  2000', 'Sydney NSW 2000', 'Australia']",-33.869225,151.2080901,Sporting Goods Shop
TS3191,-37.8174921,144.9678708,Z AUSTRALIA MELBOURNE R,EMPORIUM,AU,Emporium Shopping Centre,3000 VIC,3402,13277,"TM8763,TS3191",5902a12535d3fc51b966ff67,JD Sports,896,"['Melbourne VIC 3000', 'Australia']",-37.81036932224301,144.96311703747645,Sporting Goods Shop
TS3191,-37.8174921,144.9678708,Z AUSTRALIA MELBOURNE R,EMPORIUM,AU,Emporium Shopping Centre,3000 VIC,3402,13277,"TM8763,TS3191",5b7f3a3bb6eedb002c77019d,JD Sports,8720,"['Shop L02, 2125/26, Highpoint Shopping Centre, 200 Rosamond Road', 'Maribyrnong VIC 3032', 'Australia']",-37.77291,144.88636,Sporting Goods Shop
TS3194,-33.8708259,151.205152,Z AUSTRALIA SYDNEY R,GOWINGS,AU,Gowings Building,2000 NSW,3403,10241,"TM8761,TS3194",5c00cb9eff0306002cc12b7d,JD Sports,324,"['Shop T4, 189 Sydney Arcade,  Pitt Street Mall  2000', 'Sydney NSW 2000', 'Australia']",-33.869225,151.2080901,Sporting Goods Shop
TS3274,50.9398087,6.95475109098173,Z GERMANY COLOGNE R,COLOGNE KAUFHOF,DE,Hohe Strae 41-53,50667,,10113,"TM8803,TS3274",585c13e2d4390729e0ec52f8,JD Sports,173,"['Hohe Str. 128-132', '50667 Kln', 'Deutschland']",50.93873418692554,6.956547796726227,Sporting Goods Shop
TS3274,50.9398087,6.95475109098173,Z GERMANY COLOGNE R,COLOGNE KAUFHOF,DE,Hohe Strae 41-53,50667,,10113,"TM8803,TS3274",5a8ecf028c812a571e368a02,JD Sports,10602,"['Rathaus Galerie Leverkusen, Friedrich-Ebert-Platz 2', '51373 Leverkusen', 'Deutschland']",51.03273141731139,6.987980604171753,Sporting Goods Shop
TS3274,50.9398087,6.95475109098173,Z GERMANY COLOGNE R,COLOGNE KAUFHOF,DE,Hohe Strae 41-53,50667,,10113,"TM8803,TS3274",558ec612498e164a5dcea758,JD Sports,2951,"['Kalker Hauptstr. 55', '51103 Kln', 'Deutschland']",50.9379688,6.9967182,Sporting Goods Shop
